{"version": 0.6, "generator": "Overpass API 0.7.62.8 e802775f", "osm3s": {"timestamp_osm_base": "2025-11-29T15:54:00Z", "copyright": "The data included in this document is from www.openstreetmap.org. The data is made available under ODbL."}, "elements": [{"type": "node", "id": 665871296, "lat": 12.9967968, "lon": 77.6045046, "tags": {"addr:street": "Benson Cross Road", "name": "Family Super Market", "phone": "+91-80-23634305;+91-80-23430462", "shop": "supermarket"}}, {"type": "node", "id": 665871310, "lat": 12.9998077, "lon": 77.5996733, "tags": {"addr:street": "Nandi Durg Road", "brand": "More", "brand:wikidata": "Q6910891", "name": "More", "name:kn": "\u0cae\u0ccb\u0cb0\u0ccd", "shop": "supermarket"}}, {"type": "node", "id": 665871311, "lat": 12.9969644, "lon": 77.6041292, "tags": {"addr:street": "Benson Cross Road", "name": "Arafa Stores", "shop": "supermarket"}}, {"type": "node", "id": 667751121, "lat": 13.0009809, "lon": 77.6138953, "tags": {"addr:city": "Bangalore", "addr:postcode": "560005", "addr:street": "Madhavaraya Mudaliar Road", "name": "Namdhari Fresh, Frazer Town", "name:kn": "\u0ca8\u0cbe\u0cae\u0ca7\u0cbe\u0cb0\u0cbf \u0cab\u0ccd\u0cb0\u0cc6\u0cb6\u0ccd", "operator": "Namdhari Fresh", "organic": "yes", "shop": "supermarket", "website": "https://www.namdharifresh.com/"}}, {"type": "node", "id": 1469178779, "lat": 12.9945695, "lon": 77.6107086}, {"type": "node", "id": 1469178780, "lat": 12.9946639, "lon": 77.6105399}, {"type": "node", "id": 1469178781, "lat": 12.9946792, "lon": 77.6107732}, {"type": "node", "id": 1469178782, "lat": 12.9947735, "lon": 77.6106045}, {"type": "node", "id": 1469190383, "lat": 12.9970256, "lon": 77.611258, "tags": {"brand": "Reliance Fresh", "brand:wikidata": "Q7311014", "name": "Reliance Fresh", "name:kn": "\u0cb0\u0cbf\u0cb2\u0cbe\u0caf\u0ca8\u0ccd\u0cb8\u0ccd \u0cab\u0ccd\u0cb0\u0cc6\u0cb6\u0ccd", "shop": "supermarket"}}, {"type": "node", "id": 1792715612, "lat": 12.954621, "lon": 77.5672723, "tags": {"name": "Reliance Digital Electronic Store", "shop": "supermarket", "wheelchair": "no"}}, {"type": "node", "id": 1809833004, "lat": 12.9767537, "lon": 77.5776995}, {"type": "node", "id": 1809833005, "lat": 12.9762519, "lon": 77.5778372}, {"type": "node", "id": 1809833007, "lat": 12.9765315, "lon": 77.5776045}, {"type": "node", "id": 1809833012, "lat": 12.9763891, "lon": 77.5779553}, {"type": "node", "id": 1809833013, "lat": 12.9762571, "lon": 77.577459}, {"type": "node", "id": 1809833017, "lat": 12.9766112, "lon": 77.5780503}, {"type": "node", "id": 1809833018, "lat": 12.9763852, "lon": 77.577502}, {"type": "node", "id": 1809833019, "lat": 12.9761421, "lon": 77.5777863}, {"type": "node", "id": 1851614806, "lat": 12.960466, "lon": 77.6017789, "tags": {"name": "Reliance Smartpoint", "shop": "supermarket"}}, {"type": "node", "id": 1851614956, "lat": 12.9596191, "lon": 77.6026157, "tags": {"name": "Namdharis", "shop": "supermarket"}}, {"type": "node", "id": 1851615411, "lat": 12.9622638, "lon": 77.6040957, "tags": {"name": "Richmond Supermarket", "shop": "supermarket"}}, {"type": "node", "id": 1863318900, "lat": 12.9991395, "lon": 77.5678347, "tags": {"name": "Safal", "shop": "supermarket"}}, {"type": "node", "id": 2026091402, "lat": 12.9973628, "lon": 77.5734466}, {"type": "node", "id": 2026091406, "lat": 12.9970752, "lon": 77.5734534}, {"type": "node", "id": 2026091409, "lat": 12.997086, "lon": 77.5739359}, {"type": "node", "id": 2026091410, "lat": 12.9973736, "lon": 77.5739291}, {"type": "node", "id": 2875597594, "lat": 12.9644187, "lon": 77.6062299, "tags": {"name": "Karnataka Supermarket", "shop": "supermarket"}}, {"type": "node", "id": 3323896908, "lat": 12.9728628, "lon": 77.6074393, "tags": {"brand": "Nilgiri's", "brand:wikidata": "Q17079567", "name": "Nilgiri's", "name:kn": "\u0ca8\u0cc0\u0cb2\u0ccd\u0c97\u0cbf\u0cb0\u0cc0\u0cb8\u0ccd", "shop": "supermarket"}}, {"type": "node", "id": 3535305733, "lat": 12.9629141, "lon": 77.6031979}, {"type": "node", "id": 3535305738, "lat": 12.9629399, "lon": 77.6030494}, {"type": "node", "id": 3535306022, "lat": 12.9631386, "lon": 77.603239}, {"type": "node", "id": 3535306032, "lat": 12.9631645, "lon": 77.6030906}, {"type": "node", "id": 4304451297, "lat": 13.0025965, "lon": 77.5981195, "tags": {"addr:postcode": "560046", "addr:street": "Nandi Durg Road", "name": "Nilgiri Supermarket", "shop": "supermarket"}}, {"type": "node", "id": 4445642736, "lat": 12.991691, "lon": 77.5707302, "tags": {"addr:city": "Bengaluru", "addr:housenumber": "LG-34", "addr:postcode": "560003", "addr:street": "Sampige Road", "air_conditioning": "yes", "branch": "hyper market", "brand": "Spar", "brand:wikidata": "Q610492", "name": "Spar", "opening_hours": "10:00-22:00", "organic": "yes", "phone": "+918039378500", "shop": "supermarket", "website": "https://www.sparindia.com/"}}, {"type": "node", "id": 4488025973, "lat": 12.9948336, "lon": 77.6107384, "tags": {"addr:city": "Bangalore", "addr:housenumber": "11", "addr:postcode": "560005", "addr:street": "Saunders Road", "name": "Madeena Supermarket", "phone": "(91)-80-33619929", "shop": "supermarket"}}, {"type": "node", "id": 5168668875, "lat": 12.9644942, "lon": 77.6135414, "tags": {"name": "Kamath Stores", "shop": "supermarket", "survey:date": "2023-09-23"}}, {"type": "node", "id": 5174903782, "lat": 12.9922062, "lon": 77.6044577, "tags": {"name": "Fathima Store", "shop": "supermarket"}}, {"type": "node", "id": 6979847311, "lat": 12.9884809, "lon": 77.5931015, "tags": {"name": "Black Village Organic Food Store", "organic": "only", "shop": "supermarket"}}, {"type": "node", "id": 7220195485, "lat": 12.990736, "lon": 77.5870219, "tags": {"name": "Shopwel Mart", "shop": "supermarket"}}, {"type": "node", "id": 7255929448, "lat": 13.000439, "lon": 77.6156254, "tags": {"check_date": "2024-04-27", "name": "Carry Fresh", "shop": "supermarket", "wheelchair": "yes"}}, {"type": "node", "id": 7293708178, "lat": 12.9597434, "lon": 77.6019703, "tags": {"name": "Family Mart", "shop": "supermarket"}}, {"type": "node", "id": 8143836838, "lat": 12.9771467, "lon": 77.6172628, "tags": {"addr:city": "Bangalore", "addr:housenumber": "17, Hanumanthappa Layout Rd", "addr:postcode": "560042", "addr:street": "Hanumanthappa Layout, Sivanchetti Gardens, Halasuru, Karnataka 560042", "name": "Tinge Custom Makeup Studio", "organic": "only", "shop": "supermarket", "website": "https://tingestore.com/"}}, {"type": "node", "id": 8240810689, "lat": 12.9953917, "lon": 77.6027682, "tags": {"name": "Prestige Supermarket", "shop": "supermarket"}}, {"type": "node", "id": 9784639602, "lat": 12.9935681, "lon": 77.571371, "tags": {"name": "Tynimo", "shop": "supermarket"}}, {"type": "node", "id": 9796232689, "lat": 12.971867, "lon": 77.6149549, "tags": {"name": "Family Shopping Mart", "shop": "supermarket"}}, {"type": "node", "id": 9812691808, "lat": 12.9524246, "lon": 77.5666421}, {"type": "node", "id": 9812691809, "lat": 12.9522004, "lon": 77.566645}, {"type": "node", "id": 9812691810, "lat": 12.9522087, "lon": 77.5673207}, {"type": "node", "id": 9812691811, "lat": 12.952433, "lon": 77.5673177}, {"type": "node", "id": 10228571001, "lat": 12.9871351, "lon": 77.578442, "tags": {"name": "Chalukya", "shop": "supermarket"}}, {"type": "node", "id": 10293921758, "lat": 12.9699406, "lon": 77.6097071, "tags": {"brand": "Simpli Namdhari's", "diet:vegetarian": "only", "name": "Simpli Namdhari's", "organic": "only", "shop": "supermarket", "website": "https://www.simplinamdharis.com/"}}, {"type": "node", "id": 10628437914, "lat": 12.975895, "lon": 77.5774641, "tags": {"addr:city": "Bangalore", "addr:housenumber": "1st floor, near Thribhuvan Theatre, Gandhi Nagar", "addr:postcode": "560009", "addr:street": "5th Main Rd", "brand": "DMart", "brand:wikidata": "Q5203271", "check_date": "2023-02-09", "name": "DMart", "operator": "D Mart", "shop": "supermarket"}}, {"type": "node", "id": 10833856111, "lat": 12.9643497, "lon": 77.6134743, "tags": {"name": "Sunrise Mart", "shop": "supermarket"}}, {"type": "node", "id": 10833856112, "lat": 12.9644738, "lon": 77.613721, "tags": {"name": "Daily Needs", "shop": "supermarket", "survey:date": "2023-09-23"}}, {"type": "node", "id": 10875208176, "lat": 12.9812257, "lon": 77.5633806, "tags": {"brand": "Lulu Hypermarket", "brand:wikidata": "Q6702930", "changing_table": "no", "check_date": "2023-10-23", "name": "Lulu Hypermarket", "name:kn": "\u0cb2\u0cc1\u0cb2\u0cc1 \u0cb9\u0cc8\u0caa\u0cb0\u0ccd\u0cae\u0cbe\u0cb0\u0ccd\u0c95\u0cc6\u0c9f\u0ccd", "name:ml": "\u0d32\u0d41\u0d32\u0d41 \u0d39\u0d48\u0d2a\u0d4d\u0d2a\u0d7c\u0d2e\u0d3e\u0d7c\u0d15\u0d4d\u0d15\u0d31\u0d4d\u0d31\u0d4d", "opening_hours": "Mo-Su 10:00-23:00", "payment:cash": "yes", "payment:credit_cards": "yes", "shop": "supermarket", "toilets": "yes", "toilets:wheelchair": "limited", "wheelchair": "limited"}}, {"type": "node", "id": 10934276525, "lat": 13.003153, "lon": 77.5782663, "tags": {"name": "Namdhari's Fresh", "shop": "supermarket"}}, {"type": "node", "id": 11096914874, "lat": 12.9963149, "lon": 77.6122217, "tags": {"name": "Punjab Stores", "shop": "supermarket"}}, {"type": "node", "id": 11178142881, "lat": 12.9514209, "lon": 77.5698323, "tags": {"check_date": "2023-09-09", "name": "Akshaya", "shop": "supermarket"}}, {"type": "node", "id": 11211862352, "lat": 12.964373, "lon": 77.6145777, "tags": {"addr:street": "Palm Grove Road", "name": "Nesto Fresh Mart", "shop": "supermarket", "survey:date": "2023-09-23"}}, {"type": "node", "id": 11400959258, "lat": 12.9575721, "lon": 77.6001983, "tags": {"addr:city": "Bengaluru", "addr:housenumber": "Pride Apartment 182", "addr:postcode": "560076", "addr:street": "Bannerghatta Main Road Phase 4 Bilekahalli", "becknified": "true", "image": "https:\\/\\/cdn.shopify.com\\/s\\/files\\/1\\/0647\\/3662\\/4854\\/files\\/logo_2_1_fc405c5b-4db5-419a-8ec3-380144685e90.svg?v=1669615619", "logo": "https:\\/\\/cdn.shopify.com\\/s\\/files\\/1\\/0647\\/3662\\/4854\\/files\\/logo_2_1_fc405c5b-4db5-419a-8ec3-380144685e90.svg?v=1669615619", "name": "Wiggles shopify store", "name:en": "Wiggles shopify store", "operator": "BOC Shopify", "payment:cash": "yes", "payment:credit_cards": "yes", "payment:debit_cards": "yes", "providerId": "bocshopify.humbhionline.in", "shop": "supermarket"}}, {"type": "node", "id": 11524109257, "lat": 12.9576565, "lon": 77.6011948, "tags": {"addr:city": "Bengaluru", "addr:district": "Bannerghatta Main Road Phase 4 Bilekahalli", "addr:postcode": "560076", "addr:street": "P Street", "becknified": "true", "images": "https://ws1.humbhionline.in/resources/web_manifest/512x512.png?v=1.0", "logo": "https://ws1.humbhionline.in/resources/web_manifest/512x512.png?v=1.0", "name": "Vegetables Bhi Online", "operator": "HumBhi Online", "payment:cash": "yes", "payment:credit_cards": "yes", "payment:debit_cards": "yes", "providerId": "ws1.humbhionline.in", "shop": "supermarket"}}, {"type": "node", "id": 11853272067, "lat": 12.9993902, "lon": 77.6160619, "tags": {"check_date": "2024-04-27", "name": "Casio Home Needs", "shop": "supermarket"}}, {"type": "node", "id": 11853313541, "lat": 13.0006904, "lon": 77.6167013, "tags": {"check_date": "2024-04-27", "name": "Namdhari's Fresh", "shop": "supermarket"}}, {"type": "node", "id": 11853338972, "lat": 12.9970869, "lon": 77.6145693, "tags": {"brand": "More", "brand:wikidata": "Q6910891", "check_date": "2024-04-27", "name": "More", "shop": "supermarket"}}, {"type": "node", "id": 11897985623, "lat": 13.003187, "lon": 77.5694263, "tags": {"brand": "Food Basics", "brand:wikidata": "Q5465300", "check_date": "2024-05-12", "name": "Giriram Foods ,Dairy Products And Edible Oil", "shop": "supermarket"}}, {"type": "node", "id": 11898028017, "lat": 13.0002158, "lon": 77.5690233, "tags": {"check_date": "2024-05-12", "name": "Ratnadeep", "shop": "supermarket"}}, {"type": "node", "id": 11962616022, "lat": 12.9728155, "lon": 77.6076162, "tags": {"check_date": "2024-06-06", "name": "Selec Hypermart", "shop": "supermarket"}}, {"type": "node", "id": 11982693086, "lat": 12.9979879, "lon": 77.5732898, "tags": {"check_date": "2024-06-15", "shop": "supermarket"}}, {"type": "node", "id": 11986964436, "lat": 12.9937269, "lon": 77.5769795, "tags": {"name": "Save More", "shop": "supermarket"}}, {"type": "node", "id": 12077213901, "lat": 12.9750754, "lon": 77.6040007, "tags": {"name": "T Super Market", "shop": "supermarket"}}, {"type": "node", "id": 12102882512, "lat": 12.9609212, "lon": 77.6001914, "tags": {"brand": "Simpli Namdhari's", "brand:wikidata": "Q124374340", "diet:vegetarian": "yes", "name": "Simpli Namdhari's", "shop": "supermarket"}}, {"type": "node", "id": 12103825752, "lat": 12.9961879, "lon": 77.6071906, "tags": {"check_date": "2024-08-11", "name": "Peekay Supermarket", "shop": "supermarket"}}, {"type": "node", "id": 12118054084, "lat": 12.9741728, "lon": 77.5985506, "tags": {"check_date": "2024-08-18", "name": "Rainbow General Store", "shop": "supermarket"}}, {"type": "node", "id": 12139261539, "lat": 12.9869349, "lon": 77.5948329, "tags": {"name": "the organic world", "shop": "supermarket"}}, {"type": "node", "id": 12460825998, "lat": 12.9693895, "lon": 77.6079959, "tags": {"name": "Olive", "shop": "supermarket"}}, {"type": "node", "id": 12462434292, "lat": 12.9662507, "lon": 77.6038694, "tags": {"name": "Peekay mini mart", "shop": "supermarket"}}, {"type": "node", "id": 12466417386, "lat": 12.9573521, "lon": 77.5676114, "tags": {"brand": "Vishal Mega Mart", "brand:wikidata": "Q124374377", "check_date": "2025-01-01", "name": "Vishal Mega Mart", "shop": "supermarket"}}, {"type": "node", "id": 12749410100, "lat": 12.9727355, "lon": 77.6002745, "tags": {"check_date": "2025-04-12", "contact:instagram": "https://www.instagram.com/foodstoriesbangalore", "name": "Foodstories", "opening_hours": "09:00-22:00", "shop": "supermarket", "website": "https://www.foodstories.shop"}}, {"type": "node", "id": 12925420094, "lat": 12.9621663, "lon": 77.5717564, "tags": {"check_date": "2025-06-19", "name": "Chamundi Dry Fruits and Spices", "shop": "supermarket"}}, {"type": "node", "id": 12952280430, "lat": 12.995902, "lon": 77.6061679, "tags": {"name": "Home Needs", "shop": "supermarket"}}, {"type": "way", "id": 133486623, "nodes": [1469178782, 1469178780, 1469178779, 1469178781, 1469178782], "tags": {"name": "Home Shoppee", "opening_hours": "11:00-23:00", "shop": "supermarket"}}, {"type": "way", "id": 169825314, "nodes": [1809833018, 1809833005, 1809833019, 1809833013, 1809833018], "tags": {"name": "National Market", "shop": "supermarket"}}, {"type": "way", "id": 169825315, "nodes": [1809833004, 1809833017, 1809833012, 1809833007, 1809833004], "tags": {"name": "Sukh Sagar Shopping Center", "shop": "supermarket"}}, {"type": "way", "id": 192049201, "nodes": [2026091402, 2026091406, 2026091409, 2026091410, 2026091402], "tags": {"brand": "Big Bazaar", "brand:wikidata": "Q3631008", "brand:wikipedia": "en:Big Bazaar", "building": "yes", "name": "Big Bazaar", "name:kn": "\u0cac\u0cbf\u0c97\u0ccd \u0cac\u0c9c\u0cbe\u0cb0\u0ccd", "shop": "supermarket"}}, {"type": "way", "id": 347122093, "nodes": [3535306032, 3535306022, 3535305733, 3535305738, 3535306032], "tags": {"building": "yes", "name": "royalmart supermarket", "shop": "supermarket"}}, {"type": "way", "id": 1069014337, "nodes": [9812691808, 9812691809, 9812691810, 9812691811, 9812691808], "tags": {"addr:city": "Bengaluru", "addr:postcode": "560019", "addr:street": "Bull Temple Road", "brand": "More", "brand:wikidata": "Q6910891", "building": "yes", "check_date": "2022-10-31", "name": "More", "name:kn": "\u0cae\u0ccb\u0cb0\u0ccd", "opening_hours": "Mo-Su 09:00-21:00", "shop": "supermarket", "wheelchair": "yes"}}]}