{"version": 0.6, "generator": "Overpass API 0.7.62.8 e802775f", "osm3s": {"timestamp_osm_base": "2025-11-29T17:35:25Z", "copyright": "The data included in this document is from www.openstreetmap.org. The data is made available under ODbL."}, "elements": [{"type": "node", "id": 2303827882, "lat": 13.0058027, "lon": 77.5806656, "tags": {"leisure": "fitness_centre", "name": "Snapfitness Gym"}}, {"type": "node", "id": 3532660048, "lat": 12.9405771, "lon": 77.5455495}, {"type": "node", "id": 3532660051, "lat": 12.9405781, "lon": 77.5454167}, {"type": "node", "id": 3532660259, "lat": 12.9406793, "lon": 77.5455504}, {"type": "node", "id": 3532660261, "lat": 12.9406803, "lon": 77.5454175}, {"type": "node", "id": 3685376136, "lat": 12.9739994, "lon": 77.6330455}, {"type": "node", "id": 3685376137, "lat": 12.974714, "lon": 77.6334379}, {"type": "node", "id": 3685376138, "lat": 12.9748424, "lon": 77.6331498}, {"type": "node", "id": 3685376139, "lat": 12.9749664, "lon": 77.6328093}, {"type": "node", "id": 3725777056, "lat": 12.9744617, "lon": 77.632922}, {"type": "node", "id": 3819252973, "lat": 12.9668201, "lon": 77.6091407, "tags": {"leisure": "fitness_centre", "level": "1", "name": "Chisel"}}, {"type": "node", "id": 4223954612, "lat": 12.9778983, "lon": 77.6331657}, {"type": "node", "id": 4223954733, "lat": 12.9778061, "lon": 77.6332466}, {"type": "node", "id": 4223954739, "lat": 12.9778357, "lon": 77.6331463}, {"type": "node", "id": 4223954744, "lat": 12.9778687, "lon": 77.6332661}, {"type": "node", "id": 4382905017, "lat": 12.9992349, "lon": 77.5495341, "tags": {"addr:city": "Bangalore", "addr:housenumber": "46", "addr:postcode": "560010", "addr:street": "Chord Road", "brand": "Snap Fitness", "brand:wikidata": "Q7547254", "brand:wikipedia": "en:Snap Fitness", "leisure": "fitness_centre", "name": "Snap Fitness", "opening_hours": "6:00-21:00", "phone": "8065651050", "website": "www.snapfitnessindia.com"}}, {"type": "node", "id": 4391177990, "lat": 12.9948565, "lon": 77.6152319, "tags": {"leisure": "fitness_centre", "name": "\u0c95\u0ccd\u0cb0\u0cbe\u0cb8\u0ccd\u200c\u0cab\u0cbf\u0c9f\u0ccd \u0c9c\u0cbf\u0ca8\u0ccb\u0cae\u0ccd", "name:en": "Crossfit Genome", "name:kn": "\u0c95\u0ccd\u0cb0\u0cbe\u0cb8\u0ccd\u200c\u0cab\u0cbf\u0c9f\u0ccd \u0c9c\u0cbf\u0ca8\u0ccb\u0cae\u0ccd"}}, {"type": "node", "id": 4489717014, "lat": 12.9665378, "lon": 77.6037676, "tags": {"addr:city": "Bangalore", "addr:housenumber": "No 2", "addr:postcode": "560025", "addr:street": "Mirza House, Convent Road, Richmond Town, Bhadrappa Layout, Shanthala Nagar, Ashok Nagar, Bengaluru, Karnataka", "brand": "Gold's Gym", "brand:wikidata": "Q1536234", "leisure": "fitness_centre", "name": "Gold's Gym", "name:kn": "\u0c97\u0cca\u0cb2\u0ccd\u0ca1\u0ccd\u0cb8\u0ccd \u0c9c\u0cbf\u0cae\u0ccd", "opening_hours": "06:00 -22:00", "phone": "8041477626", "sport": "gymnasium"}}, {"type": "node", "id": 4489750489, "lat": 13.0043391, "lon": 77.583804, "tags": {"addr:city": "Bengaluru", "addr:housenumber": "212/4,", "addr:postcode": "560080", "addr:street": "2nd Floor, Near-Palace Ground, Bellary Rd, Bhadrappa Layout, Sadashiva Nagar, Armane Nagar, Karnataka", "branch": "Better Value Fitness Pvt Ltd", "brand": "Talkwalkars", "brand:wikidata": "Q7680402", "leisure": "fitness_centre", "name": "Talwalkars", "opening_hours": "5:00-22:00"}}, {"type": "node", "id": 4489754262, "lat": 12.9472875, "lon": 77.568009, "tags": {"addr:full": "2nd Floor, Bull Temple Road, Ramakrishna Ashram Circle, Basavanagudi, Gandhi Bazaar, Basavanagudi, Karnataka", "addr:housenumber": "15", "addr:postcode": "560004", "leisure": "fitness_centre", "level": "2", "name": "Snap Fitness", "opening_hours": "00:00-24:00", "phone": "099000 03939", "website": "snapfitnessindia.com"}}, {"type": "node", "id": 4489845028, "lat": 12.9322428, "lon": 77.6321637, "tags": {"addr:postcode": "560034", "addr:street": "80 Feet Road", "leisure": "fitness_centre", "level": "2;3", "name": "Posh Fitness"}}, {"type": "node", "id": 4489941583, "lat": 12.9401558, "lon": 77.5478441, "tags": {"addr:city": "Bengaluru", "addr:housenumber": "4,", "addr:postcode": "560085", "addr:street": "Vivekananda Park Road, Nagendra Block, Banashankari Stage I, Banashankari,, Karnataka", "leisure": "fitness_centre", "name": "Body Image Fitness Center", "opening_hours": "5:30-22:00"}}, {"type": "node", "id": 4530032204, "lat": 13.0056199, "lon": 77.568864, "tags": {"leisure": "fitness_centre", "name": "Gold Gym", "name:en": "Gold Gym"}}, {"type": "node", "id": 4582817389, "lat": 13.0002512, "lon": 77.6190506, "tags": {"leisure": "fitness_centre", "name": "Shri Rajeev Gandhi Gym", "name:en": "Shri Rajeev Gandhi Gym"}}, {"type": "node", "id": 4590907489, "lat": 12.975626, "lon": 77.5703293, "tags": {"leisure": "fitness_centre", "name": "Yoga Hall", "name:en": "Yoga Hall"}}, {"type": "node", "id": 4772964932, "lat": 12.9318997, "lon": 77.6229415, "tags": {"leisure": "fitness_centre", "name": "Vibes", "name:en": "Vibes"}}, {"type": "node", "id": 4843099628, "lat": 12.9614843, "lon": 77.5940764, "tags": {"leisure": "fitness_centre", "name": "Pure Life Gym", "name:en": "Pure life gym"}}, {"type": "node", "id": 4843100435, "lat": 12.9496879, "lon": 77.5931127, "tags": {"leisure": "fitness_centre", "name": "Mara fitness international", "name:en": "Mara fitness international"}}, {"type": "node", "id": 4845223688, "lat": 12.9878222, "lon": 77.6185314, "tags": {"leisure": "fitness_centre", "name": "Pyro Fitness Center"}}, {"type": "node", "id": 4847824924, "lat": 12.9500152, "lon": 77.5929905, "tags": {"leisure": "fitness_centre", "name": "Mara fitness", "name:en": "Mara fitness"}}, {"type": "node", "id": 5168668845, "lat": 12.9664558, "lon": 77.6137032, "tags": {"leisure": "fitness_centre", "name": "Zion Fitness"}}, {"type": "node", "id": 5175027889, "lat": 12.9967704, "lon": 77.573453, "tags": {"leisure": "fitness_centre", "name": "Fitness World"}}, {"type": "node", "id": 5304601890, "lat": 12.9388844, "lon": 77.5486641, "tags": {"leisure": "fitness_centre", "name": "Raghavas Fitness"}}, {"type": "node", "id": 5304601950, "lat": 12.939166, "lon": 77.5520041, "tags": {"leisure": "fitness_centre", "level": "1", "name": "Versatile Fitness"}}, {"type": "node", "id": 5915195100, "lat": 12.9398518, "lon": 77.6257018, "tags": {"leisure": "fitness_centre", "name": "Snap Fitness"}}, {"type": "node", "id": 6855409791, "lat": 13.0084764, "lon": 77.549127, "tags": {"brand": "cult.fit", "brand:wikidata": "Q121289250", "leisure": "fitness_centre", "name": "cult.fit", "sport": "fitness;dancing;boxing"}}, {"type": "node", "id": 7159812509, "lat": 12.9730249, "lon": 77.5641833, "tags": {"leisure": "fitness_centre"}}, {"type": "node", "id": 7255929439, "lat": 12.9974439, "lon": 77.6144452, "tags": {"brand": "cult.fit", "brand:wikidata": "Q121289250", "leisure": "fitness_centre", "name": "cult.fit"}}, {"type": "node", "id": 7291611542, "lat": 13.0038587, "lon": 77.5496592, "tags": {"leisure": "fitness_centre", "name": "Bodysculpt Gym"}}, {"type": "node", "id": 9935476939, "lat": 13.0058605, "lon": 77.5691193, "tags": {"brand": "cult.fit", "brand:wikidata": "Q121289250", "leisure": "fitness_centre", "name": "cult.fit"}}, {"type": "node", "id": 10075729404, "lat": 12.9318955, "lon": 77.6333311, "tags": {"addr:street": "1st Main Road", "check_date": "2025-05-25", "leisure": "fitness_centre", "name": "Iconic Gym"}}, {"type": "node", "id": 10279677059, "lat": 12.9840494, "lon": 77.5578305, "tags": {"leisure": "fitness_centre", "name": "Tusker Fitness"}}, {"type": "node", "id": 10293872598, "lat": 12.9708568, "lon": 77.6072945, "tags": {"brand": "cult.fit", "brand:wikidata": "Q121289250", "leisure": "fitness_centre", "name": "cult.fit", "survey:date": "2023-09-14"}}, {"type": "node", "id": 10980098243, "lat": 13.0012722, "lon": 77.6239694, "tags": {"leisure": "fitness_centre", "name": "The Practice Room", "sport": "yoga", "website": "https://thepracticeroom.in"}}, {"type": "node", "id": 11131430553, "lat": 12.9714323, "lon": 77.6351019, "tags": {"leisure": "fitness_centre", "name": "Fitness One"}}, {"type": "node", "id": 11178079808, "lat": 12.9570292, "lon": 77.566049, "tags": {"addr:housenumber": "48", "addr:street": "Chamrajpet 5th Main Road", "check_date": "2023-09-09", "leisure": "fitness_centre", "name": "Flame Fitness 24-7"}}, {"type": "node", "id": 11178116148, "lat": 12.9515979, "lon": 77.569014, "tags": {"check_date": "2023-09-09", "leisure": "fitness_centre", "name": "Yoga Niketan"}}, {"type": "node", "id": 11178120903, "lat": 12.9479601, "lon": 77.5688993, "tags": {"check_date": "2023-09-09", "leisure": "fitness_centre", "name": "Shield's Fitness Club"}}, {"type": "node", "id": 11178142882, "lat": 12.9512098, "lon": 77.5697613, "tags": {"check_date": "2023-09-09", "leisure": "fitness_centre", "level": "0", "name": "Deshwal.fit"}}, {"type": "node", "id": 11178142889, "lat": 12.9492629, "lon": 77.569886, "tags": {"check_date": "2023-09-09", "leisure": "fitness_centre", "name": "Russh Fitness", "phone": "08041456611"}}, {"type": "node", "id": 11178144322, "lat": 12.9510335, "lon": 77.5689853, "tags": {"check_date": "2023-09-09", "leisure": "fitness_centre", "name": "Yoganiketan", "opening_hours": "Mo-Fr 06:00-19:00", "phone": "+91 98865 01736", "sport": "yoga"}}, {"type": "node", "id": 11279297561, "lat": 13.011902, "lon": 77.556864, "tags": {"check_date": "2023-10-21", "leisure": "fitness_centre"}}, {"type": "node", "id": 11295513153, "lat": 12.9364406, "lon": 77.6160982, "tags": {"contact:website": "https://iconicfitnessindia.com", "leisure": "fitness_centre", "name": "Iconic Fitness", "opening_hours": "24/7"}}, {"type": "node", "id": 11473125894, "lat": 12.9814299, "lon": 77.6138657, "tags": {"leisure": "fitness_centre"}}, {"type": "node", "id": 11659057399, "lat": 12.9935922, "lon": 77.5904534, "tags": {"check_date": "2024-02-24", "leisure": "fitness_centre", "name": "Public Gym"}}, {"type": "node", "id": 11686665169, "lat": 12.9926981, "lon": 77.5907507, "tags": {"check_date": "2024-02-24", "leisure": "fitness_centre", "name": "Onset Fitness"}}, {"type": "node", "id": 11710512183, "lat": 12.9779697, "lon": 77.6279533, "tags": {"check_date": "2024-03-10", "internet_access": "no", "leisure": "fitness_centre", "name": "Kamaraj's Gym", "payment:cards": "no", "payment:cash": "yes", "payment:credit_cards": "no", "payment:debit_cards": "no", "wheelchair": "no"}}, {"type": "node", "id": 11853327836, "lat": 12.9968033, "lon": 77.6139269, "tags": {"check_date": "2024-04-27", "leisure": "fitness_centre", "name": "Viv's Gym"}}, {"type": "node", "id": 11853327837, "lat": 12.9967381, "lon": 77.6138331, "tags": {"check_date": "2024-04-27", "leisure": "fitness_centre", "name": "Filled Fitness", "wheelchair": "no"}}, {"type": "node", "id": 11853327839, "lat": 12.9965586, "lon": 77.6136291, "tags": {"check_date": "2024-04-27", "leisure": "fitness_centre", "name": "Realm Fitness Fight Club"}}, {"type": "node", "id": 11897965685, "lat": 13.0074029, "lon": 77.5692931, "tags": {"check_date": "2024-05-12", "leisure": "fitness_centre", "name": "Madbody Fitness Center"}}, {"type": "node", "id": 12115149769, "lat": 12.9333329, "lon": 77.6311199, "tags": {"addr:postcode": "560034", "addr:street": "80 Feet Road", "leisure": "fitness_centre", "level": "2", "name": "Aurum Elite Fitness Club"}}, {"type": "node", "id": 12115149776, "lat": 12.932367, "lon": 77.6321201, "tags": {"addr:postcode": "560034", "addr:street": "80 Feet Road", "brand": "cult.fit", "brand:wikidata": "Q121289250", "leisure": "fitness_centre", "level": "2", "name": "cult.fit"}}, {"type": "node", "id": 12118015810, "lat": 12.9738882, "lon": 77.5992729, "tags": {"check_date": "2024-08-18", "leisure": "fitness_centre", "name": "TechnoGym"}}, {"type": "node", "id": 12168445591, "lat": 12.950762, "lon": 77.595979, "tags": {"addr:floor": "1", "check_date": "2024-09-10", "leisure": "fitness_centre", "level": "1", "name": "Game On Fitness", "name:en": "Game On Fitness"}}, {"type": "node", "id": 12526376819, "lat": 12.9708123, "lon": 77.5983869, "tags": {"leisure": "fitness_centre", "name": "Physique 57"}}, {"type": "node", "id": 12963719471, "lat": 13.008301, "lon": 77.5668108, "tags": {"check_date": "2025-06-30", "leisure": "fitness_centre", "name": "D5N Fitness"}}, {"type": "node", "id": 13173217403, "lat": 13.00902, "lon": 77.5782952, "tags": {"leisure": "fitness_centre", "name": "Patanjali Yogamandira", "sport": "yoga"}}, {"type": "way", "id": 346756377, "nodes": [3532660261, 3532660259, 3532660048, 3532660051, 3532660261], "tags": {"addr:city": "bangalore", "addr:district": "Bengaluru Urban", "addr:postcode": "560085", "addr:street": "80 feet road", "alt_name": "KK Plaza", "building": "yes", "leisure": "fitness_centre", "name": "My Fitness", "opening_hours": "Mo-Sa 05:00-22:00"}}, {"type": "way", "id": 364495430, "nodes": [3685376139, 3725777056, 3685376136, 3685376137, 3685376138, 3685376139], "tags": {"landuse": "residential", "leisure": "fitness_centre", "name": "Citi Nest", "place": "locality"}}, {"type": "way", "id": 422658659, "nodes": [4223954744, 4223954733, 4223954739, 4223954612, 4223954744], "tags": {"addr:housenumber": "672", "addr:postcode": "560038", "addr:street": "17th D Cross", "building": "yes", "building:levels": "4", "leisure": "fitness_centre", "name": "Diksha Yoga Classes", "sport": "yoga"}}]}