{"version": 0.6, "generator": "Overpass API 0.7.62.8 e802775f", "osm3s": {"timestamp_osm_base": "2025-11-29T15:54:00Z", "copyright": "The data included in this document is from www.openstreetmap.org. The data is made available under ODbL."}, "elements": [{"type": "node", "id": 617760063, "lat": 13.0006252, "lon": 77.5652425, "tags": {"addr:city": "Malleswaram, Bangalore", "addr:street": "8th Main", "amenity": "pharmacy", "name": "Pushyamee"}}, {"type": "node", "id": 625857657, "lat": 13.0009721, "lon": 77.5640265, "tags": {"amenity": "pharmacy", "name": "Manipal North Side Pharmacy", "wheelchair": "yes"}}, {"type": "node", "id": 665871294, "lat": 12.9965785, "lon": 77.6045552, "tags": {"addr:street": "Benson Cross Road", "amenity": "pharmacy", "healthcare": "pharmacy", "name": "S. S. Pharma"}}, {"type": "node", "id": 1446122916, "lat": 12.9683152, "lon": 77.6004368, "tags": {"addr:city": "Bangalore", "addr:full": "St. Marks Road, Opp Bishop Cotton Boys School, Srinivas Nagar, Shanthala Nagar, Ashok Nagar, Bengaluru", "addr:housenumber": "74/5", "addr:postcode": "560001", "addr:street": "Saint Mark's Road", "amenity": "pharmacy", "dispensing": "yes", "name": "The Cash Pharmacy", "phone": "080 3361 8456"}}, {"type": "node", "id": 1449018888, "lat": 12.9668907, "lon": 77.5986274, "tags": {"amenity": "pharmacy", "name": "Residency Pharmacy"}}, {"type": "node", "id": 1474819903, "lat": 13.0002224, "lon": 77.5688175, "tags": {"amenity": "pharmacy", "healthcare": "pharmacy", "name": "Religare Medicals"}}, {"type": "node", "id": 1863318903, "lat": 12.9997824, "lon": 77.5681888, "tags": {"amenity": "pharmacy", "healthcare": "pharmacy", "name": "Apple Pharma"}}, {"type": "node", "id": 1916533478, "lat": 12.9535215, "lon": 77.5780606, "tags": {"amenity": "pharmacy", "healthcare": "pharmacy", "name": "Kasturi Medicals"}}, {"type": "node", "id": 2196138330, "lat": 13.0037706, "lon": 77.5653221, "tags": {"amenity": "pharmacy", "dispensing": "yes", "name": "New Pushyamee"}}, {"type": "node", "id": 2513569169, "lat": 12.9785893, "lon": 77.5736371, "tags": {"addr:city": "Gandhi Nagar, Bangalore", "addr:street": "4th Cross", "amenity": "pharmacy", "healthcare": "pharmacy", "name": "Vaidya Ratnam Ayurvedic Center"}}, {"type": "node", "id": 3019539252, "lat": 12.9664142, "lon": 77.5925401, "tags": {"addr:city": "Bangalore", "addr:postcode": "560027", "addr:street": "Chidananda Maharashi Ashram Road", "amenity": "pharmacy", "brand": "Apollo Pharmacy", "brand:wikidata": "Q62562612", "healthcare": "pharmacy", "name": "Apollo Pharmacy", "name:kn": "\u0c85\u0caa\u0ccb\u0cb2\u0ccb \u0cab\u0cbe\u0cb0\u0ccd\u0cae\u0cb8\u0cbf"}}, {"type": "node", "id": 3019541639, "lat": 12.9668083, "lon": 77.592647, "tags": {"addr:city": "Bangalore", "addr:postcode": "560027", "addr:street": "Chidananda Maharashi Ashram Road", "amenity": "pharmacy", "name": "Manjula Medicals"}}, {"type": "node", "id": 3395246644, "lat": 12.9606852, "lon": 77.5715513, "tags": {"amenity": "pharmacy", "check_date": "2025-06-19", "name": "Sri Manjunatha Medical & General Stores"}}, {"type": "node", "id": 3400223636, "lat": 13.0003234, "lon": 77.5693738, "tags": {"amenity": "pharmacy", "healthcare": "pharmacy", "name": "Leela medicals"}}, {"type": "node", "id": 3862572029, "lat": 12.9674186, "lon": 77.5997528, "tags": {"amenity": "pharmacy", "healthcare": "pharmacy", "level": "0", "name": "Balaji Pharma"}}, {"type": "node", "id": 3862572657, "lat": 12.9678054, "lon": 77.6002865, "tags": {"amenity": "pharmacy", "level": "-1", "name": "Chetak Pharmacy"}}, {"type": "node", "id": 4151360961, "lat": 12.9653807, "lon": 77.5941925, "tags": {"amenity": "pharmacy"}}, {"type": "node", "id": 4294252468, "lat": 12.9676134, "lon": 77.6061839, "tags": {"amenity": "pharmacy", "name": "Sundeep Medical Shop", "name:hi": "\u0938\u0928\u0926\u093f\u092a \u092e\u0947\u0926\u093f\u0915\u0932 \u0936\u092a"}}, {"type": "node", "id": 4294257524, "lat": 12.9687933, "lon": 77.6063684, "tags": {"amenity": "pharmacy", "check_date": "2024-01-02", "level": "0", "name": "Model Medical Stores"}}, {"type": "node", "id": 4294281307, "lat": 12.9814081, "lon": 77.6012679, "tags": {"amenity": "pharmacy", "level": "0", "name": "Green Apple"}}, {"type": "node", "id": 4307677591, "lat": 12.9683737, "lon": 77.5948809, "tags": {"amenity": "pharmacy", "name": "Green Apple"}}, {"type": "node", "id": 4446352742, "lat": 12.982224, "lon": 77.6029281, "tags": {"addr:city": "Bangalore", "addr:postcode": "560001", "addr:street": "Near Bowring Hospital , hospital Road , 22/2, Central St, Shivaji Nagar", "amenity": "pharmacy", "name": "J S Homoeo House", "phone": "+9198802 46426"}}, {"type": "node", "id": 4446357143, "lat": 12.9855813, "lon": 77.6071086, "tags": {"addr:city": "bangalore", "addr:housenumber": "33", "addr:postcode": "560001", "addr:street": "Quadrant Road, Sulthangunta, Shivaji Nagar", "amenity": "pharmacy", "name": "V L Nathan & Co", "phone": "080 2551 2993"}}, {"type": "node", "id": 4446360304, "lat": 12.9762816, "lon": 77.5991019, "tags": {"addr:city": "Bangalore", "addr:housenumber": "32", "addr:postcode": "560001", "addr:street": "Quadrant Road, Shivaji Nagar, Near Taj Hotel, Shanthala Nagar, Ashok Nagar", "amenity": "pharmacy", "healthcare": "pharmacy", "name": "Nathans Vet Pharma Centre", "phone": "080 2286 1740"}}, {"type": "node", "id": 4446364966, "lat": 12.9813318, "lon": 77.6041058, "tags": {"addr:city": "Bangalore", "addr:housenumber": "23", "addr:postcode": "560001", "addr:street": "Opposite Bowring Hospital, Lady Curzon Rd, Tasker Town, Shivaji Nagar", "amenity": "pharmacy", "name": "Mahaveer Ayur & Homoeo", "phone": "080 2559 3299", "website": "ayurhomoeo.com"}}, {"type": "node", "id": 4446378097, "lat": 12.9781121, "lon": 77.5739587, "tags": {"addr:city": "Gandhi Nagar, Bangalore", "addr:housenumber": "15", "addr:postcode": "560009", "addr:street": "Tank Bund Rd, RK Puram, Gandhi Nagar", "amenity": "pharmacy", "healthcare": "pharmacy", "name": "Gururaja Pharmacy", "phone": "080 2235 0038"}}, {"type": "node", "id": 4446388835, "lat": 12.9813797, "lon": 77.6029956, "tags": {"addr:city": "Bangalore", "addr:housenumber": "4/5", "addr:postcode": "560001", "addr:street": "Central Square Complex, 47, Central Street, Tasker Town, Shivaji Nagar, Tasker Town, Shivaji Nagar", "amenity": "pharmacy", "name": "Balaji Vaidyasala", "name:kn": "\u0cac\u0cbe\u0cb2\u0cbe\u0c9c\u0cbf \u0cb5\u0cc8\u0ca6\u0ccd\u0caf\u0cb6\u0cbe\u0cb2\u0cc6", "phone": "+9198455 01642"}}, {"type": "node", "id": 4446394588, "lat": 12.9843238, "lon": 77.5984752, "tags": {"addr:city": "Bangalore", "addr:housenumber": "22", "addr:postcode": "560051", "addr:street": "1st Floor, NG Chambers, Venkataswamy Naidu Rd, Shivaji Nagar", "amenity": "pharmacy", "name": "T. K. Diagnostic Centre", "phone": "080 2286 0567"}}, {"type": "node", "id": 4446404579, "lat": 12.9833669, "lon": 77.5966639, "tags": {"addr:city": "Bangalore", "addr:housenumber": "1 1/2", "addr:postcode": "560001", "addr:street": "Indian Express Building, 3rd Floor,, Queens Rd, Vasanth Nagar", "amenity": "pharmacy", "name": "elbitdiagnostics", "phone": "080 4057 0000", "website": "https://elbitdiagnostics.net/"}}, {"type": "node", "id": 4446406412, "lat": 12.9873157, "lon": 77.6059871, "tags": {"addr:city": "bangalore", "addr:housenumber": "28", "addr:postcode": "560051", "addr:street": "Charminar Masjid Road, Near-Russel Market, Shivaji Nagar, Sulthangunta, Shivaji Nagar", "amenity": "pharmacy", "name": "Al Shifa Unani & Ayurvedic Dawa Khana", "phone": "080 2530 2786"}}, {"type": "node", "id": 4446409631, "lat": 12.9816041, "lon": 77.6011061, "tags": {"addr:city": "Bangalore", "addr:housenumber": "55", "addr:postcode": "560001", "addr:street": "Infantry Road, Shivaji Nagar", "amenity": "pharmacy", "name": "Medinova", "phone": "080 2286 8423"}}, {"type": "node", "id": 4446433567, "lat": 12.9674206, "lon": 77.6058454, "tags": {"addr:city": "Bangalore", "addr:housenumber": "137", "addr:postcode": "560025", "addr:street": "Brigade Road, Richmond Town, Shanthala Nagar, Ashok Nagar, Shanthala Nagar, Ashok Nagar", "amenity": "pharmacy", "name": "Sundeep Medicals", "phone": "080 2221 2968"}}, {"type": "node", "id": 4446439863, "lat": 12.9713618, "lon": 77.6062443, "tags": {"addr:city": "Bangalore", "addr:floor": "G", "addr:hamlet": "Shanthala Nagar", "addr:housenumber": "C007", "addr:postcode": "560025", "addr:state": "KA", "addr:suburb": "Ashok Nagar", "amenity": "pharmacy", "building:material": "plastic", "name": "Hitesh Medicals & General Stor", "phone": "+91 80 2558 4302"}}, {"type": "node", "id": 4446442047, "lat": 12.9658632, "lon": 77.5998808, "tags": {"addr:city": "Bengaluru", "addr:housenumber": "5/1", "addr:postcode": "560025", "addr:street": "2nd Floor, Rich Homes, Richmond Road, Shanthala Nagar, Ashok Nagar, Shanthala Nagar, Ashok Nagar", "amenity": "pharmacy", "name": "Bangalore Fetal Medicine Centre", "phone": "080 2221 0540", "website": "bangalorefetalmedicine.com"}}, {"type": "node", "id": 4446497849, "lat": 12.9919478, "lon": 77.5708501, "tags": {"addr:city": "Bengaluru", "addr:housenumber": "LG-34", "addr:postcode": "560003", "addr:street": "Sampige Road", "air_conditioning": "yes", "amenity": "pharmacy", "healthcare": "pharmacy", "name": "Trust Pharmacy", "opening_hours": "9:30-23:00", "phone": "+91 8022667221", "website": "https://www.trustpharmacy.co.in/"}}, {"type": "node", "id": 4446528557, "lat": 13.0008545, "lon": 77.5631699, "tags": {"addr:city": "bangalore", "addr:housenumber": "19", "addr:postcode": "560003", "addr:street": "8th Main Rd, Malleshwaram", "amenity": "pharmacy", "name": "Pushyamee Medicals", "phone": "+91 80 2356 5016"}}, {"type": "node", "id": 4446572478, "lat": 12.9858304, "lon": 77.5708651, "tags": {"addr:city": "560009", "addr:housenumber": "15", "addr:street": "Tank Bund Rd, RK Puram, Gandhi Nagar", "amenity": "pharmacy", "name": "Gururaja Pharma", "phone": "+91 80 2235 0038"}}, {"type": "node", "id": 4446599790, "lat": 12.9853462, "lon": 77.5708101, "tags": {"addr:city": "bangalore", "addr:housenumber": "30", "addr:postcode": "560020", "addr:street": "1st Main Road, Jai Bheema Nagar, Seshadripuram", "amenity": "pharmacy", "name": "Brindhavan pharma", "phone": "+91 98456 79745"}}, {"type": "node", "id": 4446613297, "lat": 13.0024248, "lon": 77.571574, "tags": {"amenity": "pharmacy", "healthcare": "pharmacy"}}, {"type": "node", "id": 4446613298, "lat": 13.0023294, "lon": 77.5719173, "tags": {"addr:city": "bangalore", "addr:housenumber": "40", "addr:postcode": "560003", "addr:street": "12th Cross, Kodandarampura, Near-Prasidh Clinic, Malleshwaram", "amenity": "pharmacy", "healthcare": "pharmacy", "name": "Megha Medicals", "name:kn": "\u0cae\u0cc7\u0c98 \u0cae\u0cc6\u0ca1\u0cbf\u0c95\u0cb2\u0ccd\u0cb8\u0ccd", "phone": "+91 80 2334 7034"}}, {"type": "node", "id": 4446742748, "lat": 12.9906244, "lon": 77.5633161, "tags": {"addr:city": "bangalore", "addr:housenumber": "529", "addr:postcode": "560010", "addr:street": "10th Main, 2nd Block, Rajajinagar", "amenity": "pharmacy", "name": "Prasad Medicals", "phone": "+91 80507 82573"}}, {"type": "node", "id": 4446899258, "lat": 12.9671955, "lon": 77.5736828, "tags": {"addr:city": "bangalore", "addr:housenumber": "164", "addr:postcode": "560053", "addr:street": "P.o box 7182,1st floor, sultanpet,", "amenity": "pharmacy", "name": "Fair Deal Pharma (Medkart)", "phone": "080 2234 1736"}}, {"type": "node", "id": 4446962739, "lat": 12.9644242, "lon": 77.5968789, "tags": {"addr:city": "Bangalore", "addr:postcode": "560025", "addr:street": "Lalbagh Road", "amenity": "pharmacy", "healthcare": "pharmacy", "name": "Central Lab", "phone": "+9180 222 37370"}}, {"type": "node", "id": 4447006919, "lat": 13.0026859, "lon": 77.5738983, "tags": {"addr:city": "Bangalore", "addr:housenumber": "40", "addr:postcode": "560003", "addr:street": "12th Cross, Kodandarampura, Near-Prasidh Clinic, Malleshwaram", "amenity": "pharmacy", "healthcare": "pharmacy", "name": "Megha Medicals", "name:kn": "\u0cae\u0cc7\u0c98 \u0cae\u0cc6\u0ca1\u0cbf\u0c95\u0cb2\u0ccd\u0cb8\u0ccd", "phone": "080 2334 7034"}}, {"type": "node", "id": 4447007999, "lat": 13.0019448, "lon": 77.5716235, "tags": {"addr:city": "Bangalore", "addr:housenumber": "42", "addr:postcode": "560003", "addr:street": "Vyalikaval, 2nd Main, Opposite-Rajesh Hotel, Sadashiv Nagar", "amenity": "pharmacy", "healthcare": "pharmacy", "name": "Janhavi Medicals Malleshwaram", "phone": "080 2336 6503"}}, {"type": "node", "id": 4447009028, "lat": 13.0020076, "lon": 77.5713914, "tags": {"addr:city": "Bangalore", "addr:housenumber": "17", "addr:postcode": "560003", "addr:street": "1, 3rd Cross Rd, Malleshwaram", "amenity": "pharmacy", "healthcare": "pharmacy", "name": "K C G Pharma And Generals", "phone": "094485 11024"}}, {"type": "node", "id": 4447076790, "lat": 13.0022281, "lon": 77.5739218, "tags": {"addr:city": "Bangalore", "addr:housenumber": "16", "addr:postcode": "560003", "addr:street": "12th cross, Palace Guttahalli main road, Malleshwaram", "amenity": "pharmacy", "healthcare": "pharmacy", "name": "Roots Advanced Hair Transplant Center", "phone": "+9194821 66333", "source": "www.asklaila.com", "website": "rootshairclinic.com"}}, {"type": "node", "id": 4447082034, "lat": 12.9917005, "lon": 77.5706529, "tags": {"addr:city": "Bengaluru", "addr:postcode": "560003", "addr:street": "Sampige Road", "air_conditioning": "yes", "amenity": "pharmacy", "healthcare": "pharmacy", "name": "Kaya Skin Bar", "phone": "+9180 2266 7211", "source": "www.justdial.com", "website": "https://kaya.in/"}}, {"type": "node", "id": 4447086612, "lat": 12.9681071, "lon": 77.570295, "tags": {"addr:city": "bangalore", "addr:housenumber": "76/2", "addr:postcode": "560001", "addr:street": "Avenue Road, Bangalore City", "amenity": "pharmacy", "phone": "+91 80 2287 7428", "source": "www.asklaila.com", "website": "https://www.microlabsltd.com/"}}, {"type": "node", "id": 4716486089, "lat": 12.9899208, "lon": 77.5944935, "tags": {"amenity": "pharmacy", "name:en": "Pharmacy"}}, {"type": "node", "id": 4844865046, "lat": 12.9945444, "lon": 77.6159681, "tags": {"amenity": "pharmacy", "check_date": "2024-08-11", "name": "Kiran medicals", "name:en": "Kiran medicals"}}, {"type": "node", "id": 5061380661, "lat": 12.9902704, "lon": 77.5744146, "tags": {"amenity": "pharmacy", "name": "Brindavan Pharma"}}, {"type": "node", "id": 5061395356, "lat": 12.9671456, "lon": 77.6103961, "tags": {"amenity": "pharmacy", "name": "Hosmat Pharmacy"}}, {"type": "node", "id": 5174892806, "lat": 12.9958589, "lon": 77.6082728, "tags": {"amenity": "pharmacy", "check_date": "2024-12-29", "healthcare": "pharmacy", "name": "Santosh Pharma", "wheelchair": "no"}}, {"type": "node", "id": 5174892809, "lat": 12.9941962, "lon": 77.6076009, "tags": {"amenity": "pharmacy", "healthcare": "pharmacy", "name": "Mustafai Unani Pharmacy"}}, {"type": "node", "id": 5229482743, "lat": 12.9867071, "lon": 77.5796028, "tags": {"amenity": "pharmacy", "brand": "Apollo Pharmacy", "brand:wikidata": "Q62562612", "healthcare": "pharmacy", "name": "Apollo Pharmacy", "name:kn": "\u0c85\u0caa\u0cca\u0cb2\u0ccb \u0cab\u0cbe\u0cb0\u0ccd\u0cae\u0cb8\u0cbf"}}, {"type": "node", "id": 5306751771, "lat": 12.9524904, "lon": 77.5773248, "tags": {"amenity": "pharmacy", "level": "0", "name": "Nagashri Medicals"}}, {"type": "node", "id": 7043262185, "lat": 12.9553721, "lon": 77.5855419, "tags": {"addr:housenumber": "120/1", "addr:street": "Lalbagh Road", "amenity": "pharmacy", "name": "Sapthagiri Medicals"}}, {"type": "node", "id": 8170392717, "lat": 12.9564805, "lon": 77.5828736, "tags": {"amenity": "pharmacy", "name": "Max Medicals"}}, {"type": "node", "id": 9784639597, "lat": 12.9945697, "lon": 77.5716164, "tags": {"amenity": "pharmacy"}}, {"type": "node", "id": 10047234717, "lat": 12.9818781, "lon": 77.6040785, "tags": {"amenity": "pharmacy", "name": "Jain Medicals"}}, {"type": "node", "id": 10228304187, "lat": 12.98669, "lon": 77.5796975, "tags": {"amenity": "pharmacy", "name": "Panchavati Chemists and Druggists"}}, {"type": "node", "id": 10272932180, "lat": 12.9720878, "lon": 77.6009403, "tags": {"amenity": "pharmacy", "name": "Forster Pharma"}}, {"type": "node", "id": 11171324534, "lat": 12.9597011, "lon": 77.6015633, "tags": {"amenity": "pharmacy", "healthcare": "pharmacy", "name": "Hafiz Pharma"}}, {"type": "node", "id": 11171324535, "lat": 12.9600253, "lon": 77.6016276, "tags": {"amenity": "pharmacy", "healthcare": "pharmacy", "name": "HKGN Medicals"}}, {"type": "node", "id": 11178144186, "lat": 12.9571579, "lon": 77.5718768, "tags": {"addr:housenumber": "38/1", "addr:street": "Pampa Mahakavi Road", "addr:unit": "3", "amenity": "pharmacy", "check_date": "2023-09-09", "dispensing": "yes", "drive_through": "no", "healthcare": "pharmacy", "name": "Sri Lakshminarasimha Drug Centre"}}, {"type": "node", "id": 11178186960, "lat": 12.9588046, "lon": 77.5649867, "tags": {"amenity": "pharmacy", "check_date": "2023-09-09", "healthcare": "pharmacy", "name": "Arihant Shri Jain Pharma"}}, {"type": "node", "id": 11282630647, "lat": 12.9961725, "lon": 77.6131645, "tags": {"amenity": "pharmacy", "name": "Balaji Medicals"}}, {"type": "node", "id": 11292257027, "lat": 12.9776273, "lon": 77.5695903, "tags": {"amenity": "pharmacy", "contact:mobile": "+91-8433-808080", "contact:whatsapp": "+91-8433-808080", "healthcare": "pharmacy", "level": "0", "name": "Davadost", "operator": "Davadost Pharma Private Limited", "wheelchair": "limited"}}, {"type": "node", "id": 11295469699, "lat": 12.9519038, "lon": 77.5944072, "tags": {"amenity": "pharmacy", "healthcare": "pharmacy", "level": "0", "name": "Primecare Pharma", "opening_hours": "Mo-Su 08:00-23:00,13:30-18:30; PH open"}}, {"type": "node", "id": 11295921628, "lat": 12.9500344, "lon": 77.5965335, "tags": {"amenity": "pharmacy", "healthcare": "pharmacy", "level": "0", "name": "Kamaldeep Medicals"}}, {"type": "node", "id": 11295921629, "lat": 12.9499736, "lon": 77.5966031, "tags": {"amenity": "pharmacy", "healthcare": "pharmacy", "level": "0", "name": "Amruth Medicals"}}, {"type": "node", "id": 11295921635, "lat": 12.9514745, "lon": 77.595132, "tags": {"amenity": "pharmacy", "healthcare": "pharmacy", "level": "0", "name": "Rajalakshmi Medicals"}}, {"type": "node", "id": 11472852215, "lat": 13.0003625, "lon": 77.6169853, "tags": {"amenity": "pharmacy", "check_date": "2023-12-31", "healthcare": "pharmacy", "name": "Topmost Medicals"}}, {"type": "node", "id": 11592710084, "lat": 12.9762005, "lon": 77.5755635, "tags": {"addr:city": "Be\u1e45ga\u1e37\u016bru", "addr:neighborhood": "G\u0101ndhinagara", "addr:state": "KA", "amenity": "pharmacy", "dispensing": "yes", "drive_through": "no", "healthcare": "pharmacy", "name:en": "Gurur\u0101ja Medicals", "name:hi-Latn": "Gurur\u0101j", "name:ur-Latn": "Gurur\u0101j", "opening_hours": "08:00-22:00", "phone": "+9180 2225 6783;+918022911966;+917259440612", "website": "https://business.google.com/website/gururaja-medicals"}}, {"type": "node", "id": 11677179256, "lat": 12.9781021, "lon": 77.5752146, "tags": {"amenity": "pharmacy", "check_date": "2024-02-29", "healthcare": "pharmacy", "name": "Sri Krishna Medicals"}}, {"type": "node", "id": 11677179263, "lat": 12.9783411, "lon": 77.575127, "tags": {"amenity": "pharmacy", "check_date": "2024-02-29", "healthcare": "pharmacy", "name": "Amogh Medical"}}, {"type": "node", "id": 11853327833, "lat": 12.9970164, "lon": 77.6141416, "tags": {"amenity": "pharmacy", "brand": "Apollo Pharmacy", "brand:wikidata": "Q62562612", "check_date": "2024-04-27", "healthcare": "pharmacy", "name": "Apollo Pharmacy"}}, {"type": "node", "id": 11897968141, "lat": 13.0031199, "lon": 77.5713727, "tags": {"amenity": "pharmacy", "check_date": "2024-05-12", "healthcare": "pharmacy", "name": "Sri Sai Medicals"}}, {"type": "node", "id": 11949210770, "lat": 12.998839, "lon": 77.5763743, "tags": {"amenity": "pharmacy", "check_date": "2024-06-01", "healthcare": "pharmacy"}}, {"type": "node", "id": 11982693070, "lat": 12.995114, "lon": 77.6160795, "tags": {"amenity": "pharmacy", "check_date": "2024-06-15", "healthcare": "pharmacy", "name": "Surana Chemist"}}, {"type": "node", "id": 11982693072, "lat": 12.9966446, "lon": 77.6116049, "tags": {"amenity": "pharmacy", "check_date": "2024-06-15", "healthcare": "pharmacy", "name": "Health Green Pharma"}}, {"type": "node", "id": 11986964427, "lat": 12.9924482, "lon": 77.5756565, "tags": {"amenity": "pharmacy", "name": "Shanti Medicals"}}, {"type": "node", "id": 12000328232, "lat": 12.9932604, "lon": 77.571151, "tags": {"amenity": "pharmacy", "check_date": "2024-06-22", "healthcare": "pharmacy", "name": "NE Pharmacy"}}, {"type": "node", "id": 12103968917, "lat": 12.9989667, "lon": 77.5800117, "tags": {"amenity": "pharmacy", "check_date": "2024-08-11", "healthcare": "pharmacy", "name": "The Drug Hut"}}, {"type": "node", "id": 12103968933, "lat": 12.9989823, "lon": 77.5802854, "tags": {"amenity": "pharmacy", "check_date": "2024-08-11", "healthcare": "pharmacy", "name": "Bilva Pharmacy"}}, {"type": "node", "id": 12401325625, "lat": 12.9857934, "lon": 77.5957495, "tags": {"amenity": "pharmacy", "check_date": "2024-12-07", "healthcare": "pharmacy", "name": "ThinkCare Pharma"}}]}