{"version": 0.6, "generator": "Overpass API 0.7.62.8 e802775f", "osm3s": {"timestamp_osm_base": "2025-11-29T17:35:25Z", "copyright": "The data included in this document is from www.openstreetmap.org. The data is made available under ODbL."}, "elements": [{"type": "node", "id": 343089650, "lat": 12.9915471, "lon": 77.614181, "tags": {"addr:housenumber": "# 1/2", "addr:postcode": "560005", "addr:street": "Wheeler Road", "name": "Thom's Bakery", "name:ar": "\u062f\u0643\u0627\u0646 \u0643\u0628\u064a\u0631", "name:kn": "\u0ca5\u0cbe\u0cae\u0ccd\u0cb8\u0ccd \u0cac\u0cc7\u0c95\u0cb0\u0cbf", "shop": "bakery"}}, {"type": "node", "id": 428457212, "lat": 12.9697383, "lon": 77.6003775, "tags": {"addr:city": "Bangalore", "addr:country": "IN", "addr:hamlet": "Shanthala Nagar", "addr:housename": "Sophia's Choice", "addr:postcode": "560001", "addr:street": "Saint Mark's Road", "amenity": "cafe", "delivery": "yes", "name": "Old Madras Baking Company", "opening_hours": "08:00-23:00", "operator": "Old Madras Baking Company", "shop": "bakery", "takeaway": "yes"}}, {"type": "node", "id": 621310418, "lat": 13.0002063, "lon": 77.5697663, "tags": {"name": "Baker's Hut", "name:kn": "\u0cac\u0cc7\u0c95\u0cb0\u0ccd\u0cb8\u0ccd \u0cb9\u0c9f\u0ccd", "shop": "bakery"}}, {"type": "node", "id": 1290107596, "lat": 13.0075028, "lon": 77.5635659, "tags": {"name": "Bun World", "shop": "bakery"}}, {"type": "node", "id": 1290203366, "lat": 13.0011038, "lon": 77.5723003, "tags": {"name": "Iyengar's Bakery", "name:kn": "\u0c90\u0caf\u0ccd\u0caf\u0c82\u0c97\u0cbe\u0cb0\u0ccd \u0cac\u0cc7\u0c95\u0cb0\u0cbf", "shop": "bakery"}}, {"type": "node", "id": 1455123611, "lat": 12.9354419, "lon": 77.6141569, "tags": {"name": "Sree Mittai", "shop": "bakery"}}, {"type": "node", "id": 1466724441, "lat": 12.9417187, "lon": 77.5601963, "tags": {"name": "Kaggi's Bakery", "shop": "bakery"}}, {"type": "node", "id": 1468516375, "lat": 12.9351019, "lon": 77.6230488, "tags": {"designation": "Cakes and confectioneries", "name": "Iyengar bakers", "shop": "bakery"}}, {"type": "node", "id": 1470544907, "lat": 13.007638, "lon": 77.5479677}, {"type": "node", "id": 1470544920, "lat": 13.0077664, "lon": 77.5478977}, {"type": "node", "id": 1470544934, "lat": 13.0077615, "lon": 77.5479754}, {"type": "node", "id": 1470544940, "lat": 13.0076487, "lon": 77.5478917}, {"type": "node", "id": 1470553269, "lat": 12.9369341, "lon": 77.5691786, "tags": {"name": "Samipa Bakery", "shop": "bakery"}}, {"type": "node", "id": 1470631821, "lat": 12.9358593, "lon": 77.6150138, "tags": {"designation": "Cakes", "name": "Cake Yard", "shop": "bakery"}}, {"type": "node", "id": 1470856090, "lat": 12.9347444, "lon": 77.6110003, "tags": {"addr:city": "Bangalore", "addr:housename": "Forum Mall", "addr:street": "Hosur Road", "name": "Cookie Man", "shop": "bakery"}}, {"type": "node", "id": 1471851161, "lat": 13.0042683, "lon": 77.5512142, "tags": {"name": "Cake Palace", "name:kn": "\u0c95\u0cc7\u0c95\u0ccd \u0caa\u0ccd\u0caf\u0cbe\u0cb2\u0cc7\u0cb8\u0ccd", "shop": "bakery"}}, {"type": "node", "id": 1472981411, "lat": 12.9348901, "lon": 77.560782, "tags": {"name": "SLV Bakery", "shop": "bakery"}}, {"type": "node", "id": 1474195348, "lat": 12.9966022, "lon": 77.614216, "tags": {"addr:housenumber": "93", "addr:postcode": "560005", "addr:street": "Mosque Road", "name": "Albert Bakery", "name:kn": "\u0c86\u0cb2\u0ccd\u0cac\u0cb0\u0ccd\u0c9f\u0ccd \u0cac\u0cc7\u0c95\u0cb0\u0cbf", "name:pa": "\u0a10\u0a32\u0a2c\u0a30\u0a1f \u0a2c\u0a47\u0a15\u0a30\u0a40", "name:ur": "\u0627\u0644\u0628\u0631\u0679 \u0628\u06cc\u06a9\u0631\u06cc", "shop": "bakery"}}, {"type": "node", "id": 1796708919, "lat": 12.9402254, "lon": 77.5535523, "tags": {"name": "Cake Palace", "shop": "bakery"}}, {"type": "node", "id": 1851790242, "lat": 13.0039163, "lon": 77.6245782, "tags": {"name": "Cafe Da Costa", "shop": "bakery", "wheelchair": "limited"}}, {"type": "node", "id": 1916532789, "lat": 12.9543124, "lon": 77.5786901, "tags": {"name": "NMH Bakery", "shop": "bakery"}}, {"type": "node", "id": 2211056431, "lat": 13.0144977, "lon": 77.6357519, "tags": {"name": "Bakey and Joy", "shop": "bakery"}}, {"type": "node", "id": 2211123464, "lat": 12.9665602, "lon": 77.5892256, "tags": {"shop": "bakery"}}, {"type": "node", "id": 2293286379, "lat": 12.9836572, "lon": 77.5487644, "tags": {"name": "Just Bake", "name:kn": "\u0c9c\u0cb8\u0ccd\u0c9f\u0ccd \u0cac\u0cc7\u0c95\u0ccd", "shop": "bakery"}}, {"type": "node", "id": 2487524467, "lat": 12.9811096, "lon": 77.6102253, "tags": {"addr:city": "Bangalore", "addr:housename": "Near Commercial Street", "addr:street": "Kamaraj Road", "name": "Lake N Bake", "name:kn": "\u0cb2\u0cc7\u0c96\u0ccd \u0c8e\u0ca8\u0ccd \u0cac\u0cc7\u0c95\u0ccd", "shop": "bakery"}}, {"type": "node", "id": 2945483873, "lat": 12.9653566, "lon": 77.5897586, "tags": {"shop": "bakery"}}, {"type": "node", "id": 3019593147, "lat": 12.9624238, "lon": 77.5942112, "tags": {"name": "Surya Bakery", "name:kn": "\u0cb8\u0cc2\u0cb0\u0ccd\u0caf \u0cac\u0cc7\u0c95\u0cb0\u0cbf", "shop": "bakery"}}, {"type": "node", "id": 3209500886, "lat": 12.9914598, "lon": 77.5546233, "tags": {"name": "O. G. Variar and Sons Bakery", "shop": "bakery"}}, {"type": "node", "id": 3280224336, "lat": 12.9962972, "lon": 77.5719247, "tags": {"name": "Sri Mukambika", "shop": "bakery", "wheelchair": "no"}}, {"type": "node", "id": 3550382367, "lat": 12.9874229, "lon": 77.550206}, {"type": "node", "id": 3550382368, "lat": 12.9874674, "lon": 77.5500074}, {"type": "node", "id": 3550382373, "lat": 12.9875846, "lon": 77.5502436}, {"type": "node", "id": 3550382375, "lat": 12.9875971, "lon": 77.550038}, {"type": "node", "id": 3556098555, "lat": 12.9780446, "lon": 77.6339349, "tags": {"addr:street": "Chinmaya Mission Hospital Road", "name": "Padmavathi Bakers", "shop": "bakery"}}, {"type": "node", "id": 3603077928, "lat": 12.9516486, "lon": 77.5770722, "tags": {"addr:city": "Bengaluru", "addr:postcode": "560004", "addr:street": "Old Market Street", "name": "V B Bakery", "shop": "bakery"}}, {"type": "node", "id": 3710229277, "lat": 12.9482984, "lon": 77.6000248, "tags": {"name": "L S Iyengar Bakery", "shop": "bakery"}}, {"type": "node", "id": 3773028984, "lat": 12.9609168, "lon": 77.5879444, "tags": {"addr:city": "Bengaluru", "addr:street": "Lalbagh Road", "name": "Jayalakshmi Bakery", "shop": "bakery"}}, {"type": "node", "id": 3899674926, "lat": 13.0016135, "lon": 77.6302145, "tags": {"name": "Iyengars Bakery", "shop": "bakery"}}, {"type": "node", "id": 3913898882, "lat": 13.00168, "lon": 77.6317427, "tags": {"name": "Just Bake", "name:kn": "\u0c9c\u0cb8\u0ccd\u0c9f\u0ccd \u0cac\u0cc7\u0c95\u0ccd", "shop": "bakery"}}, {"type": "node", "id": 4007518147, "lat": 12.9995198, "lon": 77.5711521, "tags": {"name": "Asha Sweets", "shop": "bakery"}}, {"type": "node", "id": 4063568040, "lat": 12.9450827, "lon": 77.6289375, "tags": {"name": "Fresh Bakery Cake", "name:kn": "\u0cab\u0ccd\u0cb0\u0cc6\u0cb7\u0ccd \u0cac\u0cc7\u0c95\u0cb0\u0cbf \u0c95\u0cc7\u0c95\u0ccd", "opening_hours": "09:30-13:30,14:30-21:00", "shop": "bakery", "wheelchair": "no"}}, {"type": "node", "id": 4130913295, "lat": 12.9635115, "lon": 77.5519675, "tags": {"name": "Bakery", "shop": "bakery"}}, {"type": "node", "id": 4130960192, "lat": 12.9640886, "lon": 77.5503466, "tags": {"name": "Ayub Bakery", "shop": "bakery"}}, {"type": "node", "id": 4130960198, "lat": 12.9632664, "lon": 77.5488141, "tags": {"addr:street": "Hosahalli Main Road", "name": "Manjunatha Bakery", "shop": "bakery"}}, {"type": "node", "id": 4130960993, "lat": 12.9608471, "lon": 77.5490504, "tags": {"name": "Ayenger Bakery", "name:kn": "\u0c85\u0caf\u0ccd\u0caf\u0c82\u0c97\u0cb0\u0ccd", "shop": "bakery"}}, {"type": "node", "id": 4255663990, "lat": 12.9398043, "lon": 77.5755209, "tags": {"name": "Cake Yard", "shop": "bakery"}}, {"type": "node", "id": 4272773491, "lat": 12.9783775, "lon": 77.63577, "tags": {"addr:street": "Chinmaya Mission Hospital Road", "name": "Select Bakery and Stores", "shop": "bakery"}}, {"type": "node", "id": 4294260126, "lat": 12.9720568, "lon": 77.6067921, "tags": {"alt_name": "Dunkin' Donuts", "amenity": "fast_food", "brand": "Dunkin'", "brand:wikidata": "Q847743", "cuisine": "donut;coffee_shop", "level": "0", "name": "Dunkin'", "shop": "bakery", "takeaway": "yes"}}, {"type": "node", "id": 4362723891, "lat": 12.9520113, "lon": 77.5806257, "tags": {"name": "Iyengar Bakery", "shop": "bakery"}}, {"type": "node", "id": 4443392689, "lat": 12.9703117, "lon": 77.6094111, "tags": {"addr:city": "Bangalore", "addr:housenumber": "Ashoknagar", "addr:postcode": "560025", "addr:street": "Magrath Road", "name": "Cookie Man", "opening_hours": "10:00-23:00", "shop": "bakery"}}, {"type": "node", "id": 4582783591, "lat": 12.9980438, "lon": 77.6205601, "tags": {"name": "Thomsons", "name:en": "Thomsons", "shop": "bakery"}}, {"type": "node", "id": 4623704804, "lat": 12.9920129, "lon": 77.5753645, "tags": {"check_date": "2024-01-02", "name": "Apoorva Iyengar Bakery", "name:en": "Apoorva Iyengar Bakery", "shop": "bakery"}}, {"type": "node", "id": 4843100121, "lat": 12.9430419, "lon": 77.5945987, "tags": {"name": "Palace Bakery and Sweets", "name:bn": "\u09aa\u09cd\u09af\u09be\u09b2\u09c7\u09b8 \u09ac\u09c7\u0995\u09be\u09b0\u09bf \u0985\u09cd\u09af\u09be\u09a8\u09cd\u09a1 \u09b8\u09c1\u0987\u099f\u09b8", "name:en": "Palace Bakery and Sweets", "shop": "bakery", "wheelchair": "no"}}, {"type": "node", "id": 4843100433, "lat": 12.9446921, "lon": 77.5968791, "tags": {"construction": "retail", "name": "Floral bakery", "name:en": "Floral bakery", "shop": "bakery"}}, {"type": "node", "id": 4843100436, "lat": 12.9392324, "lon": 77.5949154, "tags": {"name": "Bakery Nimhans", "name:en": "Bakery Nimhans", "shop": "bakery"}}, {"type": "node", "id": 4846817422, "lat": 12.9746129, "lon": 77.6193934, "tags": {"addr:city": "Bengaluru", "addr:country": "IN", "addr:floor": "G", "addr:postcode": "560008", "addr:street": "Halasuru Road", "addr:suburb": "Ulsoor", "air_conditioning": "yes", "amenity": "cafe", "bar": "no", "check_date": "2025-01-11", "contact:instagram": "@marzipan.cafe", "cuisine": "greek", "delivery": "yes", "email": "marzipan.ulsoor@gmail.com", "level": "0", "name": "Marzipan Cafe", "name:en": "Marzipan Cafe", "outdoor_seating": "yes", "payment:cash": "yes", "payment:credit_cards": "yes", "payment:debit_cards": "yes", "phone": "9844422724", "shop": "bakery", "takeaway": "yes", "wheelchair": "no"}}, {"type": "node", "id": 4847824824, "lat": 12.9449109, "lon": 77.5948763, "tags": {"name": "Bilal", "name:en": "Bilal", "shop": "bakery"}}, {"type": "node", "id": 5109189323, "lat": 13.0039067, "lon": 77.5500713, "tags": {"addr:postcode": "560010", "air_conditioning": "no", "branch": "Rajajinagar", "brand": "Just Bake", "building:levels": "0", "check_date": "2024-01-10", "currency:INR": "yes", "internet_access": "no", "name": "Just Bake", "name:kn": "\u0c9c\u0cb8\u0ccd\u0c9f\u0ccd \u0cac\u0cc7\u0c95\u0ccd", "payment:cash": "yes", "payment:credit_cards": "yes", "payment:debit_cards": "yes", "second_hand": "no", "shop": "bakery", "source": "local knowledge", "stroller": "limited", "toilets": "no", "toilets:wheelchair": "no", "wheelchair": "limited"}}, {"type": "node", "id": 5229456545, "lat": 12.989639, "lon": 77.5732106, "tags": {"name": "Brindavan Cake and Bakery", "shop": "bakery"}}, {"type": "node", "id": 5234740873, "lat": 12.9495474, "lon": 77.5970623, "tags": {"name": "Anand Bhavan Sweets", "shop": "bakery"}}, {"type": "node", "id": 5239936021, "lat": 12.9540847, "lon": 77.5800757, "tags": {"name:ko": "\ube75\uc9d1", "shop": "bakery"}}, {"type": "node", "id": 5283145296, "lat": 13.0051392, "lon": 77.6232666, "tags": {"name": "Baker's Craft", "shop": "bakery"}}, {"type": "node", "id": 5304601873, "lat": 12.9374505, "lon": 77.5491321, "tags": {"name": "Just Bake", "shop": "bakery"}}, {"type": "node", "id": 5304601883, "lat": 12.9377198, "lon": 77.5493212, "tags": {"name": "Oven Fresh", "shop": "bakery"}}, {"type": "node", "id": 5304601888, "lat": 12.9388615, "lon": 77.5486191, "tags": {"name": "Cake Bites", "shop": "bakery"}}, {"type": "node", "id": 5304601995, "lat": 12.9388733, "lon": 77.5526901, "tags": {"name": "L.J. Iyengar's Bakery", "shop": "bakery"}}, {"type": "node", "id": 5306751761, "lat": 12.9523578, "lon": 77.5773074, "tags": {"level": "0", "name": "Sri Rajalakshmi Bakery and Sweets", "shop": "bakery"}}, {"type": "node", "id": 5396228021, "lat": 12.9440943, "lon": 77.6077504, "tags": {"shop": "bakery"}}, {"type": "node", "id": 5623550274, "lat": 12.9871929, "lon": 77.5558383, "tags": {"name": "LJB Bakery", "shop": "bakery"}}, {"type": "node", "id": 5624262717, "lat": 12.9896759, "lon": 77.5559161, "tags": {"name": "Just Bake", "name:kn": "\u0c9c\u0cb8\u0ccd\u0c9f\u0ccd \u0cac\u0cc7\u0c95\u0ccd", "shop": "bakery"}}, {"type": "node", "id": 5624263029, "lat": 12.988128, "lon": 77.5558463, "tags": {"name": "Sri Sai Cake Palace", "shop": "bakery"}}, {"type": "node", "id": 5873954132, "lat": 12.9737136, "lon": 77.5444758, "tags": {"name": "Baker's Pride", "shop": "bakery"}}, {"type": "node", "id": 6388715090, "lat": 12.9719808, "lon": 77.5468134, "tags": {"name": "Vijayalakshmi Bakery", "shop": "bakery"}}, {"type": "node", "id": 6419049987, "lat": 12.9707166, "lon": 77.5784032, "tags": {"name": "Manak Mewa", "shop": "bakery"}}, {"type": "node", "id": 6458991784, "lat": 12.9778066, "lon": 77.6303466, "tags": {"name": "Snacks shop", "shop": "bakery"}}, {"type": "node", "id": 6681215533, "lat": 12.9668909, "lon": 77.6093255, "tags": {"check_date": "2023-12-03", "name": "Fatima Bakery", "shop": "bakery"}}, {"type": "node", "id": 6755811686, "lat": 12.9420698, "lon": 77.6280215, "tags": {"amenity": "restaurant", "cuisine": "indian;north_indian;regional", "name": "Devi Sri Juice and Condiments", "opening_hours": "Mo-Su 08:00-23:00", "phone": "094677 66383", "shop": "bakery"}}, {"type": "node", "id": 7087593362, "lat": 12.9936948, "lon": 77.607556, "tags": {"name": "The French Loaf", "shop": "bakery"}}, {"type": "node", "id": 7178597282, "lat": 12.9407064, "lon": 77.6201677, "tags": {"addr:city": "Bengaluru", "addr:country": "IN", "addr:hamlet": "Koramangala 8tth Block", "addr:housenumber": "583", "addr:postcode": "560095", "addr:street": "80 Feet Road", "email": "hello@sourhouse.in", "name": "Sour House", "opening_hours": "Mo-Sa 10:00-19:00", "shop": "bakery", "website": "https://www.sourhouse.in"}}, {"type": "node", "id": 7178597796, "lat": 13.005019, "lon": 77.6239403, "tags": {"addr:city": "Bengaluru", "addr:country": "IN", "addr:hamlet": "St. Thomas Town", "addr:housenumber": "12", "addr:postcode": "560084", "addr:street": "Hutchins 2nd Cross", "name": "Patisserie Nitash", "shop": "bakery", "website": "https://www.nitash.in/"}}, {"type": "node", "id": 7215440247, "lat": 12.9987812, "lon": 77.5507637, "tags": {"name": "Cake and Pastries", "phone": "080 4157 1512", "shop": "bakery"}}, {"type": "node", "id": 7291611554, "lat": 13.0089548, "lon": 77.5491321, "tags": {"name": "Breads and Co.", "shop": "bakery"}}, {"type": "node", "id": 8442476341, "lat": 12.9723871, "lon": 77.6185557, "tags": {"name": "Aubree", "shop": "bakery"}}, {"type": "node", "id": 8963780195, "lat": 13.0036253, "lon": 77.6229463, "tags": {"name": "AM Bakers and Caterers", "shop": "bakery"}}, {"type": "node", "id": 9108633819, "lat": 12.9616055, "lon": 77.614252, "tags": {"name": "Iyengers Bakery", "shop": "bakery"}}, {"type": "node", "id": 9214185080, "lat": 12.9967278, "lon": 77.5629723, "tags": {"name": "Iyengar Bakery", "name:kn": "\u0c90\u0caf\u0ccd\u0caf\u0c82\u0c97\u0cbe\u0cb0\u0ccd \u0cac\u0cc7\u0c95\u0cb0\u0cbf", "shop": "bakery"}}, {"type": "node", "id": 9270966239, "lat": 13.0024676, "lon": 77.5503413, "tags": {"name": "The Baker's Dozen", "shop": "bakery"}}, {"type": "node", "id": 9270966240, "lat": 13.0026676, "lon": 77.5503083, "tags": {"name": "NS Varier Bakery", "note": "This is not the original Variar Bakery", "shop": "bakery"}}, {"type": "node", "id": 9310793280, "lat": 12.9506267, "lon": 77.6237605, "tags": {"name": "Shine Bakery", "shop": "bakery"}}, {"type": "node", "id": 9502502842, "lat": 12.9654005, "lon": 77.6048081, "tags": {"name": "Koshy's Bakery", "shop": "bakery"}}, {"type": "node", "id": 9502502843, "lat": 12.9668668, "lon": 77.6067889, "tags": {"name": "All Saints Bakery", "shop": "bakery"}}, {"type": "node", "id": 9534308004, "lat": 12.9982475, "lon": 77.6153594, "tags": {"name": "Theobroma Patisserie", "shop": "bakery", "website": "https://theobroma.in/"}}, {"type": "node", "id": 9632587579, "lat": 12.9876209, "lon": 77.5554702, "tags": {"name": "Jain Bakes", "shop": "bakery"}}, {"type": "node", "id": 9667558148, "lat": 12.9961346, "lon": 77.6043695, "tags": {"name": "Happy Belly Bakes", "name:kn": "\u0cb9\u0ccd\u0caf\u0cbe\u0caa\u0cbf \u0cac\u0cc6\u0cb2\u0ccd\u0cb2\u0cbf", "shop": "bakery"}}, {"type": "node", "id": 9723871257, "lat": 12.9458071, "lon": 77.5711182, "tags": {"branch": "National college", "brand": "Kanli Sweets", "shop": "bakery"}}, {"type": "node", "id": 9797011344, "lat": 12.984955, "lon": 77.6022466, "tags": {"name": "Bilal Bakery", "shop": "bakery"}}, {"type": "node", "id": 9797011354, "lat": 12.9839521, "lon": 77.6082614, "tags": {"name": "Vee Bake", "shop": "bakery"}}, {"type": "node", "id": 9828605792, "lat": 12.9760006, "lon": 77.602614, "tags": {"amenity": "cafe", "name": "Zed The Baker", "shop": "bakery"}}, {"type": "node", "id": 9828707239, "lat": 12.981624, "lon": 77.6097815, "tags": {"addr:city": "Bengaluru", "addr:street": "Commercial Street", "check_date": "2023-04-07", "indoor_seating": "yes", "name": "Anand Sweets and Savouries", "outdoor_seating": "no", "payment:cash": "yes", "payment:debit_cards": "yes", "shop": "bakery", "smoking": "no", "website": "https://anandsweets.in/", "wheelchair": "no"}}, {"type": "node", "id": 9828707253, "lat": 12.9832183, "lon": 77.6064932, "tags": {"name": "SR and Sons", "shop": "bakery"}}, {"type": "node", "id": 9870882730, "lat": 12.9687592, "lon": 77.6012991, "tags": {"name": "Veebake", "shop": "bakery"}}, {"type": "node", "id": 9892036257, "lat": 12.9721872, "lon": 77.594908, "tags": {"name": "Bengaluru Baking Company", "shop": "bakery"}}, {"type": "node", "id": 9909999112, "lat": 12.9844173, "lon": 77.5574496, "tags": {"name": "Royal Cakes and Cookies", "shop": "bakery"}}, {"type": "node", "id": 9938657067, "lat": 13.0044855, "lon": 77.5839037, "tags": {"name": "Labonel", "shop": "bakery"}}, {"type": "node", "id": 9954120117, "lat": 12.9392892, "lon": 77.628352, "tags": {"name": "Bakery", "shop": "bakery"}}, {"type": "node", "id": 10047269017, "lat": 12.9819023, "lon": 77.6039684, "tags": {"name": "SR Bakery & Fast Food", "shop": "bakery"}}, {"type": "node", "id": 10095556617, "lat": 12.9438945, "lon": 77.6284681, "tags": {"name": "Mathrusree Bakery", "shop": "bakery"}}, {"type": "node", "id": 10098185717, "lat": 12.9511416, "lon": 77.6225971, "tags": {"name": "Shree Durga Bakery", "shop": "bakery"}}, {"type": "node", "id": 10101174119, "lat": 12.9509346, "lon": 77.6230113, "tags": {"name": "Sun Jyothi Bakery", "shop": "bakery"}}, {"type": "node", "id": 10114122215, "lat": 12.939109, "lon": 77.6259207, "tags": {"name": "Fatima", "shop": "bakery"}}, {"type": "node", "id": 10118722288, "lat": 12.950735, "lon": 77.6240042, "tags": {"name": "Tasty Bakes", "shop": "bakery"}}, {"type": "node", "id": 10265825073, "lat": 12.9727906, "lon": 77.6066668, "tags": {"addr:city": "Bangalore", "addr:country": "IN", "addr:district": "Bangalore Urban", "addr:hamlet": "Shanthala Nagar", "addr:housename": "Forum Rex Walk", "addr:housenumber": "202", "addr:postcode": "560001", "addr:state": "Karnataka", "addr:street": "Brigade Road", "addr:suburb": "Ashok Nagar", "amenity": "cafe", "check_date": "2024-08-19", "contact:instagram": "tartalert", "email": "info@tart.co.in", "level": "0", "name": "T'ART Cafe", "official_name": "T'art Boulangerie & Patisserie", "phone": "9380357634", "shop": "bakery", "website": "https://tart.co.in/"}}, {"type": "node", "id": 10276162837, "lat": 13.0039815, "lon": 77.5504437, "tags": {"name": "Hasan Iyengar's Bakery", "shop": "bakery"}}, {"type": "node", "id": 10276162849, "lat": 13.0043395, "lon": 77.5540982, "tags": {"name": "Sri Lakshmi Venkateshwara Bakery", "shop": "bakery"}}, {"type": "node", "id": 10676117988, "lat": 13.007424, "lon": 77.578393, "tags": {"name": "Honey Bee Bakers", "shop": "bakery"}}, {"type": "node", "id": 10676117989, "lat": 13.0073991, "lon": 77.5784399, "tags": {"name": "Sweet Chariot", "shop": "bakery"}}, {"type": "node", "id": 11046880966, "lat": 13.0048779, "lon": 77.6171409, "tags": {"amenity": "cafe", "delivery": "yes", "name": "Chez Kina", "shop": "bakery", "takeaway": "yes"}}, {"type": "node", "id": 11096802207, "lat": 12.997393, "lon": 77.5733015, "tags": {"name": "New Janardhan Bakery", "shop": "bakery"}}, {"type": "node", "id": 11129099866, "lat": 12.9953074, "lon": 77.6216752, "tags": {"addr:city": "Bengaluru", "addr:country": "IN", "addr:housenumber": "51", "addr:postcode": "560005", "addr:street": "MM Road", "addr:suburb": "Cox Town", "contact:facebook": "breadtimestories.blr", "contact:instagram": "breadtimestories.blr", "email": "breadtimestories.blr@gmail.com", "name": "Breadtime Stories", "shop": "bakery", "website": "https://www.breadtimestories.in"}}, {"type": "node", "id": 11171328738, "lat": 12.9580872, "lon": 77.6010965, "tags": {"shop": "bakery"}}, {"type": "node", "id": 11178123933, "lat": 12.9570155, "lon": 77.5697127, "tags": {"check_date": "2023-09-09", "name": "Iyengar's Bakery", "name:kn": "\u0c90\u0caf\u0ccd\u0caf\u0c82\u0c97\u0cbe\u0cb0\u0ccd \u0cac\u0cc7\u0c95\u0cb0\u0cbf", "shop": "bakery"}}, {"type": "node", "id": 11178141192, "lat": 12.9480492, "lon": 77.5697053, "tags": {"alt_name": "Haldiram", "amenity": "fast_food", "brand": "Haldiram's", "brand:wikidata": "Q17054442", "check_date": "2023-09-09", "cuisine": "indian", "internet_access": "wlan", "internet_access:fee": "no", "name": "Haldiram's", "shop": "bakery", "takeaway": "yes"}}, {"type": "node", "id": 11178186995, "lat": 12.9584415, "lon": 77.5591653, "tags": {"check_date": "2023-09-09", "name": "Iyengar Bakery", "name:kn": "\u0c90\u0caf\u0ccd\u0caf\u0c82\u0c97\u0cbe\u0cb0\u0ccd \u0cac\u0cc7\u0c95\u0cb0\u0cbf", "shop": "bakery"}}, {"type": "node", "id": 11215814226, "lat": 12.9444805, "lon": 77.5680289, "tags": {"name": "Cake Yard", "shop": "bakery"}}, {"type": "node", "id": 11285259376, "lat": 12.9816046, "lon": 77.5637263, "tags": {"check_date": "2023-10-23", "indoor_seating": "yes", "name": "Cookie Man", "outdoor_seating": "no", "shop": "bakery", "smoking": "no", "wheelchair": "limited"}}, {"type": "node", "id": 11295814512, "lat": 12.9565308, "lon": 77.5911058, "tags": {"level": "0", "name": "Sri Manjunatha Bakery & Cool Joint", "shop": "bakery"}}, {"type": "node", "id": 11295921632, "lat": 12.9494898, "lon": 77.5962984, "tags": {"level": "0", "name": "Bake Land", "opening_hours": "Mo-Su 07:00-23:30; PH open", "shop": "bakery"}}, {"type": "node", "id": 11295921634, "lat": 12.9500034, "lon": 77.5965705, "tags": {"indoor_seating": "no", "level": "0", "name": "Sri Venkatesha Iyengar's Bakery", "outdoor_seating": "no", "shop": "bakery", "takeaway": "only", "wheelchair": "no"}}, {"type": "node", "id": 11391167230, "lat": 13.0090849, "lon": 77.5632841, "tags": {"check_date": "2024-03-02", "name": "Sri Srinivas Iyengar's Bakery", "shop": "bakery"}}, {"type": "node", "id": 11598459984, "lat": 12.9782131, "lon": 77.6306819, "tags": {"check_date": "2025-09-12", "check_date:opening_hours": "2025-09-12", "internet_access": "no", "level": "0", "name": "B.P Bakery", "opening_hours": "Mo-Sa 09:00-21:00", "payment:cards": "no", "payment:cash": "yes", "payment:credit_cards": "no", "payment:debit_cards": "no", "shop": "bakery", "wheelchair": "no"}}, {"type": "node", "id": 11659028900, "lat": 12.9926681, "lon": 77.5917807, "tags": {"name": "Rohit hot chips", "shop": "bakery"}}, {"type": "node", "id": 11676514156, "lat": 12.989027, "lon": 77.5937131, "tags": {"name": "Just Bake", "shop": "bakery"}}, {"type": "node", "id": 11677179257, "lat": 12.9781549, "lon": 77.5751407, "tags": {"check_date": "2024-02-29", "name": "Sri Surya Bakery", "shop": "bakery"}}, {"type": "node", "id": 11687235824, "lat": 12.9949359, "lon": 77.5662917, "tags": {"check_date": "2024-03-03", "name": "Kavery Bakery", "shop": "bakery"}}, {"type": "node", "id": 11687703006, "lat": 12.9770118, "lon": 77.6319376, "tags": {"check_date": "2024-03-03", "internet_access": "no", "name": "Iyengars Amma Pastries", "payment:cards": "no", "payment:cash": "yes", "payment:credit_cards": "no", "payment:debit_cards": "no", "shop": "bakery", "wheelchair": "no"}}, {"type": "node", "id": 11691158235, "lat": 12.9781047, "lon": 77.6348576, "tags": {"check_date": "2024-03-04", "internet_access": "no", "name": "Bake Decor", "payment:cards": "no", "payment:cash": "yes", "payment:credit_cards": "no", "payment:debit_cards": "no", "shop": "bakery", "wheelchair": "no"}}, {"type": "node", "id": 11697176317, "lat": 12.9928004, "lon": 77.5928937, "tags": {"shop": "bakery"}}, {"type": "node", "id": 11708674466, "lat": 12.9785693, "lon": 77.6292371, "tags": {"check_date": "2024-03-09", "internet_access": "no", "name": "L.J Iyengar's Bakery & Sweets", "payment:cards": "no", "payment:cash": "yes", "payment:credit_cards": "no", "payment:debit_cards": "no", "shop": "bakery", "wheelchair": "no"}}, {"type": "node", "id": 11853290254, "lat": 12.9976632, "lon": 77.6149012, "tags": {"check_date": "2024-04-27", "name": "Bakers Day", "shop": "bakery"}}, {"type": "node", "id": 11962616020, "lat": 12.9728744, "lon": 77.6091405, "tags": {"check_date": "2024-06-05", "name": "Cake Land", "shop": "bakery"}}, {"type": "node", "id": 12050929502, "lat": 12.9983044, "lon": 77.5671142, "tags": {"check_date": "2024-07-13", "name": "Kamath Thindi mane", "shop": "bakery"}}, {"type": "node", "id": 12157272456, "lat": 12.9776116, "lon": 77.5723551, "tags": {"check_date": "2024-08-27", "internet_access": "no", "name": "Kadamba Coffee Kendra", "payment:cash": "yes", "shop": "bakery", "wheelchair": "yes"}}, {"type": "node", "id": 12260569980, "lat": 12.998931, "lon": 77.5503123, "tags": {"name": "Vanillaa Bakery and Cafe", "shop": "bakery", "website": "https://vanillaablr.com/"}}, {"type": "node", "id": 12325730790, "lat": 12.9783268, "lon": 77.6330485, "tags": {"name": "Niva Bakery N Juice", "shop": "bakery"}}, {"type": "node", "id": 12422943859, "lat": 12.9920548, "lon": 77.5816472, "tags": {"name": "The Pastry Shop", "shop": "bakery"}}, {"type": "node", "id": 12432796826, "lat": 13.001244, "lon": 77.6236928, "tags": {"shop": "bakery"}}, {"type": "node", "id": 12441128605, "lat": 12.9835541, "lon": 77.6108149, "tags": {"name": "Excelsior", "shop": "bakery", "start_date": "1930"}}, {"type": "node", "id": 12441528412, "lat": 12.9873315, "lon": 77.5800872, "tags": {"check_date": "2024-12-22", "name": "Cake Basket", "shop": "bakery"}}, {"type": "node", "id": 12466444176, "lat": 12.9434263, "lon": 77.5677477, "tags": {"check_date": "2025-01-01", "name": "Sreenivasa Brahmins Bakery", "shop": "bakery"}}, {"type": "node", "id": 12475698450, "lat": 12.9734621, "lon": 77.6019267, "tags": {"amenity": "cafe", "check_date": "2025-01-23", "name": "Magnolia Bakery", "payment:cash": "yes", "payment:mastercard": "yes", "payment:visa": "yes", "shop": "bakery"}}, {"type": "node", "id": 12492736784, "lat": 12.9750466, "lon": 77.6179321, "tags": {"name": "Shooketts", "shop": "bakery"}}, {"type": "node", "id": 12531970255, "lat": 12.9363428, "lon": 77.6147228, "tags": {"name": "Merwans", "shop": "bakery", "website": "https://merwans.co.in/"}}, {"type": "node", "id": 12809319559, "lat": 13.0108881, "lon": 77.5549465, "tags": {"amenity": "cafe", "name": "Magnolia Bakery", "shop": "bakery"}}, {"type": "node", "id": 13112735901, "lat": 12.9340414, "lon": 77.6302958, "tags": {"name": "Crave by Leena", "shop": "bakery"}}, {"type": "node", "id": 13242923146, "lat": 12.9429811, "lon": 77.596407, "tags": {"shop": "bakery", "survey:date": "2025-09-20"}}, {"type": "node", "id": 13277189747, "lat": 12.9702992, "lon": 77.6065091, "tags": {"addr:city": "Bangalore", "addr:floor": "G", "addr:hamlet": "Shanthala Nagar", "addr:housenumber": "B002,B003", "addr:postcode": "560 025", "addr:state": "KA", "addr:street": "Brigade Road", "addr:suburb": "Ashok Nagar", "level": "0", "name": "Kanti Bakes & Flakes", "shop": "bakery"}}, {"type": "node", "id": 13299647378, "lat": 12.9845566, "lon": 77.6121654, "tags": {"name": "Iyengar Bakery", "shop": "bakery"}}, {"type": "way", "id": 133596129, "nodes": [1470544934, 1470544907, 1470544940, 1470544920, 1470544934], "tags": {"addr:housename": "Arun Ice cream", "addr:postcode": "560086", "addr:street": "2nd Main, Bovipalya, Nagapura (Near MahalakshmiLayout Entrance)", "name": "Arun Icecreams", "shop": "bakery"}}, {"type": "way", "id": 349097599, "nodes": [3550382375, 3550382373, 3550382367, 3550382368, 3550382375], "tags": {"building": "yes", "building:levels": "4", "local_ref": "Varier Bakery", "name": "O G Varier Bakery", "shop": "bakery", "wheelchair": "no"}}]}