{"version": 0.6, "generator": "Overpass API 0.7.62.8 e802775f", "osm3s": {"timestamp_osm_base": "2025-11-29T15:51:52Z", "copyright": "The data included in this document is from www.openstreetmap.org. The data is made available under ODbL."}, "elements": [{"type": "node", "id": 254923103, "lat": 12.9337057, "lon": 77.6112694}, {"type": "node", "id": 303938132, "lat": 12.9365895, "lon": 77.5804447, "tags": {"addr:street": "Elephant Cave Road", "amenity": "fuel", "brand": "Bharat Petroleum", "brand:wikidata": "Q854826", "name": "Bharat Petroleum", "name:kn": "\u0cad\u0cbe\u0cb0\u0ca4\u0ccd \u0caa\u0cc6\u0c9f\u0ccd\u0cb0\u0ccb\u0cb2\u0cbf\u0caf\u0c82", "operator": "Bharat Petroleum"}}, {"type": "node", "id": 303938171, "lat": 12.9369719, "lon": 77.5849448}, {"type": "node", "id": 304272392, "lat": 12.9286218, "lon": 77.6006332}, {"type": "node", "id": 304755413, "lat": 12.927735, "lon": 77.5891627}, {"type": "node", "id": 308471827, "lat": 12.9169955, "lon": 77.5740031}, {"type": "node", "id": 308779347, "lat": 12.9356671, "lon": 77.6144578, "tags": {"addr:street": "80 Feet Road", "amenity": "fuel", "brand": "Bharat Petroleum", "brand:wikidata": "Q854826", "name": "Bharat Petroleum", "name:kn": "\u0cad\u0cbe\u0cb0\u0ca4\u0ccd \u0caa\u0cc6\u0c9f\u0ccd\u0cb0\u0ccb\u0cb2\u0cbf\u0caf\u0c82"}}, {"type": "node", "id": 316480100, "lat": 12.961268, "lon": 77.6347616}, {"type": "node", "id": 316993736, "lat": 12.9600249, "lon": 77.6459538}, {"type": "node", "id": 325156163, "lat": 12.9598512, "lon": 77.6494222}, {"type": "node", "id": 363192526, "lat": 12.9395753, "lon": 77.6252077}, {"type": "node", "id": 363759857, "lat": 12.9298587, "lon": 77.6153844}, {"type": "node", "id": 363759860, "lat": 12.9301031, "lon": 77.6154376}, {"type": "node", "id": 374218299, "lat": 13.0384292, "lon": 77.5647137}, {"type": "node", "id": 374218325, "lat": 13.0322135, "lon": 77.5698943, "tags": {"amenity": "fuel", "brand": "Indian Oil", "brand:wikidata": "Q1289348", "brand:wikipedia": "en:Indian Oil Corporation", "name": "Indian Oil", "operator": "Indian Oil", "wheelchair": "yes"}}, {"type": "node", "id": 414032162, "lat": 12.9812136, "lon": 77.6570884, "tags": {"amenity": "fuel", "brand": "Hindustan Petroleum", "brand:wikidata": "Q1619375", "name": "HP Auto Care", "official_name": "Hindustan Petroleum"}}, {"type": "node", "id": 431594757, "lat": 12.9615603, "lon": 77.6343647}, {"type": "node", "id": 442438009, "lat": 13.0103936, "lon": 77.6814128}, {"type": "node", "id": 445356045, "lat": 13.021194, "lon": 77.5630642}, {"type": "node", "id": 447167866, "lat": 12.9382012, "lon": 77.5219849}, {"type": "node", "id": 456204160, "lat": 12.9734132, "lon": 77.5814665}, {"type": "node", "id": 493556428, "lat": 12.9173655, "lon": 77.574302}, {"type": "node", "id": 519549716, "lat": 12.9967798, "lon": 77.5404068, "tags": {"addr:street": "WOC Road", "amenity": "fuel", "brand": "Indian Oil", "brand:wikidata": "Q1289348", "brand:wikipedia": "en:Indian Oil Corporation", "name": "Indian Oil", "operator": "Indian Oil", "wheelchair": "yes"}}, {"type": "node", "id": 519549718, "lat": 12.9966627, "lon": 77.5400464, "tags": {"addr:street": "WOC Road", "amenity": "fuel", "brand": "Bharat Petroleum", "brand:wikidata": "Q854826", "name": "Bharat Petroleum", "operator": "Bharat Petroleum", "wheelchair": "yes"}}, {"type": "node", "id": 530582182, "lat": 13.0419464, "lon": 77.6136312}, {"type": "node", "id": 575556514, "lat": 13.0096888, "lon": 77.5624992, "tags": {"amenity": "fuel", "brand": "Bharat Petroleum", "brand:wikidata": "Q854826", "check_date": "2025-08-27", "compressed_air": "yes", "name": "Bharat Petroleum", "name:kn": "\u0cad\u0cbe\u0cb0\u0ca4\u0ccd \u0caa\u0cc6\u0c9f\u0ccd\u0cb0\u0ccb\u0cb2\u0cbf\u0caf\u0c82"}}, {"type": "node", "id": 590002267, "lat": 13.0436252, "lon": 77.5536883, "tags": {"amenity": "fuel", "brand": "Hindustan Petroleum", "brand:wikidata": "Q1619375", "compressed_air": "yes", "name": "Hindustan Petroleum", "official_name": "Hindustan Petroleum", "operator": "Hindustan Petroleum", "wheelchair": "limited"}}, {"type": "node", "id": 594206377, "lat": 12.9571863, "lon": 77.5862334, "tags": {"addr:street": "Lalbagh Road", "amenity": "fuel", "brand": "Indian Oil", "brand:wikidata": "Q1289348", "brand:wikipedia": "en:Indian Oil Corporation", "name": "Indian Oil", "name:kn": "\u0c87\u0c82\u0ca1\u0cbf\u0caf\u0ca8\u0ccd \u0c86\u0caf\u0cbf\u0cb2\u0ccd"}}, {"type": "node", "id": 608958334, "lat": 13.0222941, "lon": 77.5332714}, {"type": "node", "id": 661098627, "lat": 13.0059883, "lon": 77.5786881}, {"type": "node", "id": 661983026, "lat": 12.9824733, "lon": 77.5941263}, {"type": "node", "id": 663313913, "lat": 12.9758396, "lon": 77.5985677, "tags": {"addr:street": "Kasturba Road", "amenity": "fuel", "brand": "Bharat Petroleum", "brand:wikidata": "Q854826", "compressed_air": "yes", "name": "Bharat Petroleum", "name:kn": "\u0cad\u0cbe\u0cb0\u0ca4\u0ccd \u0caa\u0cc6\u0c9f\u0ccd\u0cb0\u0ccb\u0cb2\u0cbf\u0caf\u0c82"}}, {"type": "node", "id": 665072891, "lat": 12.9754674, "lon": 77.6012132}, {"type": "node", "id": 665072892, "lat": 12.9750549, "lon": 77.6011504}, {"type": "node", "id": 665072895, "lat": 12.9749991, "lon": 77.6014297}, {"type": "node", "id": 677286835, "lat": 12.9715474, "lon": 77.5969211}, {"type": "node", "id": 701733217, "lat": 13.0382505, "lon": 77.5209319, "tags": {"amenity": "fuel", "brand": "Indian Oil", "brand:wikidata": "Q1289348", "brand:wikipedia": "en:Indian Oil Corporation", "operator": "Indian Oil"}}, {"type": "node", "id": 791378337, "lat": 13.0270252, "lon": 77.5348756, "tags": {"amenity": "fuel"}}, {"type": "node", "id": 953621359, "lat": 12.9340077, "lon": 77.5390953}, {"type": "node", "id": 953687122, "lat": 12.9380085, "lon": 77.5496081, "tags": {"addr:street": "80 Feet Road", "amenity": "fuel", "brand": "IBP", "fuel:biodiesel": "no", "fuel:biogas": "no", "fuel:cng": "no", "fuel:diesel": "yes", "fuel:e10": "no", "fuel:e85": "no", "fuel:electricity": "no", "fuel:lpg": "no", "name": "IBP Petrol Station"}}, {"type": "node", "id": 1053320350, "lat": 13.0553995, "lon": 77.5072996, "tags": {"addr:street": "Hesaraghetta Main Road", "amenity": "fuel", "brand": "Indian Oil", "brand:wikidata": "Q1289348", "name": "Indian Oil"}}, {"type": "node", "id": 1061341352, "lat": 12.9665776, "lon": 77.5951759}, {"type": "node", "id": 1078188306, "lat": 12.9979379, "lon": 77.6706603, "tags": {"amenity": "fuel", "brand": "Bharat Petroleum", "brand:wikidata": "Q854826", "compressed_air": "yes", "name": "Gokula Petrol / Gas Station"}}, {"type": "node", "id": 1110178891, "lat": 13.0467765, "lon": 77.5020473}, {"type": "node", "id": 1116412178, "lat": 12.9916942, "lon": 77.5457901, "tags": {"amenity": "fuel", "brand": "Indian Oil", "brand:wikidata": "Q1289348", "brand:wikipedia": "en:Indian Oil Corporation", "name": "Indian Oil", "name:kn": "\u0c87\u0c82\u0ca1\u0cbf\u0caf\u0ca8\u0ccd \u0c86\u0caf\u0cbf\u0cb2\u0ccd"}}, {"type": "node", "id": 1135950143, "lat": 12.971937, "lon": 77.6543538}, {"type": "node", "id": 1135950147, "lat": 12.9718983, "lon": 77.6545797}, {"type": "node", "id": 1135950154, "lat": 12.9716027, "lon": 77.654567}, {"type": "node", "id": 1135950157, "lat": 12.9716037, "lon": 77.6543569}, {"type": "node", "id": 1280987919, "lat": 12.9074634, "lon": 77.6446175}, {"type": "node", "id": 1285911544, "lat": 12.9664753, "lon": 77.5051222}, {"type": "node", "id": 1290036140, "lat": 12.9950213, "lon": 77.5964919, "tags": {"addr:street": "Millers Road", "amenity": "fuel"}}, {"type": "node", "id": 1318987639, "lat": 12.8910036, "lon": 77.5646686, "tags": {"amenity": "fuel", "brand": "Indane Oil", "name": "Mobil Petrol / Gas Station", "name:en": "Indian Oil Corporation"}}, {"type": "node", "id": 1331929297, "lat": 12.9038876, "lon": 77.5619854}, {"type": "node", "id": 1331946753, "lat": 12.9134732, "lon": 77.5590565, "tags": {"amenity": "fuel", "name": "Kadirenahalli Petrol Pump"}}, {"type": "node", "id": 1331946760, "lat": 12.895836, "lon": 77.5818445, "tags": {"amenity": "fuel", "brand": "Indian Oil", "brand:wikidata": "Q1289348", "brand:wikipedia": "en:Indian Oil Corporation", "name": "Indian Oil", "name:en": "Indian Oil Corporation", "name:kn": "\u0c87\u0c82\u0ca1\u0cbf\u0caf\u0ca8\u0ccd \u0c86\u0caf\u0cbf\u0cb2\u0ccd", "operator": "Indian Oil"}}, {"type": "node", "id": 1370777377, "lat": 13.0300549, "lon": 77.6078349}, {"type": "node", "id": 1433646771, "lat": 12.932367, "lon": 77.5414216, "tags": {"addr:city": "bangalore", "addr:postcode": "560085", "amenity": "fuel", "brand": "Hindustan Petroleum", "brand:wikidata": "Q1619375", "name": "Sri Mahadeshwara Filling Station", "official_name": "Hindustan Petroleum", "operator": "Hindustan Petroleum"}}, {"type": "node", "id": 1440193832, "lat": 12.9865791, "lon": 77.5403594, "tags": {"amenity": "fuel", "brand": "Total", "brand:wikidata": "Q154037", "fuel:lpg": "yes", "name": "Total gas", "operator": "Total"}}, {"type": "node", "id": 1449021351, "lat": 12.9420282, "lon": 77.5802856, "tags": {"addr:city": "Bangalore", "addr:postcode": "560004", "addr:street": "Rashtriya Vidyalaya Road", "amenity": "fuel", "brand": "Indian Oil", "brand:wikidata": "Q1289348", "brand:wikipedia": "en:Indian Oil Corporation", "compressed_air": "yes", "name": "Indian Oil", "name:kn": "\u0c87\u0c82\u0ca1\u0cbf\u0caf\u0ca8\u0ccd \u0c86\u0caf\u0cbf\u0cb2\u0ccd"}}, {"type": "node", "id": 1463554005, "lat": 12.9329137, "lon": 77.5164601}, {"type": "node", "id": 1463589053, "lat": 12.9059935, "lon": 77.5421849, "tags": {"amenity": "fuel", "brand": "Hindustan Petroleum", "brand:wikidata": "Q1619375", "name": "HP", "official_name": "Hindustan Petroleum"}}, {"type": "node", "id": 1463596892, "lat": 12.9222658, "lon": 77.5598716}, {"type": "node", "id": 1463663059, "lat": 13.0638696, "lon": 77.5592975}, {"type": "node", "id": 1463795931, "lat": 13.029089, "lon": 77.535966}, {"type": "node", "id": 1464743669, "lat": 13.0459419, "lon": 77.5071307}, {"type": "node", "id": 1464749307, "lat": 12.9259341, "lon": 77.5011633}, {"type": "node", "id": 1464749308, "lat": 12.9260566, "lon": 77.5003794}, {"type": "node", "id": 1464775796, "lat": 13.0291835, "lon": 77.5788862, "tags": {"amenity": "fuel", "operator": "IBP"}}, {"type": "node", "id": 1464896674, "lat": 12.933506, "lon": 77.6303939, "tags": {"amenity": "fuel", "brand": "Hindustan Petroleum", "brand:wikidata": "Q1619375", "name": "HP Petrol Pump", "official_name": "Hindustan Petroleum"}}, {"type": "node", "id": 1466684135, "lat": 12.9309662, "lon": 77.6004616, "tags": {"amenity": "fuel", "brand": "Auto LPG", "fuel:cng": "yes", "fuel:lpg": "yes", "name": "Classic Auto Gas"}}, {"type": "node", "id": 1466699838, "lat": 12.9908478, "lon": 77.6136379}, {"type": "node", "id": 1469190373, "lat": 12.9966233, "lon": 77.6117255}, {"type": "node", "id": 1472212762, "lat": 12.9090166, "lon": 77.6280806, "tags": {"addr:city": "Bengaluru", "amenity": "fuel", "brand": "Bharat Petroleum", "brand:wikidata": "Q854826", "brand:wikipedia": "en:Bharat Petroleum", "fuel:diesel": "yes", "fuel:petrol": "yes", "name": "Bharat Petroleum", "operator": "Vasundhara Auto Service", "self_service": "no"}}, {"type": "node", "id": 1472858757, "lat": 13.006011, "lon": 77.5543144}, {"type": "node", "id": 1473004837, "lat": 13.0238021, "lon": 77.5494737, "tags": {"amenity": "fuel"}}, {"type": "node", "id": 1473008152, "lat": 13.0259872, "lon": 77.5440585}, {"type": "node", "id": 1473014465, "lat": 13.0270919, "lon": 77.5435447}, {"type": "node", "id": 1473059802, "lat": 13.0394495, "lon": 77.5186809, "tags": {"amenity": "fuel"}}, {"type": "node", "id": 1473308106, "lat": 12.9390297, "lon": 77.6306334}, {"type": "node", "id": 1473921794, "lat": 12.9462008, "lon": 77.5679859, "tags": {"amenity": "fuel", "brand": "Indian Oil", "brand:wikidata": "Q1289348", "name": "Bull Temple Filling Station"}}, {"type": "node", "id": 1473975632, "lat": 12.9536903, "lon": 77.5670542}, {"type": "node", "id": 1474827885, "lat": 12.9755831, "lon": 77.5480465}, {"type": "node", "id": 1474854777, "lat": 12.9439518, "lon": 77.5292127}, {"type": "node", "id": 1474854779, "lat": 12.9599025, "lon": 77.5328566, "tags": {"amenity": "fuel", "check_date": "2025-05-27", "name": "Bharat Petrol Pump"}}, {"type": "node", "id": 1474854798, "lat": 12.9397172, "lon": 77.5238766, "tags": {"amenity": "fuel", "brand": "Indian Oil", "brand:wikidata": "Q1289348", "brand:wikipedia": "en:Indian Oil Corporation", "name": "Indian Oil Petrol Pump", "name:kn": "\u0c87\u0c82\u0ca1\u0cbf\u0caf\u0ca8\u0ccd \u0c86\u0caf\u0cbf\u0cb2\u0ccd"}}, {"type": "node", "id": 1474854801, "lat": 12.947907, "lon": 77.5327064, "tags": {"amenity": "fuel", "brand": "Shell", "brand:wikidata": "Q110716465", "name": "Shell"}}, {"type": "node", "id": 1474872701, "lat": 13.0039116, "lon": 77.6571085}, {"type": "node", "id": 1485636674, "lat": 12.9598561, "lon": 77.6455062}, {"type": "node", "id": 1558155503, "lat": 12.9920885, "lon": 77.6597508}, {"type": "node", "id": 1610063667, "lat": 13.0663685, "lon": 77.5936278, "tags": {"amenity": "fuel", "brand": "Shell", "brand:wikidata": "Q110716465", "name": "Shell Ganesh Enterprises"}}, {"type": "node", "id": 1613147970, "lat": 12.9087203, "lon": 77.6275079, "tags": {"amenity": "fuel", "brand": "Indian Oil", "brand:wikidata": "Q1289348", "brand:wikipedia": "en:Indian Oil Corporation", "compressed_air": "yes", "name": "Indian Oil", "name:kn": "\u0c87\u0c82\u0ca1\u0cbf\u0caf\u0ca8\u0ccd \u0c86\u0caf\u0cbf\u0cb2\u0ccd"}}, {"type": "node", "id": 1614366547, "lat": 12.9883033, "lon": 77.5774436, "tags": {"amenity": "fuel", "brand": "Bharat Petroleum", "brand:wikidata": "Q854826", "name": "Bharat Petroleum", "name:kn": "\u0cad\u0cbe\u0cb0\u0ca4\u0ccd \u0caa\u0cc6\u0c9f\u0ccd\u0cb0\u0ccb\u0cb2\u0cbf\u0caf\u0c82", "wheelchair": "yes"}}, {"type": "node", "id": 1617398481, "lat": 12.9596642, "lon": 77.5829322, "tags": {"amenity": "fuel", "brand": "BP"}}, {"type": "node", "id": 1723840727, "lat": 12.9004421, "lon": 77.633299}, {"type": "node", "id": 1741832246, "lat": 12.941632, "lon": 77.5641945, "tags": {"addr:city": "Bengaluru", "addr:postcode": "560019", "amenity": "fuel", "brand": "Hindustan Petroleum", "brand:wikidata": "Q1619375", "fuel:diesel": "yes", "fuel:petrol": "yes", "name": "Sri Vishvesha Agencies", "official_name": "Hindustan Petroleum", "phone": "+919164009930", "self_service": "no"}}, {"type": "node", "id": 1760695151, "lat": 13.0153098, "lon": 77.6665847}, {"type": "node", "id": 1761867746, "lat": 13.0123169, "lon": 77.6664533}, {"type": "node", "id": 1778854659, "lat": 12.9608906, "lon": 77.5106429, "tags": {"amenity": "fuel", "brand": "BP", "name": "Petro / Gas  Station"}}, {"type": "node", "id": 1778854791, "lat": 12.9570377, "lon": 77.5026901, "tags": {"amenity": "fuel", "brand": "HP", "name": "Petrol Station"}}, {"type": "node", "id": 1778953948, "lat": 12.9771222, "lon": 77.5466032, "tags": {"amenity": "fuel", "brand": "Hindustan Petroleum", "brand:wikidata": "Q1619375", "name": "HP Petrol Bunk", "name:kn": "\u0cb9\u0cbf\u0c82\u0ca6\u0cc1\u0cb8\u0ccd\u0ca4\u0cbe\u0ca8\u0ccd \u0caa\u0cc6\u0c9f\u0ccd\u0cb0\u0ccb\u0cb2\u0cbf\u0caf\u0c82", "official_name": "Hindustan Petroleum", "wheelchair": "yes"}}, {"type": "node", "id": 1778957265, "lat": 12.9793805, "lon": 77.5420846, "tags": {"amenity": "fuel", "brand": "Shell", "brand:wikidata": "Q110716465", "fuel:diesel": "yes", "fuel:lpg": "no", "fuel:octane_100": "yes", "name": "Shell Petrol Bunk", "name:kn": "\u0cb6\u0cc6\u0cb2\u0ccd", "operator": "Shell", "wheelchair": "yes"}}, {"type": "node", "id": 1782176660, "lat": 12.9571508, "lon": 77.5624395, "tags": {"amenity": "fuel", "brand": "Indian Oil", "brand:wikidata": "Q1289348", "fuel:1_25": "no", "fuel:GTL_diesel": "no", "fuel:HGV_diesel": "yes", "fuel:biodiesel": "no", "fuel:biogas": "no", "fuel:cng": "no", "fuel:diesel": "yes", "fuel:e10": "no", "fuel:e85": "no", "fuel:electricity": "no", "fuel:lpg": "yes", "fuel:octane_100": "no", "fuel:octane_91": "yes", "fuel:octane_95": "no", "fuel:octane_98": "no", "name": "Anjandri Petrol / Gas Station", "toilets:wheelchair": "no", "wheelchair": "yes"}}, {"type": "node", "id": 1789733012, "lat": 12.9565244, "lon": 77.5485298}, {"type": "node", "id": 1794648902, "lat": 13.0234554, "lon": 77.5099399, "tags": {"amenity": "fuel", "brand": "Indian Oil", "fuel:1_25": "no", "fuel:1_50": "no", "fuel:GTL_diesel": "no", "fuel:HGV_diesel": "no", "fuel:biodiesel": "no", "fuel:biogas": "no", "fuel:cng": "no", "fuel:diesel": "yes", "fuel:e10": "no", "fuel:e85": "no", "fuel:electricity": "no", "fuel:lpg": "no", "fuel:octane_100": "no", "fuel:octane_91": "yes", "fuel:octane_95": "yes", "fuel:octane_98": "no", "name": "HP", "name:kn": "\u0cb9\u0cbf\u0c82\u0ca6\u0cc1\u0cb8\u0ccd\u0ca4\u0cbe\u0ca8\u0ccd \u0caa\u0cc6\u0c9f\u0ccd\u0cb0\u0ccb\u0cb2\u0cbf\u0caf\u0c82"}}, {"type": "node", "id": 1794653238, "lat": 13.0258346, "lon": 77.5209086}, {"type": "node", "id": 1794669368, "lat": 13.0354184, "lon": 77.5178471, "tags": {"amenity": "fuel"}}, {"type": "node", "id": 1794675779, "lat": 13.0230791, "lon": 77.522557, "tags": {"amenity": "fuel"}}, {"type": "node", "id": 1806966554, "lat": 12.9672844, "lon": 77.57, "tags": {"amenity": "fuel", "brand": "AEGIS AUTO GAS", "fuel:1_25": "no", "fuel:1_50": "no", "fuel:GTL_diesel": "no", "fuel:HGV_diesel": "no", "fuel:biodiesel": "no", "fuel:biogas": "no", "fuel:cng": "no", "fuel:diesel": "no", "fuel:e10": "no", "fuel:e85": "no", "fuel:electricity": "no", "fuel:lpg": "yes", "fuel:octane_100": "no", "fuel:octane_91": "no", "fuel:octane_95": "no", "fuel:octane_98": "no", "name": "Shree Krishna Auto Gas", "wheelchair": "yes"}}, {"type": "node", "id": 1808847104, "lat": 13.025776, "lon": 77.637135}, {"type": "node", "id": 1808871391, "lat": 13.0049306, "lon": 77.6194868}, {"type": "node", "id": 1809856746, "lat": 12.9920079, "lon": 77.6594162}, {"type": "node", "id": 1811327742, "lat": 12.9665336, "lon": 77.5049253}, {"type": "node", "id": 1815960796, "lat": 12.9297811, "lon": 77.5682637, "tags": {"amenity": "fuel", "brand": "Indian Oil", "brand:wikidata": "Q1289348", "brand:wikipedia": "en:Indian Oil Corporation", "name": "Indian Oil", "name:kn": "\u0c87\u0c82\u0ca1\u0cbf\u0caf\u0ca8\u0ccd \u0c86\u0caf\u0cbf\u0cb2\u0ccd"}}, {"type": "node", "id": 1852659127, "lat": 12.9966824, "lon": 77.6193965, "tags": {"amenity": "fuel", "brand": "Indian Oil", "brand:wikidata": "Q1289348", "compressed_air": "yes", "name": "Indian Oil"}}, {"type": "node", "id": 1866221218, "lat": 12.9065766, "lon": 77.5907568, "tags": {"amenity": "fuel", "brand": "Hindustan Petroleum", "brand:wikidata": "Q1619375", "fuel:diesel": "yes", "name": "Hindustan Petroleum", "name:kn": "\u0cb9\u0cbf\u0c82\u0ca6\u0cc1\u0cb8\u0ccd\u0ca4\u0cbe\u0ca8\u0ccd \u0caa\u0cc6\u0c9f\u0ccd\u0cb0\u0ccb\u0cb2\u0cbf\u0caf\u0c82", "official_name": "Hindustan Petroleum"}}, {"type": "node", "id": 1925211621, "lat": 12.9922779, "lon": 77.6597613}, {"type": "node", "id": 1925211622, "lat": 12.9916757, "lon": 77.659708}, {"type": "node", "id": 1925211685, "lat": 12.9916862, "lon": 77.6595452}, {"type": "node", "id": 1925211705, "lat": 12.9921033, "lon": 77.659351}, {"type": "node", "id": 1925211769, "lat": 12.9917544, "lon": 77.6594135}, {"type": "node", "id": 1925224138, "lat": 12.9815263, "lon": 77.6307514}, {"type": "node", "id": 1929724802, "lat": 13.0369339, "lon": 77.5743704}, {"type": "node", "id": 2016215963, "lat": 12.9841172, "lon": 77.5600221, "tags": {"amenity": "fuel"}}, {"type": "node", "id": 2026069823, "lat": 12.9906075, "lon": 77.5717713}, {"type": "node", "id": 2026069828, "lat": 12.990969, "lon": 77.5720077}, {"type": "node", "id": 2026069830, "lat": 12.990965, "lon": 77.5717271}, {"type": "node", "id": 2057197603, "lat": 12.9479149, "lon": 77.5794869, "tags": {"amenity": "fuel", "brand": "Bharat Petroleum", "brand:wikidata": "Q854826", "name": "Bharat Petroleum", "name:kn": "\u0cad\u0cbe\u0cb0\u0ca4\u0ccd \u0caa\u0cc6\u0c9f\u0ccd\u0cb0\u0ccb\u0cb2\u0cbf\u0caf\u0c82", "operator": "Bharat Petroleum"}}, {"type": "node", "id": 2090829415, "lat": 13.0103477, "lon": 77.5367403, "tags": {"amenity": "fuel", "brand": "Hindustan Petroleum", "brand:wikidata": "Q1619375", "name": "HP Petrol", "name:kn": "\u0cb9\u0cbf\u0c82\u0ca6\u0cc1\u0cb8\u0ccd\u0ca4\u0cbe\u0ca8\u0ccd \u0caa\u0cc6\u0c9f\u0ccd\u0cb0\u0ccb\u0cb2\u0cbf\u0caf\u0c82", "official_name": "Hindustan Petroleum", "wheelchair": "yes"}}, {"type": "node", "id": 2126287399, "lat": 13.0433208, "lon": 77.556877}, {"type": "node", "id": 2126287400, "lat": 13.0425108, "lon": 77.5569507}, {"type": "node", "id": 2127402487, "lat": 12.9072121, "lon": 77.5462363, "tags": {"amenity": "fuel", "name": "IOCL", "operator": "Yogi Enterprise"}}, {"type": "node", "id": 2189718318, "lat": 12.9754534, "lon": 77.6014863}, {"type": "node", "id": 2230679780, "lat": 13.0077043, "lon": 77.6411767}, {"type": "node", "id": 2230679784, "lat": 13.0073176, "lon": 77.6413189}, {"type": "node", "id": 2230679786, "lat": 13.0073267, "lon": 77.64116}, {"type": "node", "id": 2230679790, "lat": 13.0078017, "lon": 77.6413409}, {"type": "node", "id": 2249045755, "lat": 12.9851341, "lon": 77.5433278, "tags": {"amenity": "fuel", "brand": "BP", "brand:wikidata": "Q152057", "name": "BP petrol pump", "wheelchair": "yes"}}, {"type": "node", "id": 2249047993, "lat": 12.9916432, "lon": 77.5578265, "tags": {"amenity": "fuel", "brand": "Hindustan Petroleum", "brand:wikidata": "Q1619375", "brand:wikipedia": "en:Hindustan Petroleum", "compressed_air": "yes", "name": "HP", "name:kn": "\u0cb9\u0cbf\u0c82\u0ca6\u0cc1\u0cb8\u0ccd\u0ca4\u0cbe\u0ca8\u0ccd \u0caa\u0cc6\u0c9f\u0ccd\u0cb0\u0ccb\u0cb2\u0cbf\u0caf\u0c82", "official_name": "Hindustan Petroleum"}}, {"type": "node", "id": 2249053699, "lat": 12.9810568, "lon": 77.5583911, "tags": {"amenity": "fuel", "brand": "Indian Oil", "brand:wikidata": "Q1289348", "brand:wikipedia": "en:Indian Oil Corporation", "name": "Indian Oil", "name:kn": "\u0c87\u0c82\u0ca1\u0cbf\u0caf\u0ca8\u0ccd \u0c86\u0caf\u0cbf\u0cb2\u0ccd", "wheelchair": "yes"}}, {"type": "node", "id": 2279531470, "lat": 12.9855941, "lon": 77.5252604, "tags": {"amenity": "fuel", "name": "IBP petrol pump"}}, {"type": "node", "id": 2279531857, "lat": 12.9850923, "lon": 77.5232649, "tags": {"amenity": "fuel", "brand": "Indane Oil", "name": "Indo Petrol / Gas Station", "operator": "Indane Oil"}}, {"type": "node", "id": 2279532132, "lat": 12.9862632, "lon": 77.5222349, "tags": {"amenity": "fuel", "brand": "Indian Oil", "brand:wikidata": "Q1289348", "brand:wikipedia": "en:Indian Oil Corporation", "name": "Indian Oil", "name:kn": "\u0c87\u0c82\u0ca1\u0cbf\u0caf\u0ca8\u0ccd \u0c86\u0caf\u0cbf\u0cb2\u0ccd"}}, {"type": "node", "id": 2334240623, "lat": 12.9907127, "lon": 77.6139187}, {"type": "node", "id": 2340693286, "lat": 13.0653568, "lon": 77.5707969}, {"type": "node", "id": 2389350049, "lat": 12.9038389, "lon": 77.6269356}, {"type": "node", "id": 2406875489, "lat": 12.9236794, "lon": 77.6700342}, {"type": "node", "id": 2406875502, "lat": 12.9232882, "lon": 77.6702146}, {"type": "node", "id": 2447849292, "lat": 12.9152141, "lon": 77.6382972}, {"type": "node", "id": 2447849293, "lat": 12.9154686, "lon": 77.638655}, {"type": "node", "id": 2447849294, "lat": 12.9155146, "lon": 77.638325}, {"type": "node", "id": 2447849295, "lat": 12.9151817, "lon": 77.6386247}, {"type": "node", "id": 2465713488, "lat": 13.0213985, "lon": 77.6005015, "tags": {"amenity": "fuel", "brand": "Indane Oil", "name": "Lakshmamma Petrol / Gas Station"}}, {"type": "node", "id": 2466122566, "lat": 13.0129251, "lon": 77.6428948}, {"type": "node", "id": 2466476118, "lat": 12.9765112, "lon": 77.5799146, "tags": {"amenity": "fuel", "brand": "Bharat Petroleum", "brand:wikidata": "Q854826", "check_date": "2024-03-02", "compressed_air": "yes", "name": "Bharat Petroleum", "operator": "Chanders"}}, {"type": "node", "id": 2466510949, "lat": 13.0030286, "lon": 77.6349993, "tags": {"amenity": "fuel", "brand": "Hindustan Petroleum", "brand:wikidata": "Q1619375", "name": "Srinivasa Petrol / Gas Station", "official_name": "Hindustan Petroleum", "operator": "HP"}}, {"type": "node", "id": 2466528803, "lat": 13.0457393, "lon": 77.5050313}, {"type": "node", "id": 2466664086, "lat": 12.9152651, "lon": 77.5592492, "tags": {"amenity": "fuel", "brand": "Total", "brand:wikidata": "Q154037", "name": "Total Auto Gas"}}, {"type": "node", "id": 2466690616, "lat": 12.8965036, "lon": 77.634968, "tags": {"amenity": "fuel", "brand": "GOGAS AUTO LPG", "check_date": "2024-09-19", "name": "Gogas Auto Lpg", "operator": "GOGAS AUTO LPG"}}, {"type": "node", "id": 2467791465, "lat": 13.0490027, "lon": 77.5079841, "tags": {"amenity": "fuel", "brand": "Total Gas", "name": "Total Gas Station", "operator": "Total Gas"}}, {"type": "node", "id": 2467854906, "lat": 12.9873459, "lon": 77.5723926, "tags": {"amenity": "fuel", "name": "Vijees Auto Gas"}}, {"type": "node", "id": 2487524459, "lat": 12.9669405, "lon": 77.5470005, "tags": {"addr:city": "Bangalore", "addr:housename": "Vijayanagar", "addr:street": "Hosahalli Main Road", "amenity": "fuel", "brand": "Total", "brand:wikidata": "Q154037", "building": "yes", "name": "Total Gas"}}, {"type": "node", "id": 2487524461, "lat": 12.9673086, "lon": 77.5461504, "tags": {"addr:city": "Bangalore", "addr:housename": "Vijayanagar", "addr:postcode": "560040", "addr:street": "Hosahalli Main Road", "amenity": "fuel", "brand": "Indian Oil", "brand:wikidata": "Q1289348", "brand:wikipedia": "en:Indian Oil Corporation", "building": "yes", "name": "Indian Oil", "name:kn": "\u0c87\u0c82\u0ca1\u0cbf\u0caf\u0ca8\u0ccd \u0c86\u0caf\u0cbf\u0cb2\u0ccd"}}, {"type": "node", "id": 2509173759, "lat": 12.9702784, "lon": 77.5246208, "tags": {"addr:city": "Bangalore", "addr:housename": "Moodapalya Circle", "addr:street": "Nagarabhavi Road", "amenity": "fuel", "building": "yes", "name": "Omkar Refill Station", "operator": "Bharat Petroluem"}}, {"type": "node", "id": 2510065618, "lat": 12.8974625, "lon": 77.6210576}, {"type": "node", "id": 2510065654, "lat": 12.8975369, "lon": 77.6212081}, {"type": "node", "id": 2510065682, "lat": 12.8975676, "lon": 77.6210852}, {"type": "node", "id": 2510065688, "lat": 12.8974319, "lon": 77.6211805}, {"type": "node", "id": 2562420274, "lat": 12.9896685, "lon": 77.5725311}, {"type": "node", "id": 2562420275, "lat": 12.9893461, "lon": 77.572474}, {"type": "node", "id": 2562420276, "lat": 12.9893011, "lon": 77.5727109}, {"type": "node", "id": 2562420278, "lat": 12.9895847, "lon": 77.5728227}, {"type": "node", "id": 2635011137, "lat": 13.0184346, "lon": 77.678088}, {"type": "node", "id": 2677298190, "lat": 12.9067356, "lon": 77.5945121}, {"type": "node", "id": 2893518450, "lat": 12.9104004, "lon": 77.5947964, "tags": {"amenity": "fuel", "brand": "Indian Oil", "brand:wikidata": "Q1289348", "brand:wikipedia": "en:Indian Oil Corporation", "name": "Indian Oil Corporation", "name:kn": "\u0c87\u0c82\u0ca1\u0cbf\u0caf\u0ca8\u0ccd \u0c86\u0caf\u0cbf\u0cb2\u0ccd"}}, {"type": "node", "id": 2911691007, "lat": 13.0185359, "lon": 77.5918175}, {"type": "node", "id": 3004275433, "lat": 12.9325906, "lon": 77.516211}, {"type": "node", "id": 3006026502, "lat": 12.9293982, "lon": 77.5144243}, {"type": "node", "id": 3010263821, "lat": 12.958735, "lon": 77.5823975}, {"type": "node", "id": 3125514993, "lat": 12.9041967, "lon": 77.5064662}, {"type": "node", "id": 3170048774, "lat": 12.9724838, "lon": 77.6197153}, {"type": "node", "id": 3170048775, "lat": 12.9724111, "lon": 77.6196866}, {"type": "node", "id": 3170048776, "lat": 12.9723561, "lon": 77.6200461}, {"type": "node", "id": 3170048777, "lat": 12.9725953, "lon": 77.6200134}, {"type": "node", "id": 3243910468, "lat": 12.9214515, "lon": 77.600312}, {"type": "node", "id": 3298627363, "lat": 12.9212409, "lon": 77.6449394}, {"type": "node", "id": 3298627364, "lat": 12.9212477, "lon": 77.6444912}, {"type": "node", "id": 3298627366, "lat": 12.9217853, "lon": 77.6449424}, {"type": "node", "id": 3298960998, "lat": 12.9598141, "lon": 77.6458437}, {"type": "node", "id": 3298961009, "lat": 12.9600709, "lon": 77.6455371}, {"type": "node", "id": 3304756871, "lat": 12.9302645, "lon": 77.6147875}, {"type": "node", "id": 3329646420, "lat": 12.9725303, "lon": 77.6197779}, {"type": "node", "id": 3343549670, "lat": 12.9757493, "lon": 77.59784}, {"type": "node", "id": 3343549793, "lat": 12.9759304, "lon": 77.5980857}, {"type": "node", "id": 3343549806, "lat": 12.9761909, "lon": 77.5975542}, {"type": "node", "id": 3343549807, "lat": 12.9761912, "lon": 77.5979021}, {"type": "node", "id": 3344229532, "lat": 13.0255393, "lon": 77.6304768}, {"type": "node", "id": 3359235126, "lat": 12.9783787, "lon": 77.6794328}, {"type": "node", "id": 3389131731, "lat": 12.9833174, "lon": 77.6407287}, {"type": "node", "id": 3389131732, "lat": 12.983327, "lon": 77.6409376}, {"type": "node", "id": 3391123031, "lat": 12.9460933, "lon": 77.5950233, "tags": {"amenity": "fuel", "name": "Aegis Autogas", "wheelchair": "yes"}}, {"type": "node", "id": 3416332893, "lat": 13.0254956, "lon": 77.5210454}, {"type": "node", "id": 3416332895, "lat": 13.0258032, "lon": 77.5213812}, {"type": "node", "id": 3416332897, "lat": 13.0260282, "lon": 77.5211939}, {"type": "node", "id": 3529656213, "lat": 12.9928206, "lon": 77.6091316}, {"type": "node", "id": 3529656218, "lat": 12.9929096, "lon": 77.6089933}, {"type": "node", "id": 3529656219, "lat": 12.9929592, "lon": 77.6092256}, {"type": "node", "id": 3529656222, "lat": 12.9930483, "lon": 77.6090873}, {"type": "node", "id": 3533031868, "lat": 12.9971034, "lon": 77.546691}, {"type": "node", "id": 3533031869, "lat": 12.9970528, "lon": 77.5468686}, {"type": "node", "id": 3533032284, "lat": 12.99737, "lon": 77.5466873}, {"type": "node", "id": 3533032285, "lat": 12.9973743, "lon": 77.5468602}, {"type": "node", "id": 3534674979, "lat": 12.9711316, "lon": 77.6818543}, {"type": "node", "id": 3534674980, "lat": 12.971169, "lon": 77.6823294}, {"type": "node", "id": 3534675097, "lat": 12.971377, "lon": 77.6818522}, {"type": "node", "id": 3534675099, "lat": 12.9712936, "lon": 77.6823071}, {"type": "node", "id": 3534695655, "lat": 12.9589088, "lon": 77.6530344}, {"type": "node", "id": 3534695662, "lat": 12.9593157, "lon": 77.6535558}, {"type": "node", "id": 3534695663, "lat": 12.9593385, "lon": 77.6531637}, {"type": "node", "id": 3534749996, "lat": 13.0146937, "lon": 77.6276451}, {"type": "node", "id": 3534750004, "lat": 13.015247, "lon": 77.6278114}, {"type": "node", "id": 3537744988, "lat": 12.9591157, "lon": 77.5756409}, {"type": "node", "id": 3537744992, "lat": 12.9591651, "lon": 77.5753995}, {"type": "node", "id": 3537757898, "lat": 12.9918191, "lon": 77.603819}, {"type": "node", "id": 3537757899, "lat": 12.9918818, "lon": 77.6039804}, {"type": "node", "id": 3537757900, "lat": 12.9918889, "lon": 77.6037904}, {"type": "node", "id": 3537757901, "lat": 12.9919516, "lon": 77.6039518}, {"type": "node", "id": 3538004751, "lat": 12.9255203, "lon": 77.600252}, {"type": "node", "id": 3538004755, "lat": 12.9255233, "lon": 77.5999706}, {"type": "node", "id": 3538005157, "lat": 12.9258012, "lon": 77.6002628}, {"type": "node", "id": 3538005158, "lat": 12.9258107, "lon": 77.5999761}, {"type": "node", "id": 3541170089, "lat": 13.0336462, "lon": 77.5306463, "tags": {"amenity": "fuel", "operator": "Hindusthan Petroleum"}}, {"type": "node", "id": 3541202418, "lat": 13.0366638, "lon": 77.5237733, "tags": {"amenity": "fuel", "brand": "Indian Oil", "brand:wikidata": "Q1289348", "brand:wikipedia": "en:Indian Oil Corporation", "operator": "Indian Oil"}}, {"type": "node", "id": 3543199598, "lat": 12.9152234, "lon": 77.5588915}, {"type": "node", "id": 3543199599, "lat": 12.9152222, "lon": 77.5587444}, {"type": "node", "id": 3543199602, "lat": 12.9153285, "lon": 77.5588904}, {"type": "node", "id": 3543199603, "lat": 12.9153333, "lon": 77.5587352}, {"type": "node", "id": 3543743408, "lat": 12.9167683, "lon": 77.6099526}, {"type": "node", "id": 3543743409, "lat": 12.9167735, "lon": 77.6095658}, {"type": "node", "id": 3543743410, "lat": 12.9170734, "lon": 77.609957}, {"type": "node", "id": 3543743411, "lat": 12.9170815, "lon": 77.6095726}, {"type": "node", "id": 3544299034, "lat": 12.9357062, "lon": 77.547679}, {"type": "node", "id": 3544299062, "lat": 12.9358148, "lon": 77.5477668}, {"type": "node", "id": 3544299063, "lat": 12.9358152, "lon": 77.5475372}, {"type": "node", "id": 3544299089, "lat": 12.9359237, "lon": 77.547625}, {"type": "node", "id": 3546011264, "lat": 12.9205963, "lon": 77.620759}, {"type": "node", "id": 3546011270, "lat": 12.920742, "lon": 77.6210334}, {"type": "node", "id": 3546011271, "lat": 12.9208332, "lon": 77.6206267}, {"type": "node", "id": 3546011274, "lat": 12.9209788, "lon": 77.6209011}, {"type": "node", "id": 3549860814, "lat": 13.0460971, "lon": 77.5024697}, {"type": "node", "id": 3549860815, "lat": 13.0461295, "lon": 77.5018835}, {"type": "node", "id": 3549860826, "lat": 13.0466272, "lon": 77.5025706}, {"type": "node", "id": 3553129737, "lat": 12.9593337, "lon": 77.5757419}, {"type": "node", "id": 3603150567, "lat": 12.9575306, "lon": 77.5682708}, {"type": "node", "id": 3673243893, "lat": 13.0423857, "lon": 77.5567275}, {"type": "node", "id": 3676237845, "lat": 13.0047869, "lon": 77.619858}, {"type": "node", "id": 3676237846, "lat": 13.0050283, "lon": 77.6199947}, {"type": "node", "id": 3676237847, "lat": 13.0051489, "lon": 77.6196768}, {"type": "node", "id": 3692892626, "lat": 12.9679465, "lon": 77.6560442}, {"type": "node", "id": 3692892627, "lat": 12.9679765, "lon": 77.655833}, {"type": "node", "id": 3725701354, "lat": 12.9833987, "lon": 77.6409352}, {"type": "node", "id": 3725701356, "lat": 12.9835979, "lon": 77.6407205}, {"type": "node", "id": 3725701357, "lat": 12.9836051, "lon": 77.6409236}, {"type": "node", "id": 3740872068, "lat": 12.9231379, "lon": 77.6698687}, {"type": "node", "id": 3740872069, "lat": 12.9231624, "lon": 77.669925}, {"type": "node", "id": 3740872072, "lat": 12.923267, "lon": 77.6701656}, {"type": "node", "id": 3740872079, "lat": 12.9236037, "lon": 77.6698321}, {"type": "node", "id": 3740940827, "lat": 12.9451693, "lon": 77.6188055}, {"type": "node", "id": 3740940828, "lat": 12.9453233, "lon": 77.6183696}, {"type": "node", "id": 3740940829, "lat": 12.9454208, "lon": 77.6189807}, {"type": "node", "id": 3740940833, "lat": 12.945765, "lon": 77.6185487}, {"type": "node", "id": 3749540560, "lat": 12.9673962, "lon": 77.6543634}, {"type": "node", "id": 3749540561, "lat": 12.9674337, "lon": 77.6541557}, {"type": "node", "id": 3749540563, "lat": 12.967595, "lon": 77.6561049}, {"type": "node", "id": 3749540564, "lat": 12.9675999, "lon": 77.656073}, {"type": "node", "id": 3749540565, "lat": 12.9676285, "lon": 77.6558234}, {"type": "node", "id": 3749540566, "lat": 12.9676307, "lon": 77.6557955}, {"type": "node", "id": 3749540568, "lat": 12.9676719, "lon": 77.654394}, {"type": "node", "id": 3749540570, "lat": 12.9676939, "lon": 77.6541935}, {"type": "node", "id": 3749540571, "lat": 12.967931, "lon": 77.6561599}, {"type": "node", "id": 3803141154, "lat": 12.9588206, "lon": 77.6534149}, {"type": "node", "id": 3899674929, "lat": 13.0016902, "lon": 77.6316141}, {"type": "node", "id": 4030013379, "lat": 13.0025354, "lon": 77.5836377}, {"type": "node", "id": 4030013380, "lat": 13.0025399, "lon": 77.5839562}, {"type": "node", "id": 4030013381, "lat": 13.0027044, "lon": 77.5836155}, {"type": "node", "id": 4030013382, "lat": 13.0027863, "lon": 77.5839421}, {"type": "node", "id": 4101097390, "lat": 12.9569629, "lon": 77.5491868, "tags": {"addr:street": "Mysore Road", "amenity": "fuel", "brand": "Shell", "brand:wikidata": "Q110716465", "name": "Shell", "name:kn": "\u0cb6\u0cc6\u0cb2\u0ccd"}}, {"type": "node", "id": 4108406419, "lat": 13.0248411, "lon": 77.5475749}, {"type": "node", "id": 4108406420, "lat": 13.0250449, "lon": 77.5471833}, {"type": "node", "id": 4108406428, "lat": 13.0254813, "lon": 77.5477868}, {"type": "node", "id": 4108406429, "lat": 13.025625, "lon": 77.5475106}, {"type": "node", "id": 4117122379, "lat": 12.9079929, "lon": 77.5708821}, {"type": "node", "id": 4130913191, "lat": 12.9591239, "lon": 77.5556539}, {"type": "node", "id": 4130913293, "lat": 12.9602862, "lon": 77.5570381, "tags": {"amenity": "fuel", "brand": "Bharat Petroleum", "brand:wikidata": "Q854826", "compressed_air": "no", "name": "Bharat Petroleum", "name:kn": "\u0cad\u0cbe\u0cb0\u0ca4\u0ccd \u0caa\u0cc6\u0c9f\u0ccd\u0cb0\u0ccb\u0cb2\u0cbf\u0caf\u0c82"}}, {"type": "node", "id": 4315994613, "lat": 12.8989383, "lon": 77.6584985}, {"type": "node", "id": 4349391290, "lat": 13.0047906, "lon": 77.636936, "tags": {"amenity": "fuel", "brand": "Indian Oil", "brand:wikidata": "Q1289348", "brand:wikipedia": "en:Indian Oil Corporation", "name": "Indianoil"}}, {"type": "node", "id": 4349872695, "lat": 13.0149108, "lon": 77.661799}, {"type": "node", "id": 4393149074, "lat": 12.9495134, "lon": 77.6206357}, {"type": "node", "id": 4393149075, "lat": 12.949381, "lon": 77.6209661}, {"type": "node", "id": 4393149076, "lat": 12.9496849, "lon": 77.621124}, {"type": "node", "id": 4393149077, "lat": 12.9498324, "lon": 77.6208001}, {"type": "node", "id": 4456310691, "lat": 12.9068868, "lon": 77.5791933}, {"type": "node", "id": 4518422189, "lat": 12.9740504, "lon": 77.5500149, "tags": {"addr:street": "Magadi Road", "amenity": "fuel", "brand": "Total", "brand:wikidata": "Q154037", "name": "Total Gas Station", "name:en": "Total Gas Station"}}, {"type": "node", "id": 4526176491, "lat": 13.0562137, "lon": 77.6325092}, {"type": "node", "id": 4545909996, "lat": 12.9269252, "lon": 77.6005849}, {"type": "node", "id": 4550151790, "lat": 12.9072677, "lon": 77.546892, "tags": {"amenity": "fuel", "name": "Jana Bharat Gas Agency", "name:en": "Jana Bharat Gas Agency"}}, {"type": "node", "id": 4558992250, "lat": 12.9600786, "lon": 77.6494558}, {"type": "node", "id": 4558992251, "lat": 12.960054, "lon": 77.6497488}, {"type": "node", "id": 4558992254, "lat": 12.9598159, "lon": 77.6496717}, {"type": "node", "id": 4623704803, "lat": 12.997376, "lon": 77.5604088}, {"type": "node", "id": 4631318301, "lat": 12.9592252, "lon": 77.6535284}, {"type": "node", "id": 4725359293, "lat": 12.9739856, "lon": 77.6473472}, {"type": "node", "id": 4725359294, "lat": 12.9739735, "lon": 77.6470025}, {"type": "node", "id": 4824986021, "lat": 12.9434017, "lon": 77.5771336, "tags": {"amenity": "fuel", "brand": "Bharat Petroleum", "brand:wikidata": "Q854826", "name": "Bharat Petroleum", "name:en": "Bharat Petroleum", "name:kn": "\u0cad\u0cbe\u0cb0\u0ca4\u0ccd \u0caa\u0cc6\u0c9f\u0ccd\u0cb0\u0ccb\u0cb2\u0cbf\u0caf\u0c82"}}, {"type": "node", "id": 4839771324, "lat": 13.0111427, "lon": 77.6461039}, {"type": "node", "id": 4975552999, "lat": 12.9254544, "lon": 77.5838727}, {"type": "node", "id": 5004818187, "lat": 12.9150016, "lon": 77.6752532}, {"type": "node", "id": 5004818188, "lat": 12.9151899, "lon": 77.6753779}, {"type": "node", "id": 5004818189, "lat": 12.9148592, "lon": 77.6758064}, {"type": "node", "id": 5004818190, "lat": 12.9146853, "lon": 77.6757199}, {"type": "node", "id": 5229482748, "lat": 12.9731956, "lon": 77.5815173}, {"type": "node", "id": 5286949431, "lat": 13.0413718, "lon": 77.6218064, "tags": {"amenity": "fuel", "brand": "Indian Oil", "brand:wikidata": "Q1289348", "brand:wikipedia": "en:Indian Oil Corporation", "name": "Indian Oil", "name:kn": "\u0c87\u0c82\u0ca1\u0cbf\u0caf\u0ca8\u0ccd \u0c86\u0caf\u0cbf\u0cb2\u0ccd"}}, {"type": "node", "id": 5335214813, "lat": 12.9609545, "lon": 77.5284088, "tags": {"amenity": "fuel", "brand": "Hindustan Petroleum", "brand:wikidata": "Q1619375", "fuel:petrol": "yes", "name": "Hindustan Petroleum", "name:kn": "\u0cb9\u0cbf\u0c82\u0ca6\u0cc1\u0cb8\u0ccd\u0ca4\u0cbe\u0ca8\u0ccd \u0caa\u0cc6\u0c9f\u0ccd\u0cb0\u0ccb\u0cb2\u0cbf\u0caf\u0c82", "official_name": "Hindustan Petroleum"}}, {"type": "node", "id": 5348913721, "lat": 13.0516868, "lon": 77.6308852}, {"type": "node", "id": 5351138598, "lat": 13.0030254, "lon": 77.5535194}, {"type": "node", "id": 5482915622, "lat": 13.0053314, "lon": 77.5937908, "tags": {"amenity": "fuel", "brand": "Bharat Petroleum", "brand:wikidata": "Q854826", "brand:wikipedia": "en:Bharat Petroleum", "name": "Bharat Petroleum", "name:kn": "\u0cad\u0cbe\u0cb0\u0ca4\u0ccd \u0caa\u0cc6\u0c9f\u0ccd\u0cb0\u0ccb\u0cb2\u0cbf\u0caf\u0c82"}}, {"type": "node", "id": 5778453915, "lat": 12.9249623, "lon": 77.6502096}, {"type": "node", "id": 5778453916, "lat": 12.9249767, "lon": 77.6505865}, {"type": "node", "id": 5778453917, "lat": 12.9248499, "lon": 77.6505932}, {"type": "node", "id": 5778453918, "lat": 12.9248565, "lon": 77.650675}, {"type": "node", "id": 5778453919, "lat": 12.9246316, "lon": 77.650683}, {"type": "node", "id": 5778453920, "lat": 12.9246395, "lon": 77.6506012}, {"type": "node", "id": 5778453921, "lat": 12.9246499, "lon": 77.6504309}, {"type": "node", "id": 5778453922, "lat": 12.9246578, "lon": 77.65027}, {"type": "node", "id": 5778453923, "lat": 12.9246552, "lon": 77.6501949}, {"type": "node", "id": 5781288010, "lat": 12.9148165, "lon": 77.6666831}, {"type": "node", "id": 5781288011, "lat": 12.9146675, "lon": 77.6666523}, {"type": "node", "id": 5781288012, "lat": 12.9145773, "lon": 77.6668897}, {"type": "node", "id": 5781288013, "lat": 12.9147237, "lon": 77.6669366}, {"type": "node", "id": 5781288014, "lat": 12.9147472, "lon": 77.6669165}, {"type": "node", "id": 5804526265, "lat": 12.9397039, "lon": 77.6253698}, {"type": "node", "id": 5804526267, "lat": 12.9394189, "lon": 77.6255053}, {"type": "node", "id": 5804526268, "lat": 12.9393366, "lon": 77.6253229}, {"type": "node", "id": 5958980592, "lat": 12.8871117, "lon": 77.6253083}, {"type": "node", "id": 5958980593, "lat": 12.8869473, "lon": 77.6252962}, {"type": "node", "id": 5958980594, "lat": 12.8869357, "lon": 77.6254626}, {"type": "node", "id": 5958980595, "lat": 12.8871, "lon": 77.6254747}, {"type": "node", "id": 5960677852, "lat": 12.9240966, "lon": 77.640719}, {"type": "node", "id": 5960677853, "lat": 12.9240496, "lon": 77.6409094}, {"type": "node", "id": 5960677854, "lat": 12.9236825, "lon": 77.6408007}, {"type": "node", "id": 5960677855, "lat": 12.9237542, "lon": 77.6406224}, {"type": "node", "id": 5963407354, "lat": 12.9232419, "lon": 77.6712797}, {"type": "node", "id": 5963407355, "lat": 12.9233582, "lon": 77.6715252}, {"type": "node", "id": 5963407356, "lat": 12.9230654, "lon": 77.6715091}, {"type": "node", "id": 5963407357, "lat": 12.9230471, "lon": 77.6712864}, {"type": "node", "id": 5963407358, "lat": 12.9230408, "lon": 77.6713206}, {"type": "node", "id": 5983455179, "lat": 12.9588104, "lon": 77.5868782, "tags": {"amenity": "fuel", "check_date": "2023-04-05", "name": "Gogas", "source": "survey"}}, {"type": "node", "id": 5992871540, "lat": 12.9524549, "lon": 77.5892124}, {"type": "node", "id": 5992871541, "lat": 12.9524001, "lon": 77.5893921}, {"type": "node", "id": 5992871542, "lat": 12.9521308, "lon": 77.5893089}, {"type": "node", "id": 5992871543, "lat": 12.952204, "lon": 77.5890997}, {"type": "node", "id": 5993280660, "lat": 12.9452676, "lon": 77.619173}, {"type": "node", "id": 5993280661, "lat": 12.9450791, "lon": 77.6191065}, {"type": "node", "id": 6019408117, "lat": 12.934011, "lon": 77.6114214}, {"type": "node", "id": 6019408119, "lat": 12.9334541, "lon": 77.6115776}, {"type": "node", "id": 6019408120, "lat": 12.9337783, "lon": 77.6117278}, {"type": "node", "id": 6021739975, "lat": 12.9619189, "lon": 77.5942879}, {"type": "node", "id": 6021739976, "lat": 12.9621266, "lon": 77.5944141}, {"type": "node", "id": 6021739979, "lat": 12.9620305, "lon": 77.5940592}, {"type": "node", "id": 6021741305, "lat": 12.9459152, "lon": 77.595317}, {"type": "node", "id": 6021741306, "lat": 12.9457643, "lon": 77.5952041}, {"type": "node", "id": 6021741307, "lat": 12.9456581, "lon": 77.5953519}, {"type": "node", "id": 6021741308, "lat": 12.9458178, "lon": 77.5954637}, {"type": "node", "id": 6021741320, "lat": 12.9665839, "lon": 77.5954372}, {"type": "node", "id": 6021741321, "lat": 12.9662474, "lon": 77.5954271}, {"type": "node", "id": 6021741322, "lat": 12.9662569, "lon": 77.5952838}, {"type": "node", "id": 6024722711, "lat": 12.9170283, "lon": 77.609956}, {"type": "node", "id": 6024722712, "lat": 12.9167726, "lon": 77.6096107}, {"type": "node", "id": 6137450014, "lat": 12.9201087, "lon": 77.6511576}, {"type": "node", "id": 6137450015, "lat": 12.9197884, "lon": 77.6511576}, {"type": "node", "id": 6137450016, "lat": 12.9197767, "lon": 77.6514982}, {"type": "node", "id": 6226329971, "lat": 12.9266357, "lon": 77.5013003}, {"type": "node", "id": 6226329976, "lat": 12.9256344, "lon": 77.5009261}, {"type": "node", "id": 6292996137, "lat": 12.9292336, "lon": 77.5139563}, {"type": "node", "id": 6292996138, "lat": 12.9291577, "lon": 77.5143465}, {"type": "node", "id": 6298984117, "lat": 12.9043984, "lon": 77.6011449}, {"type": "node", "id": 6298984118, "lat": 12.9042046, "lon": 77.6010997}, {"type": "node", "id": 6298984119, "lat": 12.9041053, "lon": 77.6015476}, {"type": "node", "id": 6298984120, "lat": 12.9042991, "lon": 77.6015928}, {"type": "node", "id": 6338071925, "lat": 12.9013144, "lon": 77.585703, "tags": {"amenity": "fuel", "name": "HiDrive Auto LPG", "wheelchair": "yes"}}, {"type": "node", "id": 6341373565, "lat": 12.9088919, "lon": 77.5858381}, {"type": "node", "id": 6460998298, "lat": 12.9497592, "lon": 77.5929096}, {"type": "node", "id": 6460998299, "lat": 12.9496024, "lon": 77.5930222}, {"type": "node", "id": 6460998300, "lat": 12.94949, "lon": 77.592805}, {"type": "node", "id": 6460998301, "lat": 12.9496155, "lon": 77.592703}, {"type": "node", "id": 6460998315, "lat": 12.9559026, "lon": 77.5808715}, {"type": "node", "id": 6460998316, "lat": 12.9558529, "lon": 77.5809171}, {"type": "node", "id": 6460998317, "lat": 12.9556778, "lon": 77.5809077}, {"type": "node", "id": 6460998318, "lat": 12.9557131, "lon": 77.5806355}, {"type": "node", "id": 6495032224, "lat": 12.9234755, "lon": 77.6717827}, {"type": "node", "id": 6495032225, "lat": 12.9235879, "lon": 77.6720133}, {"type": "node", "id": 6495032226, "lat": 12.9233134, "lon": 77.6719758}, {"type": "node", "id": 6495032227, "lat": 12.9233186, "lon": 77.6717746}, {"type": "node", "id": 6495482459, "lat": 12.9165275, "lon": 77.6051984}, {"type": "node", "id": 6495482460, "lat": 12.916287, "lon": 77.6051877}, {"type": "node", "id": 6495482461, "lat": 12.9162948, "lon": 77.6055069}, {"type": "node", "id": 6495482462, "lat": 12.9165223, "lon": 77.6054814}, {"type": "node", "id": 6495482480, "lat": 12.9172401, "lon": 77.5745913}, {"type": "node", "id": 6495482481, "lat": 12.9168532, "lon": 77.5743928}, {"type": "node", "id": 6497456174, "lat": 12.9167314, "lon": 77.6198039}, {"type": "node", "id": 6497456175, "lat": 12.916585, "lon": 77.6200131}, {"type": "node", "id": 6497456177, "lat": 12.9165163, "lon": 77.6198092}, {"type": "node", "id": 6807850490, "lat": 13.0556575, "lon": 77.5075634}, {"type": "node", "id": 6807850491, "lat": 13.0556419, "lon": 77.5080131}, {"type": "node", "id": 6807850492, "lat": 13.0554182, "lon": 77.5080179}, {"type": "node", "id": 6807850493, "lat": 13.0553716, "lon": 77.5079254}, {"type": "node", "id": 6807850494, "lat": 13.0553669, "lon": 77.5076543}, {"type": "node", "id": 6807850495, "lat": 13.0555068, "lon": 77.5075713}, {"type": "node", "id": 6815596335, "lat": 12.9263965, "lon": 77.5016166}, {"type": "node", "id": 6815596337, "lat": 12.9265201, "lon": 77.5010047}, {"type": "node", "id": 6815596338, "lat": 12.9266816, "lon": 77.5012423}, {"type": "node", "id": 6815596341, "lat": 12.9262926, "lon": 77.5006713}, {"type": "node", "id": 6831898662, "lat": 12.9121668, "lon": 77.5137202}, {"type": "node", "id": 6899554651, "lat": 12.93837, "lon": 77.5222047}, {"type": "node", "id": 6952164918, "lat": 12.9364637, "lon": 77.5159062, "tags": {"amenity": "fuel", "name": "Go Gas", "operator": "Go Gas"}}, {"type": "node", "id": 6991463866, "lat": 13.0116158, "lon": 77.6727927}, {"type": "node", "id": 6991474741, "lat": 13.0100988, "lon": 77.6820322}, {"type": "node", "id": 7056126647, "lat": 12.9255746, "lon": 77.6375362}, {"type": "node", "id": 7056126648, "lat": 12.9255184, "lon": 77.6378139}, {"type": "node", "id": 7056126649, "lat": 12.9250956, "lon": 77.6377328}, {"type": "node", "id": 7056126650, "lat": 12.9252518, "lon": 77.6374833}, {"type": "node", "id": 7124635755, "lat": 12.9383289, "lon": 77.5216354}, {"type": "node", "id": 7137042128, "lat": 12.9261814, "lon": 77.5014285}, {"type": "node", "id": 7176651726, "lat": 12.9293692, "lon": 77.5040757}, {"type": "node", "id": 7208904139, "lat": 13.040303, "lon": 77.6416052}, {"type": "node", "id": 7215549915, "lat": 13.0206859, "lon": 77.5521442, "tags": {"amenity": "fuel", "brand": "Hindustan Petroleum", "brand:wikidata": "Q1619375", "name": "Hindustan Petroleum", "name:kn": "\u0cb9\u0cbf\u0c82\u0ca6\u0cc1\u0cb8\u0ccd\u0ca4\u0cbe\u0ca8\u0ccd \u0caa\u0cc6\u0c9f\u0ccd\u0cb0\u0ccb\u0cb2\u0cbf\u0caf\u0c82", "official_name": "Hindustan Petroleum", "operator": "Hindustan Petroleum"}}, {"type": "node", "id": 7215593405, "lat": 13.0208161, "lon": 77.5632092}, {"type": "node", "id": 7215593409, "lat": 13.0205528, "lon": 77.5633101}, {"type": "node", "id": 7215593410, "lat": 13.0207447, "lon": 77.5628301}, {"type": "node", "id": 7216699924, "lat": 13.0403603, "lon": 77.618376}, {"type": "node", "id": 7216699925, "lat": 13.040274, "lon": 77.6186563}, {"type": "node", "id": 7216699929, "lat": 13.0408345, "lon": 77.6185437}, {"type": "node", "id": 7216699935, "lat": 13.0413255, "lon": 77.6204249}, {"type": "node", "id": 7216699936, "lat": 13.04133, "lon": 77.6206308}, {"type": "node", "id": 7216699937, "lat": 13.0414781, "lon": 77.6206274}, {"type": "node", "id": 7216699938, "lat": 13.0414765, "lon": 77.620559}, {"type": "node", "id": 7216699939, "lat": 13.0415631, "lon": 77.620557}, {"type": "node", "id": 7216699940, "lat": 13.0415615, "lon": 77.6204846}, {"type": "node", "id": 7216699941, "lat": 13.0414748, "lon": 77.6204866}, {"type": "node", "id": 7216699942, "lat": 13.0414734, "lon": 77.6204215}, {"type": "node", "id": 7223109313, "lat": 13.0278788, "lon": 77.5863307}, {"type": "node", "id": 7223109314, "lat": 13.0279554, "lon": 77.5860985}, {"type": "node", "id": 7223109315, "lat": 13.0282045, "lon": 77.5861852}, {"type": "node", "id": 7223109316, "lat": 13.0281278, "lon": 77.5864174}, {"type": "node", "id": 7252943246, "lat": 12.8916127, "lon": 77.5875325}, {"type": "node", "id": 7252943247, "lat": 12.891244, "lon": 77.5875565}, {"type": "node", "id": 7252943248, "lat": 12.891357, "lon": 77.5878561}, {"type": "node", "id": 7252943249, "lat": 12.8916556, "lon": 77.5877669}, {"type": "node", "id": 7256985299, "lat": 13.0420028, "lon": 77.5919569}, {"type": "node", "id": 7256985300, "lat": 13.0420008, "lon": 77.5921639}, {"type": "node", "id": 7256985301, "lat": 13.0422914, "lon": 77.5922676}, {"type": "node", "id": 7256985302, "lat": 13.0423451, "lon": 77.5920482}, {"type": "node", "id": 7257728189, "lat": 13.0302012, "lon": 77.5707091}, {"type": "node", "id": 7257728190, "lat": 13.0302692, "lon": 77.5709633}, {"type": "node", "id": 7257728191, "lat": 13.0304194, "lon": 77.5706515}, {"type": "node", "id": 7276500272, "lat": 12.9862919, "lon": 77.5724177, "tags": {"amenity": "fuel", "name": "Aegis Auto Gas"}}, {"type": "node", "id": 7277381447, "lat": 12.9299015, "lon": 77.6150212}, {"type": "node", "id": 7292436109, "lat": 12.9719875, "lon": 77.5866471}, {"type": "node", "id": 7292436110, "lat": 12.971961, "lon": 77.5864243}, {"type": "node", "id": 7292436111, "lat": 12.9721353, "lon": 77.5864025}, {"type": "node", "id": 7292436112, "lat": 12.9721617, "lon": 77.5866253}, {"type": "node", "id": 7293817158, "lat": 12.950487, "lon": 77.6055075}, {"type": "node", "id": 7293817159, "lat": 12.9504953, "lon": 77.6052919}, {"type": "node", "id": 7293817160, "lat": 12.9507232, "lon": 77.6053002}, {"type": "node", "id": 7293817161, "lat": 12.9507221, "lon": 77.6054313}, {"type": "node", "id": 7296694746, "lat": 13.0224642, "lon": 77.5329222}, {"type": "node", "id": 7296694747, "lat": 13.0222879, "lon": 77.5328592}, {"type": "node", "id": 7296694748, "lat": 13.0221363, "lon": 77.5329235}, {"type": "node", "id": 7296694749, "lat": 13.0220722, "lon": 77.533232}, {"type": "node", "id": 7296694750, "lat": 13.0225253, "lon": 77.5331619}, {"type": "node", "id": 7296694751, "lat": 13.0225649, "lon": 77.5329624}, {"type": "node", "id": 7436454581, "lat": 12.9676019, "lon": 77.6560557}, {"type": "node", "id": 7476705453, "lat": 12.9713531, "lon": 77.6821875}, {"type": "node", "id": 7507326236, "lat": 13.0309302, "lon": 77.6690791, "tags": {"amenity": "fuel", "brand": "Bharat Petroleum", "brand:wikidata": "Q854826", "name": "Bharat Petroleum", "operator": "Bharat Petroleum", "self_service": "no"}}, {"type": "node", "id": 8122589859, "lat": 12.8917783, "lon": 77.577424, "tags": {"amenity": "fuel", "brand": "Indian Oil", "brand:wikidata": "Q1289348", "name": "Patel Fuel"}}, {"type": "node", "id": 8240257727, "lat": 12.9951873, "lon": 77.5219448, "tags": {"amenity": "fuel", "brand": "Bharat Petroleum", "brand:wikidata": "Q854826", "check_date": "2023-03-16", "fuel:diesel": "yes", "fuel:petrol": "yes", "name": "Bharat Petroleum", "name:kn": "\u0cad\u0cbe\u0cb0\u0ca4\u0ccd \u0caa\u0cc6\u0c9f\u0ccd\u0cb0\u0ccb\u0cb2\u0cbf\u0caf\u0c82", "operator": "Bharat Petroleum", "self_service": "no"}}, {"type": "node", "id": 8240257740, "lat": 12.9584933, "lon": 77.5173345, "tags": {"amenity": "fuel", "brand": "Indian Oil", "brand:wikidata": "Q1289348", "brand:wikipedia": "en:Indian Oil Corporation", "name": "Indian Oil", "operator": "Indian Oil"}}, {"type": "node", "id": 8442476360, "lat": 12.9465096, "lon": 77.532886}, {"type": "node", "id": 8442476361, "lat": 12.9468937, "lon": 77.5329991}, {"type": "node", "id": 8442476362, "lat": 12.9471686, "lon": 77.532772}, {"type": "node", "id": 8684335453, "lat": 13.0329988, "lon": 77.5991477, "tags": {"amenity": "fuel", "brand": "Bharat Petroleum", "brand:wikidata": "Q854826", "name": "Bharat Petroleum", "name:kn": "\u0cad\u0cbe\u0cb0\u0ca4\u0ccd \u0caa\u0cc6\u0c9f\u0ccd\u0cb0\u0ccb\u0cb2\u0cbf\u0caf\u0c82"}}, {"type": "node", "id": 9285657011, "lat": 12.9742157, "lon": 77.6469935}, {"type": "node", "id": 9527967833, "lat": 13.04959, "lon": 77.6298009, "tags": {"amenity": "fuel", "name": "Star Auto LPG"}}, {"type": "node", "id": 9632587539, "lat": 12.9820814, "lon": 77.5666215}, {"type": "node", "id": 9632587540, "lat": 12.982101, "lon": 77.5661936}, {"type": "node", "id": 9632587541, "lat": 12.9823858, "lon": 77.5662781}, {"type": "node", "id": 9632587542, "lat": 12.9823741, "lon": 77.5666134}, {"type": "node", "id": 9666477564, "lat": 12.991083, "lon": 77.6137704}, {"type": "node", "id": 9666477565, "lat": 12.9909408, "lon": 77.614046}, {"type": "node", "id": 9667588498, "lat": 12.9616535, "lon": 77.5643885}, {"type": "node", "id": 9667588499, "lat": 12.9616483, "lon": 77.5639419}, {"type": "node", "id": 9667588500, "lat": 12.9620077, "lon": 77.5639366}, {"type": "node", "id": 9667588501, "lat": 12.9621828, "lon": 77.5643751}, {"type": "node", "id": 9690178391, "lat": 12.9706594, "lon": 77.5256373, "tags": {"amenity": "fuel", "brand": "Nayara", "brand:wikidata": "Q5399377", "name": "Nayara", "operator": "Nayara"}}, {"type": "node", "id": 9739831274, "lat": 13.0442417, "lon": 77.6430541}, {"type": "node", "id": 9739831275, "lat": 13.0439719, "lon": 77.6428177}, {"type": "node", "id": 9739831276, "lat": 13.0443631, "lon": 77.642595}, {"type": "node", "id": 9739831277, "lat": 13.0445168, "lon": 77.642867}, {"type": "node", "id": 9759746804, "lat": 13.0048308, "lon": 77.5806534}, {"type": "node", "id": 9759746805, "lat": 13.0046518, "lon": 77.5809646}, {"type": "node", "id": 9759746806, "lat": 13.0050151, "lon": 77.5809834}, {"type": "node", "id": 9759746807, "lat": 13.0051102, "lon": 77.5808263}, {"type": "node", "id": 9781094440, "lat": 13.0384037, "lon": 77.6415567}, {"type": "node", "id": 9781094441, "lat": 13.0384077, "lon": 77.6419472}, {"type": "node", "id": 9781094442, "lat": 13.0385338, "lon": 77.6419459}, {"type": "node", "id": 9781094443, "lat": 13.0385298, "lon": 77.6415554}, {"type": "node", "id": 9781094449, "lat": 13.0528803, "lon": 77.631496}, {"type": "node", "id": 9781094450, "lat": 13.0527967, "lon": 77.6318622}, {"type": "node", "id": 9781094451, "lat": 13.0529822, "lon": 77.6318756}, {"type": "node", "id": 9781094452, "lat": 13.0530632, "lon": 77.6315564}, {"type": "node", "id": 9789436891, "lat": 12.9715259, "lon": 77.5972603}, {"type": "node", "id": 9789436892, "lat": 12.9712053, "lon": 77.5972183}, {"type": "node", "id": 9789436893, "lat": 12.9712075, "lon": 77.5968827}, {"type": "node", "id": 9797919700, "lat": 12.9386069, "lon": 77.6305957}, {"type": "node", "id": 9797919701, "lat": 12.9386052, "lon": 77.6308039}, {"type": "node", "id": 9797919702, "lat": 12.9389694, "lon": 77.6307933}, {"type": "node", "id": 9810747937, "lat": 12.9813191, "lon": 77.6309297}, {"type": "node", "id": 9810747938, "lat": 12.9814774, "lon": 77.6311278}, {"type": "node", "id": 9810747939, "lat": 12.9815533, "lon": 77.6310591}, {"type": "node", "id": 9810747948, "lat": 12.982839, "lon": 77.6375827}, {"type": "node", "id": 9810747949, "lat": 12.9829861, "lon": 77.637948}, {"type": "node", "id": 9810747950, "lat": 12.9825762, "lon": 77.6380589}, {"type": "node", "id": 9810747951, "lat": 12.9824402, "lon": 77.6376656}, {"type": "node", "id": 9820589381, "lat": 13.0148827, "lon": 77.6619944}, {"type": "node", "id": 9820589382, "lat": 13.0145498, "lon": 77.6620079}, {"type": "node", "id": 9820589383, "lat": 13.0145815, "lon": 77.6616833}, {"type": "node", "id": 9830286758, "lat": 13.0558381, "lon": 77.6066628}, {"type": "node", "id": 9844348524, "lat": 13.0458886, "lon": 77.5074059}, {"type": "node", "id": 9844348525, "lat": 13.0456332, "lon": 77.507299}, {"type": "node", "id": 9844348526, "lat": 13.0456659, "lon": 77.5070373}, {"type": "node", "id": 9845753018, "lat": 13.0448947, "lon": 77.5049258}, {"type": "node", "id": 9845753019, "lat": 13.0447959, "lon": 77.5053383}, {"type": "node", "id": 9845753020, "lat": 13.0456289, "lon": 77.5054769}, {"type": "node", "id": 9870845393, "lat": 12.9971178, "lon": 77.5468679}, {"type": "node", "id": 9912087562, "lat": 13.0194133, "lon": 77.5526565}, {"type": "node", "id": 9912087563, "lat": 13.0194166, "lon": 77.5528483}, {"type": "node", "id": 9912087564, "lat": 13.0197752, "lon": 77.5527169}, {"type": "node", "id": 9912087565, "lat": 13.0197151, "lon": 77.5525506}, {"type": "node", "id": 9920329664, "lat": 12.9621029, "lon": 77.5940872}, {"type": "node", "id": 9924572429, "lat": 12.9063615, "lon": 77.6015901}, {"type": "node", "id": 9924572430, "lat": 12.9063691, "lon": 77.6020508}, {"type": "node", "id": 10043935993, "lat": 12.9002249, "lon": 77.6334327}, {"type": "node", "id": 10043935994, "lat": 12.9004247, "lon": 77.6338189}, {"type": "node", "id": 10043935995, "lat": 12.9006095, "lon": 77.6336483}, {"type": "node", "id": 10066903120, "lat": 12.9090809, "lon": 77.6438957}, {"type": "node", "id": 10066903121, "lat": 12.9090657, "lon": 77.6442412}, {"type": "node", "id": 10066903122, "lat": 12.9087463, "lon": 77.6442264}, {"type": "node", "id": 10066903123, "lat": 12.9087615, "lon": 77.6438809}, {"type": "node", "id": 10066952300, "lat": 12.9071957, "lon": 77.6446094}, {"type": "node", "id": 10066952301, "lat": 12.9071718, "lon": 77.6449846}, {"type": "node", "id": 10066952302, "lat": 12.9074594, "lon": 77.6449982}, {"type": "node", "id": 10083900219, "lat": 12.9128382, "lon": 77.6656458}, {"type": "node", "id": 10123822796, "lat": 12.9166606, "lon": 77.5974905}, {"type": "node", "id": 10123822797, "lat": 12.9166586, "lon": 77.5976235}, {"type": "node", "id": 10123822798, "lat": 12.916484, "lon": 77.5976208}, {"type": "node", "id": 10123822799, "lat": 12.916486, "lon": 77.5974878}, {"type": "node", "id": 10135158366, "lat": 13.0414103, "lon": 77.620629}, {"type": "node", "id": 10146556486, "lat": 13.0106195, "lon": 77.6811531}, {"type": "node", "id": 10218082460, "lat": 12.9360058, "lon": 77.5153978}, {"type": "node", "id": 10218082461, "lat": 12.9285826, "lon": 77.5028976, "tags": {"amenity": "fuel", "brand": "Bharat Petroleum", "brand:wikidata": "Q854826", "check_date": "2022-11-25", "compressed_air": "yes", "fuel:diesel": "yes", "fuel:petrol": "yes", "name": "Bharat Petroleum", "name:kn": "\u0cad\u0cbe\u0cb0\u0ca4\u0ccd \u0caa\u0cc6\u0c9f\u0ccd\u0cb0\u0ccb\u0cb2\u0cbf\u0caf\u0c82", "self_service": "no", "source": "survey"}}, {"type": "node", "id": 10218102645, "lat": 12.9574219, "lon": 77.5517155, "tags": {"brand": "Shell", "brand:wikidata": "Q110716465", "check_date": "2022-11-25", "compressed_air": "yes", "fuel:diesel": "yes", "fuel:petrol": "yes", "name": "Shell", "self_service": "no", "source": "survey"}}, {"type": "node", "id": 10250489857, "lat": 12.9964919, "lon": 77.5195448}, {"type": "node", "id": 10250489858, "lat": 12.9959943, "lon": 77.5197495}, {"type": "node", "id": 10250489859, "lat": 12.9958028, "lon": 77.5192591}, {"type": "node", "id": 10250489860, "lat": 12.9962671, "lon": 77.5190681}, {"type": "node", "id": 10259293971, "lat": 13.0103186, "lon": 77.6621087}, {"type": "node", "id": 10272681260, "lat": 12.988652, "lon": 77.5086147}, {"type": "node", "id": 10272681278, "lat": 12.9882286, "lon": 77.5096875}, {"type": "node", "id": 10591250906, "lat": 13.0517555, "lon": 77.5749081}, {"type": "node", "id": 10683922567, "lat": 13.0048916, "lon": 77.5806874}, {"type": "node", "id": 10683922578, "lat": 13.0058292, "lon": 77.5789771}, {"type": "node", "id": 10683922580, "lat": 13.0062303, "lon": 77.5788285}, {"type": "node", "id": 10683922581, "lat": 13.0060712, "lon": 77.5791174}, {"type": "node", "id": 10687931404, "lat": 12.891779, "lon": 77.5771096, "tags": {"addr:street": "Nr Ragvendra Swami Layout", "amenity": "fuel", "brand": "Shell", "brand:wikidata": "Q110716465", "fuel:GTL_diesel": "yes", "fuel:octane_95": "yes", "fuel:octane_98": "yes", "name": "Shell Pertol Station", "operator": "Shell"}}, {"type": "node", "id": 10731130844, "lat": 13.0646225, "lon": 77.6455969}, {"type": "node", "id": 10731130846, "lat": 13.0645704, "lon": 77.6458948}, {"type": "node", "id": 10731130848, "lat": 13.0648694, "lon": 77.6459499}, {"type": "node", "id": 10731130849, "lat": 13.0649215, "lon": 77.6456521}, {"type": "node", "id": 10731191020, "lat": 13.0255345, "lon": 77.6371472}, {"type": "node", "id": 10731191021, "lat": 13.0254942, "lon": 77.6373795}, {"type": "node", "id": 10731191022, "lat": 13.0257268, "lon": 77.6374187}, {"type": "node", "id": 10738598991, "lat": 12.9946331, "lon": 77.5225363, "tags": {"amenity": "fuel", "brand": "Indian Oil", "brand:wikidata": "Q1289348", "check_date": "2023-03-16", "name": "Indian Oil"}}, {"type": "node", "id": 10753151495, "lat": 13.0311635, "lon": 77.5771639, "tags": {"amenity": "fuel", "brand": "Nayara", "brand:wikidata": "Q1360409", "name": "Nayara", "operator": "Nayara"}}, {"type": "node", "id": 10761044603, "lat": 13.0102049, "lon": 77.662087}, {"type": "node", "id": 10761044604, "lat": 13.0101908, "lon": 77.6622913}, {"type": "node", "id": 10761052205, "lat": 13.010315, "lon": 77.6622976}, {"type": "node", "id": 10792812736, "lat": 12.9165988, "lon": 77.5837357}, {"type": "node", "id": 10792812737, "lat": 12.9165959, "lon": 77.5839583}, {"type": "node", "id": 10805316277, "lat": 13.0401021, "lon": 77.6416041}, {"type": "node", "id": 10805316278, "lat": 13.0401207, "lon": 77.6418336}, {"type": "node", "id": 10805316279, "lat": 13.0403159, "lon": 77.6418315}, {"type": "node", "id": 10819136549, "lat": 13.0079536, "lon": 77.5461296}, {"type": "node", "id": 10819136550, "lat": 13.0079943, "lon": 77.545875}, {"type": "node", "id": 10819136551, "lat": 13.0081371, "lon": 77.545899}, {"type": "node", "id": 10819136552, "lat": 13.0080964, "lon": 77.5461536}, {"type": "node", "id": 10853093223, "lat": 12.9430915, "lon": 77.5796271}, {"type": "node", "id": 10853093224, "lat": 12.9430946, "lon": 77.5799261}, {"type": "node", "id": 10853093225, "lat": 12.9432606, "lon": 77.5799243}, {"type": "node", "id": 10853093226, "lat": 12.9432574, "lon": 77.5796252}, {"type": "node", "id": 10853093227, "lat": 12.9472886, "lon": 77.5798621, "tags": {"amenity": "fuel", "brand": "Go Gas", "name": "Go Gas"}}, {"type": "node", "id": 10853141983, "lat": 12.9170799, "lon": 77.5740713}, {"type": "node", "id": 11016534777, "lat": 12.9126627, "lon": 77.665462}, {"type": "node", "id": 11016534778, "lat": 12.9129582, "lon": 77.6651649}, {"type": "node", "id": 11016534779, "lat": 12.9131338, "lon": 77.6653487}, {"type": "node", "id": 11019492810, "lat": 12.9614122, "lon": 77.5855255}, {"type": "node", "id": 11073333898, "lat": 12.9148778, "lon": 77.5854328}, {"type": "node", "id": 11096782358, "lat": 12.9962342, "lon": 77.5801948}, {"type": "node", "id": 11096782359, "lat": 12.9962021, "lon": 77.580304}, {"type": "node", "id": 11096782360, "lat": 12.996394, "lon": 77.5803636}, {"type": "node", "id": 11096782361, "lat": 12.9964262, "lon": 77.5802544}, {"type": "node", "id": 11096782364, "lat": 12.9949572, "lon": 77.5793378}, {"type": "node", "id": 11096782365, "lat": 12.9948226, "lon": 77.5792104}, {"type": "node", "id": 11096782366, "lat": 12.9951702, "lon": 77.5789489}, {"type": "node", "id": 11096782367, "lat": 12.9953087, "lon": 77.5790924}, {"type": "node", "id": 11096802221, "lat": 12.9973204, "lon": 77.5605348}, {"type": "node", "id": 11096802222, "lat": 12.9975439, "lon": 77.5605845}, {"type": "node", "id": 11096802223, "lat": 12.9975707, "lon": 77.5604517}, {"type": "node", "id": 11116724237, "lat": 13.0212962, "lon": 77.5843277}, {"type": "node", "id": 11125567293, "lat": 12.9742279, "lon": 77.6473382}, {"type": "node", "id": 11155345163, "lat": 12.9572363, "lon": 77.5682826}, {"type": "node", "id": 11155345164, "lat": 12.957245, "lon": 77.5685128}, {"type": "node", "id": 11155345165, "lat": 12.9575394, "lon": 77.568501}, {"type": "node", "id": 11175932406, "lat": 12.9534677, "lon": 77.5670667}, {"type": "node", "id": 11175932407, "lat": 12.9534728, "lon": 77.5674294}, {"type": "node", "id": 11175932408, "lat": 12.9536822, "lon": 77.5674232}, {"type": "node", "id": 11200377532, "lat": 12.9591051, "lon": 77.5756926}, {"type": "node", "id": 11200377533, "lat": 12.9593937, "lon": 77.5754488}, {"type": "node", "id": 11215990974, "lat": 12.9473386, "lon": 77.5795811}, {"type": "node", "id": 11215990975, "lat": 12.9472618, "lon": 77.5797061}, {"type": "node", "id": 11215990976, "lat": 12.9474369, "lon": 77.5798194}, {"type": "node", "id": 11215990977, "lat": 12.9475137, "lon": 77.5796943}, {"type": "node", "id": 11231119864, "lat": 13.0286137, "lon": 77.5360594}, {"type": "node", "id": 11231119865, "lat": 13.0287734, "lon": 77.535789}, {"type": "node", "id": 11231119866, "lat": 13.0289349, "lon": 77.5362468}, {"type": "node", "id": 11248255454, "lat": 12.9535761, "lon": 77.542082}, {"type": "node", "id": 11248255455, "lat": 12.9545214, "lon": 77.5436019}, {"type": "node", "id": 11248255458, "lat": 12.9573596, "lon": 77.5511498, "tags": {"amenity": "fuel", "brand": "Bharat Petroleum", "brand:wikidata": "Q854826", "check_date": "2024-01-25", "name": "Bharat Petroleum", "name:en": "Bharat Petroleum", "name:kn": "\u0cad\u0cbe\u0cb0\u0ca4\u0ccd \u0caa\u0cc6\u0c9f\u0ccd\u0cb0\u0ccb\u0cb2\u0cbf\u0caf\u0c82", "self_service": "no"}}, {"type": "node", "id": 11248318181, "lat": 12.9299858, "lon": 77.504362}, {"type": "node", "id": 11278821969, "lat": 12.9375839, "lon": 77.5341077}, {"type": "node", "id": 11278821970, "lat": 12.9376074, "lon": 77.5342847}, {"type": "node", "id": 11278821971, "lat": 12.937759, "lon": 77.534274}, {"type": "node", "id": 11278821972, "lat": 12.9377355, "lon": 77.5340527}, {"type": "node", "id": 11278822019, "lat": 12.9440375, "lon": 77.530322}, {"type": "node", "id": 11278822020, "lat": 12.9442279, "lon": 77.5302035}, {"type": "node", "id": 11278822038, "lat": 12.9441583, "lon": 77.5304881}, {"type": "node", "id": 11278822039, "lat": 12.9443988, "lon": 77.5304747}, {"type": "node", "id": 11303017932, "lat": 12.9088954, "lon": 77.5861389}, {"type": "node", "id": 11303017933, "lat": 12.9086669, "lon": 77.5861416}, {"type": "node", "id": 11303017934, "lat": 12.9086635, "lon": 77.5858409}, {"type": "node", "id": 11303061370, "lat": 12.9148725, "lon": 77.5856885}, {"type": "node", "id": 11303061371, "lat": 12.9147026, "lon": 77.5856845}, {"type": "node", "id": 11303061372, "lat": 12.9147102, "lon": 77.5854286}, {"type": "node", "id": 11303599877, "lat": 12.9169328, "lon": 77.5839629}, {"type": "node", "id": 11303599878, "lat": 12.9169357, "lon": 77.5837404}, {"type": "node", "id": 11303671237, "lat": 12.906338, "lon": 77.5759624}, {"type": "node", "id": 11303770425, "lat": 12.906341, "lon": 77.575554}, {"type": "node", "id": 11308901245, "lat": 12.9060895, "lon": 77.5755481}, {"type": "node", "id": 11308901246, "lat": 12.9060843, "lon": 77.5757774}, {"type": "node", "id": 11308901247, "lat": 12.9063358, "lon": 77.5757833}, {"type": "node", "id": 11308901252, "lat": 12.9063361, "lon": 77.5761212}, {"type": "node", "id": 11308901253, "lat": 12.9060821, "lon": 77.576118}, {"type": "node", "id": 11308901254, "lat": 12.906084, "lon": 77.5759592}, {"type": "node", "id": 11308911778, "lat": 12.9068885, "lon": 77.579398}, {"type": "node", "id": 11308911779, "lat": 12.9065933, "lon": 77.5794007}, {"type": "node", "id": 11308911780, "lat": 12.9065915, "lon": 77.5791961}, {"type": "node", "id": 11478245918, "lat": 12.9037654, "lon": 77.6271722}, {"type": "node", "id": 11478245919, "lat": 12.9036177, "lon": 77.6271239}, {"type": "node", "id": 11478245920, "lat": 12.9036911, "lon": 77.6268873}, {"type": "node", "id": 11478655352, "lat": 12.9200956, "lon": 77.6514929}, {"type": "node", "id": 11509998525, "lat": 13.057432, "lon": 77.546529}, {"type": "node", "id": 11509998526, "lat": 13.0574999, "lon": 77.5468224}, {"type": "node", "id": 11509998527, "lat": 13.0576698, "lon": 77.5468172}, {"type": "node", "id": 11509998528, "lat": 13.057607, "lon": 77.546466}, {"type": "node", "id": 11535980318, "lat": 12.9061451, "lon": 77.6017651}, {"type": "node", "id": 11543569684, "lat": 12.9252233, "lon": 77.6340887}, {"type": "node", "id": 11543569685, "lat": 12.9252322, "lon": 77.6341672}, {"type": "node", "id": 11543569686, "lat": 12.9253379, "lon": 77.6341545}, {"type": "node", "id": 11543569687, "lat": 12.925329, "lon": 77.634076}, {"type": "node", "id": 11549842929, "lat": 12.942697, "lon": 77.6798804}, {"type": "node", "id": 11549842930, "lat": 12.9425885, "lon": 77.6802184}, {"type": "node", "id": 11549842931, "lat": 12.9422683, "lon": 77.6801205}, {"type": "node", "id": 11549842932, "lat": 12.9423859, "lon": 77.6797222}, {"type": "node", "id": 11575753882, "lat": 13.0119392, "lon": 77.6467819}, {"type": "node", "id": 11576910646, "lat": 13.0030801, "lon": 77.6820142}, {"type": "node", "id": 11576910647, "lat": 13.0032913, "lon": 77.6823835}, {"type": "node", "id": 11576910648, "lat": 13.0029684, "lon": 77.6825779}, {"type": "node", "id": 11576910649, "lat": 13.0027572, "lon": 77.6822087}, {"type": "node", "id": 11609505403, "lat": 12.9900608, "lon": 77.5743316}, {"type": "node", "id": 11640704594, "lat": 13.0552208, "lon": 77.6635033}, {"type": "node", "id": 11659636857, "lat": 12.9824106, "lon": 77.5943217}, {"type": "node", "id": 11659636858, "lat": 12.9821577, "lon": 77.5942361}, {"type": "node", "id": 11659636859, "lat": 12.9822204, "lon": 77.5940408}, {"type": "node", "id": 11659973164, "lat": 12.9907306, "lon": 77.5935654}, {"type": "node", "id": 11659973165, "lat": 12.9904207, "lon": 77.5938123}, {"type": "node", "id": 11659973166, "lat": 12.9902156, "lon": 77.5936239}, {"type": "node", "id": 11659973167, "lat": 12.9904571, "lon": 77.5933541}, {"type": "node", "id": 11680817144, "lat": 12.925143, "lon": 77.584012}, {"type": "node", "id": 11680817145, "lat": 12.9251439, "lon": 77.5838672}, {"type": "node", "id": 11680817146, "lat": 12.9254489, "lon": 77.5840158}, {"type": "node", "id": 11684016163, "lat": 12.9252665, "lon": 77.6341144, "tags": {"amenity": "fuel", "check_date": "2024-03-02", "name": "Gail Gas"}}, {"type": "node", "id": 11688204052, "lat": 12.9357509, "lon": 77.5154082}, {"type": "node", "id": 11688206883, "lat": 12.954318, "lon": 77.5437132}, {"type": "node", "id": 11688206884, "lat": 12.954431, "lon": 77.5438771}, {"type": "node", "id": 11688206885, "lat": 12.9546163, "lon": 77.5437256}, {"type": "node", "id": 11688206899, "lat": 12.956305, "lon": 77.5486469}, {"type": "node", "id": 11688206900, "lat": 12.9563138, "lon": 77.5489324}, {"type": "node", "id": 11688206901, "lat": 12.9565795, "lon": 77.5489298}, {"type": "node", "id": 11738157557, "lat": 13.0120973, "lon": 77.6466559}, {"type": "node", "id": 11738157558, "lat": 13.0118079, "lon": 77.6465897}, {"type": "node", "id": 11738157559, "lat": 13.0118057, "lon": 77.6465679}, {"type": "node", "id": 11738157560, "lat": 13.0118086, "lon": 77.6465462}, {"type": "node", "id": 11738157561, "lat": 13.0118327, "lon": 77.6465036}, {"type": "node", "id": 11738157562, "lat": 13.0118547, "lon": 77.6464875}, {"type": "node", "id": 11738157563, "lat": 13.0118151, "lon": 77.6466103}, {"type": "node", "id": 11738157564, "lat": 13.0118164, "lon": 77.6465258}, {"type": "node", "id": 11738157565, "lat": 13.0118804, "lon": 77.6464789}, {"type": "node", "id": 11738157566, "lat": 13.0120673, "lon": 77.6464856}, {"type": "node", "id": 11741744710, "lat": 12.9036483, "lon": 77.5614542}, {"type": "node", "id": 11741744711, "lat": 12.9035065, "lon": 77.5618002}, {"type": "node", "id": 11741744712, "lat": 12.9040372, "lon": 77.5616627}, {"type": "node", "id": 11741744907, "lat": 12.9078517, "lon": 77.5710404}, {"type": "node", "id": 11741744908, "lat": 12.9078059, "lon": 77.5714555}, {"type": "node", "id": 11741744909, "lat": 12.9079961, "lon": 77.5715353}, {"type": "node", "id": 11741744910, "lat": 12.9081948, "lon": 77.57097}, {"type": "node", "id": 11757261518, "lat": 12.9294884, "lon": 77.5140186}, {"type": "node", "id": 11757261673, "lat": 12.9268788, "lon": 77.514541}, {"type": "node", "id": 11757261674, "lat": 12.926854, "lon": 77.5148025}, {"type": "node", "id": 11757261675, "lat": 12.927267, "lon": 77.5147918}, {"type": "node", "id": 11757261676, "lat": 12.9273115, "lon": 77.5145128}, {"type": "node", "id": 11757261764, "lat": 12.9324889, "lon": 77.5165299}, {"type": "node", "id": 11757261765, "lat": 12.9328248, "lon": 77.5168289}, {"type": "node", "id": 11757261766, "lat": 12.9327072, "lon": 77.5162804}, {"type": "node", "id": 11757261862, "lat": 12.9379972, "lon": 77.5223227}, {"type": "node", "id": 11757261863, "lat": 12.9382276, "lon": 77.5224448}, {"type": "node", "id": 11757261868, "lat": 12.9385733, "lon": 77.5212438}, {"type": "node", "id": 11757261869, "lat": 12.938138, "lon": 77.5214088}, {"type": "node", "id": 11757261870, "lat": 12.9383315, "lon": 77.5211084}, {"type": "node", "id": 11758069397, "lat": 12.9061543, "lon": 77.6020548}, {"type": "node", "id": 11758212344, "lat": 12.9064326, "lon": 77.5945153}, {"type": "node", "id": 11758212345, "lat": 12.9067331, "lon": 77.5942714}, {"type": "node", "id": 11758212346, "lat": 12.9064302, "lon": 77.5942746}, {"type": "node", "id": 11801601967, "lat": 12.9039146, "lon": 77.5619304}, {"type": "node", "id": 11813266496, "lat": 12.9068027, "lon": 77.5716868}, {"type": "node", "id": 11813266497, "lat": 12.9066294, "lon": 77.5716446}, {"type": "node", "id": 11813266498, "lat": 12.9066569, "lon": 77.5714494}, {"type": "node", "id": 11813266499, "lat": 12.9069386, "lon": 77.5714763}, {"type": "node", "id": 11813266500, "lat": 12.9069974, "lon": 77.5715118}, {"type": "node", "id": 11816022234, "lat": 12.9372015, "lon": 77.5766703}, {"type": "node", "id": 11816022235, "lat": 12.9372015, "lon": 77.5768863}, {"type": "node", "id": 11816022236, "lat": 12.9369146, "lon": 77.5768863}, {"type": "node", "id": 11816022237, "lat": 12.9369146, "lon": 77.5766703}, {"type": "node", "id": 11821491238, "lat": 13.0416589, "lon": 77.6136325}, {"type": "node", "id": 11821491239, "lat": 13.0416439, "lon": 77.6138619}, {"type": "node", "id": 11821491240, "lat": 13.0418242, "lon": 77.6139001}, {"type": "node", "id": 11834330248, "lat": 12.9213058, "lon": 77.6003088}, {"type": "node", "id": 11834330249, "lat": 12.9213007, "lon": 77.6005562}, {"type": "node", "id": 11834330250, "lat": 12.9214464, "lon": 77.6005594}, {"type": "node", "id": 11834330267, "lat": 12.9267084, "lon": 77.6005775}, {"type": "node", "id": 11834330268, "lat": 12.9266999, "lon": 77.600837}, {"type": "node", "id": 11834330269, "lat": 12.9269167, "lon": 77.6008444}, {"type": "node", "id": 11836691624, "lat": 12.8922813, "lon": 77.6558589}, {"type": "node", "id": 11836691625, "lat": 12.8923103, "lon": 77.6562703}, {"type": "node", "id": 11836691626, "lat": 12.8920795, "lon": 77.6562874}, {"type": "node", "id": 11836691627, "lat": 12.8920506, "lon": 77.655876}, {"type": "node", "id": 11842878665, "lat": 13.0135849, "lon": 77.6496684}, {"type": "node", "id": 11842878666, "lat": 13.0133423, "lon": 77.6496413}, {"type": "node", "id": 11842878667, "lat": 13.0134276, "lon": 77.6498515}, {"type": "node", "id": 11842878668, "lat": 13.0135629, "lon": 77.6498614}, {"type": "node", "id": 11856705117, "lat": 12.9917037, "lon": 77.6146431}, {"type": "node", "id": 11862261708, "lat": 13.0580839, "lon": 77.5863498}, {"type": "node", "id": 11865642195, "lat": 13.0580591, "lon": 77.5865053}, {"type": "node", "id": 11865642196, "lat": 13.0578552, "lon": 77.5864705}, {"type": "node", "id": 11865642197, "lat": 13.0578931, "lon": 77.5862968}, {"type": "node", "id": 11866193763, "lat": 12.9965211, "lon": 77.6119385}, {"type": "node", "id": 11866193764, "lat": 12.9963773, "lon": 77.6118657}, {"type": "node", "id": 11866193765, "lat": 12.9964789, "lon": 77.611655}, {"type": "node", "id": 11869416742, "lat": 13.0515314, "lon": 77.5749014}, {"type": "node", "id": 11869416743, "lat": 13.0514328, "lon": 77.5752669}, {"type": "node", "id": 11869416744, "lat": 13.0516425, "lon": 77.5752897}, {"type": "node", "id": 11873917142, "lat": 13.058014, "lon": 77.5937171}, {"type": "node", "id": 11873917143, "lat": 13.0579728, "lon": 77.5940108}, {"type": "node", "id": 11873917144, "lat": 13.0583621, "lon": 77.5940309}, {"type": "node", "id": 11873917145, "lat": 13.0584007, "lon": 77.5937218}, {"type": "node", "id": 11878470073, "lat": 13.0444797, "lon": 77.6266674}, {"type": "node", "id": 11882716459, "lat": 12.929774, "lon": 77.6153681}, {"type": "node", "id": 11886896765, "lat": 12.9662277, "lon": 77.5048609}, {"type": "node", "id": 11886896766, "lat": 12.9663467, "lon": 77.5046249}, {"type": "node", "id": 11886896767, "lat": 12.966476, "lon": 77.504653}, {"type": "node", "id": 11886896768, "lat": 12.9665087, "lon": 77.5045739}, {"type": "node", "id": 11886911669, "lat": 12.966659, "lon": 77.5046128}, {"type": "node", "id": 11897176809, "lat": 13.0453712, "lon": 77.5089797}, {"type": "node", "id": 11897176810, "lat": 13.0450819, "lon": 77.5088412}, {"type": "node", "id": 11897176811, "lat": 13.0452239, "lon": 77.5085286}, {"type": "node", "id": 11897176812, "lat": 13.0455132, "lon": 77.5086671}, {"type": "node", "id": 11897865663, "lat": 13.0075192, "lon": 77.5711141, "tags": {"amenity": "fuel", "brand": "Hindustan Petroleum", "brand:wikidata": "Q1619375", "check_date": "2024-05-12", "name": "HP Gas Station", "official_name": "Hindustan Petroleum"}}, {"type": "node", "id": 11917222403, "lat": 13.0148498, "lon": 77.6282814}, {"type": "node", "id": 11917452856, "lat": 13.0666532, "lon": 77.6389472}, {"type": "node", "id": 11917452857, "lat": 13.0600027, "lon": 77.6329458}, {"type": "node", "id": 11917970458, "lat": 13.0369319, "lon": 77.5745172}, {"type": "node", "id": 11917970459, "lat": 13.0367673, "lon": 77.5745715}, {"type": "node", "id": 11917970460, "lat": 13.0367725, "lon": 77.5743697}, {"type": "node", "id": 11917970461, "lat": 13.0403041, "lon": 77.5733377}, {"type": "node", "id": 11917970462, "lat": 13.0400382, "lon": 77.5732566}, {"type": "node", "id": 11917970463, "lat": 13.0400957, "lon": 77.573099}, {"type": "node", "id": 11917970464, "lat": 13.0404387, "lon": 77.573209}, {"type": "node", "id": 11919046899, "lat": 13.0407333, "lon": 77.6188033}, {"type": "node", "id": 11919056026, "lat": 13.06642, "lon": 77.6389211}, {"type": "node", "id": 11919056027, "lat": 13.0666389, "lon": 77.6387347}, {"type": "node", "id": 11919056028, "lat": 13.0664396, "lon": 77.6387072}, {"type": "node", "id": 11932168827, "lat": 12.9295821, "lon": 77.5048126}, {"type": "node", "id": 11932168828, "lat": 12.9294632, "lon": 77.5044008}, {"type": "node", "id": 11932168829, "lat": 12.9298167, "lon": 77.5039811}, {"type": "node", "id": 11932168830, "lat": 12.9293023, "lon": 77.5039082}, {"type": "node", "id": 11932168831, "lat": 12.9296719, "lon": 77.5037565}, {"type": "node", "id": 11932833522, "lat": 12.8917503, "lon": 77.611304}, {"type": "node", "id": 11932833523, "lat": 12.8917047, "lon": 77.6114363}, {"type": "node", "id": 11932833524, "lat": 12.8920754, "lon": 77.6115672}, {"type": "node", "id": 11932833525, "lat": 12.892109, "lon": 77.6114432}, {"type": "node", "id": 11934201566, "lat": 13.0558453, "lon": 77.606459}, {"type": "node", "id": 11934201567, "lat": 13.0555285, "lon": 77.6066353}, {"type": "node", "id": 11934201568, "lat": 13.0555239, "lon": 77.6064274}, {"type": "node", "id": 11968887386, "lat": 13.0570342, "lon": 77.6484161}, {"type": "node", "id": 11968887387, "lat": 13.0570387, "lon": 77.6485147}, {"type": "node", "id": 11968887388, "lat": 13.0566677, "lon": 77.6485388}, {"type": "node", "id": 11968887389, "lat": 13.056637, "lon": 77.6480681}, {"type": "node", "id": 11969539777, "lat": 12.93449, "lon": 77.5394748}, {"type": "node", "id": 11969539778, "lat": 12.9345384, "lon": 77.5392213}, {"type": "node", "id": 11969539779, "lat": 12.9338966, "lon": 77.5393152}, {"type": "node", "id": 11983514907, "lat": 13.0014772, "lon": 77.6315919}, {"type": "node", "id": 11983514908, "lat": 13.0014745, "lon": 77.6314062}, {"type": "node", "id": 11983514909, "lat": 13.0016666, "lon": 77.6314417}, {"type": "node", "id": 11993315944, "lat": 12.9753308, "lon": 77.5483811}, {"type": "node", "id": 11999392496, "lat": 13.0272726, "lon": 77.5436529}, {"type": "node", "id": 11999392497, "lat": 13.0274504, "lon": 77.5433399}, {"type": "node", "id": 11999392498, "lat": 13.0272697, "lon": 77.5432318}, {"type": "node", "id": 11999392514, "lat": 13.0258317, "lon": 77.5443444}, {"type": "node", "id": 11999392515, "lat": 13.0260544, "lon": 77.544472}, {"type": "node", "id": 11999392516, "lat": 13.0262099, "lon": 77.5441861}, {"type": "node", "id": 11999392569, "lat": 13.0239028, "lon": 77.5471687}, {"type": "node", "id": 11999392570, "lat": 13.0237852, "lon": 77.5473612}, {"type": "node", "id": 11999392571, "lat": 13.0241792, "lon": 77.5475892}, {"type": "node", "id": 11999392572, "lat": 13.0243693, "lon": 77.5472458}, {"type": "node", "id": 12006313228, "lat": 13.0061854, "lon": 77.5788025}, {"type": "node", "id": 12006313229, "lat": 13.0061669, "lon": 77.5789436}, {"type": "node", "id": 12020487149, "lat": 13.0648365, "lon": 77.5707864}, {"type": "node", "id": 12020487150, "lat": 13.0649621, "lon": 77.5710203}, {"type": "node", "id": 12020487151, "lat": 13.0652312, "lon": 77.570563}, {"type": "node", "id": 12022160091, "lat": 13.0125547, "lon": 77.5536221}, {"type": "node", "id": 12022160092, "lat": 13.0124044, "lon": 77.5539544}, {"type": "node", "id": 12022160093, "lat": 13.0125702, "lon": 77.5534907}, {"type": "node", "id": 12022160094, "lat": 13.012062, "lon": 77.5537469}, {"type": "node", "id": 12030526568, "lat": 12.9575326, "lon": 77.5520917}, {"type": "node", "id": 12030613069, "lat": 12.9578294, "lon": 77.5520571}, {"type": "node", "id": 12030613070, "lat": 12.9577771, "lon": 77.5516628}, {"type": "node", "id": 12031596362, "lat": 13.0597927, "lon": 77.6329364}, {"type": "node", "id": 12031596363, "lat": 13.0597874, "lon": 77.6330601}, {"type": "node", "id": 12031596364, "lat": 13.0599975, "lon": 77.6330695}, {"type": "node", "id": 12057048116, "lat": 12.8881839, "lon": 77.536916}, {"type": "node", "id": 12057048117, "lat": 12.8881721, "lon": 77.5371788}, {"type": "node", "id": 12057048118, "lat": 12.8876479, "lon": 77.5371923}, {"type": "node", "id": 12057048119, "lat": 12.8879577, "lon": 77.5369133}, {"type": "node", "id": 12057048126, "lat": 12.8926065, "lon": 77.5215542}, {"type": "node", "id": 12057048127, "lat": 12.892294, "lon": 77.5215523}, {"type": "node", "id": 12057048128, "lat": 12.8922954, "lon": 77.5213264}, {"type": "node", "id": 12057048129, "lat": 12.8926078, "lon": 77.5213283}, {"type": "node", "id": 12060592481, "lat": 12.9220861, "lon": 77.5598422}, {"type": "node", "id": 12060592482, "lat": 12.9220492, "lon": 77.5600799}, {"type": "node", "id": 12060592483, "lat": 12.9222289, "lon": 77.5601093}, {"type": "node", "id": 12078449265, "lat": 12.9079574, "lon": 77.6288166, "tags": {"amenity": "fuel", "check_date": "2024-07-28", "self_service": "no", "source": "survey"}}, {"type": "node", "id": 12092280385, "lat": 12.9531381, "lon": 77.6401601}, {"type": "node", "id": 12092280386, "lat": 12.9529877, "lon": 77.6404486}, {"type": "node", "id": 12092280387, "lat": 12.9531716, "lon": 77.6405496}, {"type": "node", "id": 12092280388, "lat": 12.953322, "lon": 77.640261}, {"type": "node", "id": 12100028675, "lat": 13.0056366, "lon": 77.5542179}, {"type": "node", "id": 12100028676, "lat": 13.0055687, "lon": 77.5544957}, {"type": "node", "id": 12100028677, "lat": 13.0059431, "lon": 77.5545921}, {"type": "node", "id": 12105813356, "lat": 12.9439844, "lon": 77.6792099}, {"type": "node", "id": 12105813357, "lat": 12.9439086, "lon": 77.6794083}, {"type": "node", "id": 12105813358, "lat": 12.9441491, "lon": 77.6796229}, {"type": "node", "id": 12105813359, "lat": 12.944255, "lon": 77.6793064}, {"type": "node", "id": 12113993011, "lat": 13.0662476, "lon": 77.5304586}, {"type": "node", "id": 12116530262, "lat": 13.043317, "lon": 77.5568231}, {"type": "node", "id": 12116530267, "lat": 13.0428962, "lon": 77.5566384}, {"type": "node", "id": 12116530268, "lat": 13.042921, "lon": 77.5569212}, {"type": "node", "id": 12116530269, "lat": 13.0432991, "lon": 77.5565677}, {"type": "node", "id": 12116561068, "lat": 13.0662677, "lon": 77.5301241}, {"type": "node", "id": 12116561069, "lat": 13.0660216, "lon": 77.5300857}, {"type": "node", "id": 12116561070, "lat": 13.0660007, "lon": 77.5304331}, {"type": "node", "id": 12116561659, "lat": 13.0267407, "lon": 77.5580598}, {"type": "node", "id": 12116561660, "lat": 13.0269263, "lon": 77.5581349}, {"type": "node", "id": 12116561661, "lat": 13.0269916, "lon": 77.5579539}, {"type": "node", "id": 12116561662, "lat": 13.0267499, "lon": 77.5578547}, {"type": "node", "id": 12128921389, "lat": 12.9600765, "lon": 77.5834892}, {"type": "node", "id": 12128921390, "lat": 12.9599518, "lon": 77.5837594}, {"type": "node", "id": 12128921391, "lat": 12.9597457, "lon": 77.5836485}, {"type": "node", "id": 12128921392, "lat": 12.9598424, "lon": 77.5833821}, {"type": "node", "id": 12128957149, "lat": 12.9537706, "lon": 77.5420163}, {"type": "node", "id": 12128957165, "lat": 12.953666, "lon": 77.5422098}, {"type": "node", "id": 12128957166, "lat": 12.9538056, "lon": 77.5421642}, {"type": "node", "id": 12133240840, "lat": 13.0636588, "lon": 77.5592519}, {"type": "node", "id": 12133240841, "lat": 13.0636002, "lon": 77.5595168}, {"type": "node", "id": 12133240842, "lat": 13.0638129, "lon": 77.5595585}, {"type": "node", "id": 12133240843, "lat": 13.063949, "lon": 77.5594557}, {"type": "node", "id": 12133240844, "lat": 13.0639953, "lon": 77.5593354}, {"type": "node", "id": 12134082405, "lat": 12.9733027, "lon": 77.5815871}, {"type": "node", "id": 12134082406, "lat": 12.9732847, "lon": 77.5813813}, {"type": "node", "id": 12134110018, "lat": 12.9989833, "lon": 77.6746548}, {"type": "node", "id": 12134110019, "lat": 12.9986559, "lon": 77.6747802}, {"type": "node", "id": 12134110020, "lat": 12.9987293, "lon": 77.6749738}, {"type": "node", "id": 12134111013, "lat": 12.9990839, "lon": 77.6748352}, {"type": "node", "id": 12135993227, "lat": 12.9613807, "lon": 77.5858267}, {"type": "node", "id": 12135993228, "lat": 12.9616132, "lon": 77.5858524}, {"type": "node", "id": 12135993229, "lat": 12.9616448, "lon": 77.5855512}, {"type": "node", "id": 12135993331, "lat": 12.9589626, "lon": 77.5826671}, {"type": "node", "id": 12135993332, "lat": 12.9586756, "lon": 77.5825176}, {"type": "node", "id": 12135993333, "lat": 12.959022, "lon": 77.5825471}, {"type": "node", "id": 12140229728, "lat": 13.0248398, "lon": 77.5854279}, {"type": "node", "id": 12140229729, "lat": 13.024562, "lon": 77.5853694}, {"type": "node", "id": 12140229730, "lat": 13.0246024, "lon": 77.5851674}, {"type": "node", "id": 12140229731, "lat": 13.0248801, "lon": 77.5852259}, {"type": "node", "id": 12141938852, "lat": 12.9171682, "lon": 77.574335, "tags": {"amenity": "fuel", "brand": "Indian Oil", "brand:wikidata": "Q1289348", "name": "Indian Oil"}}, {"type": "node", "id": 12141963887, "lat": 13.0514733, "lon": 77.6308349}, {"type": "node", "id": 12141963888, "lat": 13.0515498, "lon": 77.6302561}, {"type": "node", "id": 12141963889, "lat": 13.0518169, "lon": 77.6303038}, {"type": "node", "id": 12141967840, "lat": 13.0441387, "lon": 77.6268189}, {"type": "node", "id": 12141967841, "lat": 13.0443954, "lon": 77.6269081}, {"type": "node", "id": 12141967842, "lat": 13.0442746, "lon": 77.6264682}, {"type": "node", "id": 12143892929, "lat": 12.9425359, "lon": 77.6799763, "tags": {"amenity": "fuel", "brand": "Nayara", "brand:wikidata": "Q5399377", "name": "Nayara"}}, {"type": "node", "id": 12145344719, "lat": 12.9563233, "lon": 77.5768054}, {"type": "node", "id": 12145344720, "lat": 12.9560809, "lon": 77.5767324}, {"type": "node", "id": 12145344721, "lat": 12.9560334, "lon": 77.5768985}, {"type": "node", "id": 12145344722, "lat": 12.9562758, "lon": 77.5769715}, {"type": "node", "id": 12145536674, "lat": 12.9572457, "lon": 77.5509305, "tags": {"amenity": "fuel", "brand": "Bharat Petroleum", "brand:wikidata": "Q854826", "name": "Bharat Petroleum"}}, {"type": "node", "id": 12145547063, "lat": 12.9294303, "lon": 77.5039923, "tags": {"amenity": "fuel", "brand": "Hindustan Petroleum", "brand:wikidata": "Q1619375", "name": "HP", "official_name": "Hindustan Petroleum"}}, {"type": "node", "id": 12147837583, "lat": 13.0086183, "lon": 77.6427151}, {"type": "node", "id": 12150953167, "lat": 13.0195518, "lon": 77.5527632, "tags": {"amenity": "fuel", "brand": "TotalEnergies", "brand:wikidata": "Q154037", "name": "TotalEnergies"}}, {"type": "node", "id": 12151337498, "lat": 12.9506877, "lon": 77.605377, "tags": {"amenity": "fuel", "brand": "Total", "brand:wikidata": "Q154037", "name": "Total"}}, {"type": "node", "id": 12167710739, "lat": 12.9420666, "lon": 77.5854427, "tags": {"amenity": "fuel", "brand": "TotalEnergies", "brand:wikidata": "Q154037", "name": "TotalEnergies"}}, {"type": "node", "id": 12167969846, "lat": 12.9224058, "lon": 77.5600139}, {"type": "node", "id": 12167969847, "lat": 12.9222718, "lon": 77.5599894}, {"type": "node", "id": 12167969848, "lat": 12.9222484, "lon": 77.5601234}, {"type": "node", "id": 12167969849, "lat": 12.9223825, "lon": 77.5601479}, {"type": "node", "id": 12169987866, "lat": 12.9367833, "lon": 77.5849383}, {"type": "node", "id": 12169987867, "lat": 12.9367907, "lon": 77.5847144}, {"type": "node", "id": 12169987868, "lat": 12.9369793, "lon": 77.584721}, {"type": "node", "id": 12177148921, "lat": 13.0594266, "lon": 77.6488921}, {"type": "node", "id": 12177148922, "lat": 13.0594162, "lon": 77.6490549}, {"type": "node", "id": 12177148923, "lat": 13.0592858, "lon": 77.6490408}, {"type": "node", "id": 12177148924, "lat": 13.0592919, "lon": 77.6488847}, {"type": "node", "id": 12177943693, "lat": 12.9088752, "lon": 77.5125193}, {"type": "node", "id": 12177943694, "lat": 12.9089541, "lon": 77.5126576}, {"type": "node", "id": 12177943695, "lat": 12.9091308, "lon": 77.5126212}, {"type": "node", "id": 12177943696, "lat": 12.9091774, "lon": 77.5124187}, {"type": "node", "id": 12177943697, "lat": 12.9089739, "lon": 77.5123134}, {"type": "node", "id": 12177962363, "lat": 12.9041492, "lon": 77.5066879}, {"type": "node", "id": 12177962371, "lat": 12.9040529, "lon": 77.5066566}, {"type": "node", "id": 12177962372, "lat": 12.9045157, "lon": 77.5068068}, {"type": "node", "id": 12177962373, "lat": 12.9045719, "lon": 77.5065923}, {"type": "node", "id": 12177962374, "lat": 12.9039366, "lon": 77.5077644}, {"type": "node", "id": 12177962375, "lat": 12.9046093, "lon": 77.5076284}, {"type": "node", "id": 12177962376, "lat": 12.9045549, "lon": 77.5073983}, {"type": "node", "id": 12177962377, "lat": 12.9039091, "lon": 77.5074291}, {"type": "node", "id": 12177962379, "lat": 12.9042058, "lon": 77.508734}, {"type": "node", "id": 12187048819, "lat": 12.9242794, "lon": 77.6148434}, {"type": "node", "id": 12194912506, "lat": 13.0264024, "lon": 77.6354074}, {"type": "node", "id": 12194912507, "lat": 13.0260221, "lon": 77.6352873}, {"type": "node", "id": 12194912508, "lat": 13.0261605, "lon": 77.6348253}, {"type": "node", "id": 12194912509, "lat": 13.0265408, "lon": 77.6349454}, {"type": "node", "id": 12210308003, "lat": 12.9783436, "lon": 77.679668}, {"type": "node", "id": 12210308004, "lat": 12.9780841, "lon": 77.6796398}, {"type": "node", "id": 12210308005, "lat": 12.9781143, "lon": 77.6793993}, {"type": "node", "id": 12215446605, "lat": 12.9778468, "lon": 77.6792722}, {"type": "node", "id": 12215446606, "lat": 12.9776701, "lon": 77.6792454}, {"type": "node", "id": 12215446607, "lat": 12.9777292, "lon": 77.6788831}, {"type": "node", "id": 12215446608, "lat": 12.9779125, "lon": 77.6789118}, {"type": "node", "id": 12234554686, "lat": 13.0375982, "lon": 77.6757078}, {"type": "node", "id": 12234554687, "lat": 13.0217851, "lon": 77.6786185}, {"type": "node", "id": 12234554688, "lat": 13.0213671, "lon": 77.6786276}, {"type": "node", "id": 12234554689, "lat": 13.0213542, "lon": 77.6789218}, {"type": "node", "id": 12234554690, "lat": 13.0218231, "lon": 77.6789306}, {"type": "node", "id": 12234554691, "lat": 13.0387186, "lon": 77.6596345}, {"type": "node", "id": 12234554692, "lat": 13.0387197, "lon": 77.6597851}, {"type": "node", "id": 12234554693, "lat": 13.0383189, "lon": 77.6598057}, {"type": "node", "id": 12234554694, "lat": 13.038201, "lon": 77.6595645}, {"type": "node", "id": 12234554695, "lat": 13.0323922, "lon": 77.6598534}, {"type": "node", "id": 12234554696, "lat": 13.0324756, "lon": 77.6600216}, {"type": "node", "id": 12234554697, "lat": 13.032396, "lon": 77.6601744}, {"type": "node", "id": 12234554698, "lat": 13.0322358, "lon": 77.6599105}, {"type": "node", "id": 12234554699, "lat": 13.0300711, "lon": 77.6624167}, {"type": "node", "id": 12234554700, "lat": 13.0299376, "lon": 77.6625621}, {"type": "node", "id": 12234571801, "lat": 13.0297995, "lon": 77.6624238}, {"type": "node", "id": 12234571802, "lat": 13.0299355, "lon": 77.6622703}, {"type": "node", "id": 12265548493, "lat": 13.0358602, "lon": 77.6229561, "tags": {"amenity": "fuel", "name": "Bharat Petroleum"}}, {"type": "node", "id": 12265566064, "lat": 13.018365, "lon": 77.6187666, "tags": {"amenity": "fuel", "brand": "Hindustan Petroleum"}}, {"type": "node", "id": 12265573693, "lat": 13.0282177, "lon": 77.6207124, "tags": {"amenity": "fuel", "name": "Gas Plus"}}, {"type": "node", "id": 12285541096, "lat": 13.0393786, "lon": 77.5962148, "tags": {"amenity": "fuel", "check_date": "2024-10-24", "fuel:cng": "yes", "name": "Go Gas"}}, {"type": "node", "id": 12386430528, "lat": 12.9787483, "lon": 77.5417621}, {"type": "node", "id": 12386430529, "lat": 12.9789783, "lon": 77.5417943}, {"type": "node", "id": 12386430530, "lat": 12.9790403, "lon": 77.5414965}, {"type": "node", "id": 12386430531, "lat": 12.9788267, "lon": 77.5414348}, {"type": "node", "id": 12429528322, "lat": 13.0212672, "lon": 77.5845419}, {"type": "node", "id": 12429528323, "lat": 13.0210895, "lon": 77.5845337}, {"type": "node", "id": 12429528324, "lat": 13.0210795, "lon": 77.5842683}, {"type": "node", "id": 12430131942, "lat": 12.9753061, "lon": 77.5483592}, {"type": "node", "id": 12430131943, "lat": 12.9756458, "lon": 77.5485715}, {"type": "node", "id": 12430131944, "lat": 12.9757941, "lon": 77.5481223}, {"type": "node", "id": 12466442937, "lat": 12.9463785, "lon": 77.5680606, "tags": {"amenity": "fuel", "brand": "Indian Oil", "brand:wikidata": "Q1289348", "check_date": "2025-01-01", "name": "Indian Oil"}}, {"type": "node", "id": 12468364665, "lat": 13.0396449, "lon": 77.6383384}, {"type": "node", "id": 12468364666, "lat": 13.0396097, "lon": 77.6385851}, {"type": "node", "id": 12468364667, "lat": 13.0397638, "lon": 77.6385898}, {"type": "node", "id": 12468364668, "lat": 13.0397952, "lon": 77.6383658}, {"type": "node", "id": 12475624544, "lat": 12.9589436, "lon": 77.5558115}, {"type": "node", "id": 12475624545, "lat": 12.9590318, "lon": 77.5559442}, {"type": "node", "id": 12475624546, "lat": 12.9592808, "lon": 77.5557645}, {"type": "node", "id": 12485916637, "lat": 13.0560439, "lon": 77.6321887}, {"type": "node", "id": 12485916638, "lat": 13.0560125, "lon": 77.6324013}, {"type": "node", "id": 12485916639, "lat": 13.0560511, "lon": 77.632471}, {"type": "node", "id": 12485916640, "lat": 13.0561085, "lon": 77.6326923}, {"type": "node", "id": 12485916641, "lat": 13.056251, "lon": 77.6326863}, {"type": "node", "id": 12485916642, "lat": 13.0562294, "lon": 77.6321907}, {"type": "node", "id": 12508477874, "lat": 13.0555303, "lon": 77.5073488}, {"type": "node", "id": 12508477875, "lat": 13.0554553, "lon": 77.506965}, {"type": "node", "id": 12508477876, "lat": 13.0552441, "lon": 77.5069671}, {"type": "node", "id": 12508477877, "lat": 13.0552637, "lon": 77.5073801}, {"type": "node", "id": 12512424288, "lat": 12.8972343, "lon": 77.5702096}, {"type": "node", "id": 12512424289, "lat": 12.8968905, "lon": 77.5707225}, {"type": "node", "id": 12512424290, "lat": 12.8971323, "lon": 77.5709371}, {"type": "node", "id": 12512424291, "lat": 12.8973787, "lon": 77.570288}, {"type": "node", "id": 12513657959, "lat": 12.9757761, "lon": 77.5572413}, {"type": "node", "id": 12513657960, "lat": 12.9757961, "lon": 77.5575361}, {"type": "node", "id": 12513657961, "lat": 12.976071, "lon": 77.5575165}, {"type": "node", "id": 12513657962, "lat": 12.9760509, "lon": 77.5572217}, {"type": "node", "id": 12523150993, "lat": 12.988711, "lon": 77.5085531}, {"type": "node", "id": 12523150994, "lat": 12.9883305, "lon": 77.5084926}, {"type": "node", "id": 12523150995, "lat": 12.9883567, "lon": 77.5088614}, {"type": "node", "id": 12523150996, "lat": 12.9883881, "lon": 77.508899}, {"type": "node", "id": 12523178615, "lat": 12.9882558, "lon": 77.5100801}, {"type": "node", "id": 12523178616, "lat": 12.9886873, "lon": 77.5101261}, {"type": "node", "id": 12523178617, "lat": 12.9886494, "lon": 77.5097492}, {"type": "node", "id": 12526337287, "lat": 12.9898002, "lon": 77.5742488}, {"type": "node", "id": 12526337288, "lat": 12.989877, "lon": 77.5739941}, {"type": "node", "id": 12526337289, "lat": 12.9901377, "lon": 77.5740769}, {"type": "node", "id": 12532117051, "lat": 12.9285977, "lon": 77.600998}, {"type": "node", "id": 12532117052, "lat": 12.9283565, "lon": 77.6009812}, {"type": "node", "id": 12532117053, "lat": 12.9283806, "lon": 77.6006164}, {"type": "node", "id": 12532200080, "lat": 12.9368845, "lon": 77.5849418}, {"type": "node", "id": 12532200081, "lat": 12.9367876, "lon": 77.5848089}, {"type": "node", "id": 12560755497, "lat": 12.9600064, "lon": 77.6457581, "tags": {"addr:city": "Bengaluru, Karnataka", "addr:district": "Bangalore", "addr:postcode": "560008", "addr:street": "HAL Old Airport Road", "amenity": "fuel", "brand": "Indian Oil", "brand:wikidata": "Q1289348", "compressed_air": "yes", "name": "Indian Oil"}}, {"type": "node", "id": 12625023606, "lat": 13.0150994, "lon": 77.6282197}, {"type": "node", "id": 12625023607, "lat": 13.0151634, "lon": 77.6279984}, {"type": "node", "id": 12625023608, "lat": 13.014729, "lon": 77.6278757}, {"type": "node", "id": 12627848490, "lat": 13.0256092, "lon": 77.6301067}, {"type": "node", "id": 12627848491, "lat": 13.0257732, "lon": 77.6305499}, {"type": "node", "id": 12627848492, "lat": 13.0258568, "lon": 77.6301918}, {"type": "node", "id": 12632041822, "lat": 12.8989873, "lon": 77.6582672}, {"type": "node", "id": 12632041823, "lat": 12.8991546, "lon": 77.6585931}, {"type": "node", "id": 12632041824, "lat": 12.8992122, "lon": 77.6583161}, {"type": "node", "id": 12635770918, "lat": 13.012735, "lon": 77.6429873}, {"type": "node", "id": 12635770919, "lat": 13.0129088, "lon": 77.6430041}, {"type": "node", "id": 12635770920, "lat": 13.0129454, "lon": 77.6428767}, {"type": "node", "id": 12635770921, "lat": 13.0129512, "lon": 77.6426577}, {"type": "node", "id": 12635770922, "lat": 13.0127324, "lon": 77.642707}, {"type": "node", "id": 12637898191, "lat": 13.0132017, "lon": 77.6355373}, {"type": "node", "id": 12637898192, "lat": 13.0131645, "lon": 77.6357928}, {"type": "node", "id": 12637898193, "lat": 13.0133661, "lon": 77.6358238}, {"type": "node", "id": 12637898194, "lat": 13.0134033, "lon": 77.6355683}, {"type": "node", "id": 12638135168, "lat": 13.0097447, "lon": 77.6439211}, {"type": "node", "id": 12640036841, "lat": 13.0083629, "lon": 77.6426668}, {"type": "node", "id": 12640036842, "lat": 13.0083622, "lon": 77.6428425}, {"type": "node", "id": 12640036843, "lat": 13.0087111, "lon": 77.6428465}, {"type": "node", "id": 12655819144, "lat": 13.0045447, "lon": 77.6535847}, {"type": "node", "id": 12655819145, "lat": 13.0044872, "lon": 77.6538911}, {"type": "node", "id": 12655819146, "lat": 13.0046394, "lon": 77.6539186}, {"type": "node", "id": 12655819147, "lat": 13.0048792, "lon": 77.6536578}, {"type": "node", "id": 12655860549, "lat": 13.0145748, "lon": 77.6617521}, {"type": "node", "id": 12657930562, "lat": 13.0112971, "lon": 77.6463184}, {"type": "node", "id": 12657930563, "lat": 13.0110318, "lon": 77.6465196}, {"type": "node", "id": 12657930564, "lat": 13.0108774, "lon": 77.6463051}, {"type": "node", "id": 12688134184, "lat": 13.0028506, "lon": 77.553479}, {"type": "node", "id": 12688134185, "lat": 13.0028499, "lon": 77.5537545}, {"type": "node", "id": 12688134186, "lat": 13.0030254, "lon": 77.5537697}, {"type": "node", "id": 12697888478, "lat": 13.0036724, "lon": 77.6576147}, {"type": "node", "id": 12697888479, "lat": 13.0040971, "lon": 77.6574551}, {"type": "node", "id": 12698738360, "lat": 12.9470037, "lon": 77.5322878}, {"type": "node", "id": 12698738361, "lat": 12.9464913, "lon": 77.5323576}, {"type": "node", "id": 12717756092, "lat": 12.9360398, "lon": 77.5156255}, {"type": "node", "id": 12717756093, "lat": 12.9357565, "lon": 77.5156444}, {"type": "node", "id": 12800711221, "lat": 13.0525097, "lon": 77.6751161}, {"type": "node", "id": 12800711222, "lat": 13.052389, "lon": 77.6754017}, {"type": "node", "id": 12800711223, "lat": 13.05262, "lon": 77.6755615}, {"type": "node", "id": 12800711224, "lat": 13.0527276, "lon": 77.6752436}, {"type": "node", "id": 12828421912, "lat": 13.0221931, "lon": 77.6079731}, {"type": "node", "id": 12828421913, "lat": 13.0220828, "lon": 77.6083312}, {"type": "node", "id": 12828421914, "lat": 13.0223316, "lon": 77.6084016}, {"type": "node", "id": 12828421915, "lat": 13.0224283, "lon": 77.6080415}, {"type": "node", "id": 12828718760, "lat": 13.0245979, "lon": 77.5851897}, {"type": "node", "id": 12836144928, "lat": 13.018481, "lon": 77.5920461}, {"type": "node", "id": 12836144929, "lat": 13.0186397, "lon": 77.5920977}, {"type": "node", "id": 12836144930, "lat": 13.0187018, "lon": 77.591857}, {"type": "node", "id": 12841376382, "lat": 13.0300124, "lon": 77.607955}, {"type": "node", "id": 12841376383, "lat": 13.030226, "lon": 77.6080227}, {"type": "node", "id": 12841376384, "lat": 13.0302665, "lon": 77.6079154}, {"type": "node", "id": 12895444269, "lat": 12.9435812, "lon": 77.5387368}, {"type": "node", "id": 12895444270, "lat": 12.9435871, "lon": 77.5389022}, {"type": "node", "id": 12895444271, "lat": 12.9437904, "lon": 77.5388945}, {"type": "node", "id": 12895444272, "lat": 12.9437845, "lon": 77.5387292}, {"type": "node", "id": 12915151600, "lat": 13.0311175, "lon": 77.6301995, "tags": {"amenity": "fuel", "check_date": "2025-06-14", "name": "Gail Gas"}}, {"type": "node", "id": 12920529207, "lat": 13.0125037, "lon": 77.666871}, {"type": "node", "id": 12920529208, "lat": 13.0125815, "lon": 77.6665257}, {"type": "node", "id": 12920529209, "lat": 13.0122581, "lon": 77.6668134}, {"type": "node", "id": 12941892981, "lat": 13.0252988, "lon": 77.6400749, "tags": {"amenity": "fuel", "check_date": "2025-06-21", "name": "Premier"}}, {"type": "node", "id": 12952280496, "lat": 12.9919425, "lon": 77.6148724}, {"type": "node", "id": 12952280497, "lat": 12.9920124, "lon": 77.6147061}, {"type": "node", "id": 12952280498, "lat": 12.9917252, "lon": 77.6145962}, {"type": "node", "id": 12952280499, "lat": 12.9916556, "lon": 77.6147483}, {"type": "node", "id": 12959707383, "lat": 13.0155992, "lon": 77.6666296}, {"type": "node", "id": 12959707384, "lat": 13.0156149, "lon": 77.6663983}, {"type": "node", "id": 12959707385, "lat": 13.0152327, "lon": 77.6663399}, {"type": "node", "id": 12959714467, "lat": 13.0103582, "lon": 77.6808205}, {"type": "node", "id": 12959714537, "lat": 13.0119549, "lon": 77.6728047}, {"type": "node", "id": 12959714538, "lat": 13.0120016, "lon": 77.6724873}, {"type": "node", "id": 12959714539, "lat": 13.0116354, "lon": 77.6724426}, {"type": "node", "id": 12959715440, "lat": 13.0184986, "lon": 77.677905}, {"type": "node", "id": 12959715441, "lat": 13.0181778, "lon": 77.6779271}, {"type": "node", "id": 12959715442, "lat": 13.0181661, "lon": 77.6781122}, {"type": "node", "id": 12959715872, "lat": 13.0099766, "lon": 77.6809224}, {"type": "node", "id": 12959715881, "lat": 13.0102561, "lon": 77.6822863}, {"type": "node", "id": 12959715882, "lat": 13.0105163, "lon": 77.6819933}, {"type": "node", "id": 12959715883, "lat": 13.0102913, "lon": 77.6818014}, {"type": "node", "id": 12961515848, "lat": 13.0098541, "lon": 77.6440769}, {"type": "node", "id": 12961515849, "lat": 13.0099599, "lon": 77.6437816}, {"type": "node", "id": 12961515850, "lat": 13.0098271, "lon": 77.643729}, {"type": "node", "id": 12969201970, "lat": 12.8987232, "lon": 77.6333575}, {"type": "node", "id": 12969201971, "lat": 12.8988814, "lon": 77.6333079}, {"type": "node", "id": 12969201972, "lat": 12.8989507, "lon": 77.633552}, {"type": "node", "id": 12969201973, "lat": 12.8988082, "lon": 77.6336525}, {"type": "node", "id": 12969201974, "lat": 12.8987468, "lon": 77.633446}, {"type": "node", "id": 12990000277, "lat": 12.9664054, "lon": 77.5054831}, {"type": "node", "id": 12990000278, "lat": 12.9666587, "lon": 77.5055708}, {"type": "node", "id": 12990000279, "lat": 12.9667584, "lon": 77.5052424}, {"type": "node", "id": 12990000280, "lat": 12.9658892, "lon": 77.5047729}, {"type": "node", "id": 12990000281, "lat": 12.9660611, "lon": 77.5044333}, {"type": "node", "id": 12990000282, "lat": 12.9658469, "lon": 77.5043655}, {"type": "node", "id": 12990000283, "lat": 12.9656891, "lon": 77.5047126}, {"type": "node", "id": 13013033630, "lat": 12.9615045, "lon": 77.6347858}, {"type": "node", "id": 13013033631, "lat": 12.9612989, "lon": 77.6344609}, {"type": "node", "id": 13041261094, "lat": 13.0554874, "lon": 77.6638276}, {"type": "node", "id": 13041261095, "lat": 13.0551862, "lon": 77.6637892}, {"type": "node", "id": 13041261096, "lat": 13.055522, "lon": 77.6635417}, {"type": "node", "id": 13043171806, "lat": 13.0383867, "lon": 77.5645462}, {"type": "node", "id": 13043171807, "lat": 13.0381336, "lon": 77.5646004}, {"type": "node", "id": 13043171808, "lat": 13.0382365, "lon": 77.5648686}, {"type": "node", "id": 13072830043, "lat": 12.9272566, "lon": 77.5896777}, {"type": "node", "id": 13072830044, "lat": 12.9277376, "lon": 77.589726}, {"type": "node", "id": 13072830045, "lat": 12.927233, "lon": 77.5896214}, {"type": "node", "id": 13074467225, "lat": 12.9166219, "lon": 77.6200579}, {"type": "node", "id": 13095825012, "lat": 13.0378516, "lon": 77.6755673}, {"type": "node", "id": 13095825013, "lat": 13.0377444, "lon": 77.6753169}, {"type": "node", "id": 13095825014, "lat": 13.0374451, "lon": 77.6754895}, {"type": "node", "id": 13127586335, "lat": 12.9121246, "lon": 77.5139817}, {"type": "node", "id": 13127586336, "lat": 12.9123942, "lon": 77.514026}, {"type": "node", "id": 13127586337, "lat": 12.9124334, "lon": 77.5137296}, {"type": "node", "id": 13127983961, "lat": 12.9324095, "lon": 77.5160756}, {"type": "node", "id": 13127983962, "lat": 12.932331, "lon": 77.5161862}, {"type": "node", "id": 13127983963, "lat": 12.932512, "lon": 77.5163216}, {"type": "node", "id": 13180138011, "lat": 12.8963885, "lon": 77.5712114}, {"type": "node", "id": 13180138020, "lat": 12.8966087, "lon": 77.5712885}, {"type": "node", "id": 13180138021, "lat": 12.8967349, "lon": 77.5709445}, {"type": "node", "id": 13180138036, "lat": 12.8963702, "lon": 77.5711758}, {"type": "node", "id": 13180138037, "lat": 12.8964953, "lon": 77.5707829}, {"type": "node", "id": 13233884740, "lat": 12.9241398, "lon": 77.614799}, {"type": "node", "id": 13233884741, "lat": 12.924256, "lon": 77.6144146}, {"type": "node", "id": 13233884742, "lat": 12.9243957, "lon": 77.614459}, {"type": "node", "id": 13242861694, "lat": 12.9445112, "lon": 77.5295117}, {"type": "node", "id": 13242861695, "lat": 12.9444197, "lon": 77.529206}, {"type": "node", "id": 13242861696, "lat": 12.9442968, "lon": 77.5296995}, {"type": "node", "id": 13242861697, "lat": 12.9442458, "lon": 77.5292127}, {"type": "node", "id": 13242861698, "lat": 12.9440498, "lon": 77.5298966}, {"type": "node", "id": 13278089308, "lat": 12.9039458, "lon": 77.508523}, {"type": "node", "id": 13278089309, "lat": 12.9040476, "lon": 77.5085505}, {"type": "node", "id": 13278089310, "lat": 12.9042614, "lon": 77.5084748}, {"type": "node", "id": 13278089311, "lat": 12.9043051, "lon": 77.5085264}, {"type": "node", "id": 13278089312, "lat": 12.9042912, "lon": 77.5086407}, {"type": "node", "id": 13278089313, "lat": 12.9041159, "lon": 77.5087641}, {"type": "node", "id": 13278089314, "lat": 12.9039603, "lon": 77.5088146}, {"type": "node", "id": 13299123208, "lat": 13.014797, "lon": 77.661934, "tags": {"addr:full": "113/2, Narmada Colony, Vijaya Bank Colony, Banaswadi, near to Vijaya Bank Colony, Bengaluru, Karnataka, 560043", "addr:postcode": "560043", "addr:state": "Karnataka", "amenity": "fuel", "brand": "Indian Oil", "brand:wikidata": "Q1289348", "compressed_air": "yes", "opening_hours": "Mo-Su 06:00-22:00", "phone": "+918025491499", "website": "https://locator.iocl.com/indianoil-sree-bhalajie-enterprises-petrol-pump-banaswadi-bengaluru-199945/Home"}}, {"type": "way", "id": 98192078, "nodes": [1135950143, 1135950147, 1135950154, 1135950157, 1135950143], "tags": {"amenity": "fuel", "brand": "Bharat Petroleum", "brand:wikidata": "Q854826", "brand:wikipedia": "en:Bharat Petroleum", "compressed_air": "yes", "fuel:diesel": "yes", "fuel:octane_91": "yes", "fuel:octane_95": "yes", "fuel:octane_98": "yes", "name": "Bharat Petroleum", "name:kn": "\u0cad\u0cbe\u0cb0\u0ca4\u0ccd \u0caa\u0cc6\u0c9f\u0ccd\u0cb0\u0ccb\u0cb2\u0cbf\u0caf\u0c82"}}, {"type": "way", "id": 182175819, "nodes": [1925211705, 1809856746, 1925211769, 1925211685, 1925211622, 1558155503, 1925211621, 1925211705], "tags": {"amenity": "fuel", "brand": "Shell", "brand:wikidata": "Q110716465", "compressed_air": "yes", "landuse": "commercial", "name": "Shell"}}, {"type": "way", "id": 192043993, "nodes": [2026069830, 2026069823, 2026069828, 2026069830], "tags": {"amenity": "fuel", "brand": "Indian Oil", "brand:wikidata": "Q1289348", "check_date": "2024-03-02", "name": "Indian Oil", "name:kn": "\u0c87\u0c82\u0ca1\u0cbf\u0caf\u0ca8\u0ccd \u0c86\u0caf\u0cbf\u0cb2\u0ccd", "operator": "Indian Oil"}}, {"type": "way", "id": 208701344, "nodes": [665072895, 665072892, 665072891, 2189718318, 665072895], "tags": {"alt_name": "Bowring Service Station", "amenity": "fuel", "brand": "Indian Oil", "brand:wikidata": "Q1289348", "name": "Indian Oil", "name:kn": "\u0c87\u0c82\u0ca1\u0cbf\u0caf\u0ca8\u0ccd \u0c86\u0caf\u0cbf\u0cb2\u0ccd"}}, {"type": "way", "id": 213350081, "nodes": [2230679780, 2230679786, 2230679784, 2230679790, 2230679780], "tags": {"amenity": "fuel", "brand": "Indian Oil", "brand:wikidata": "Q1289348", "brand:wikipedia": "en:Indian Oil Corporation", "name": "Indian Oil Fuel", "operator": "IOC", "toilets:wheelchair": "no", "wheelchair": "limited"}}, {"type": "way", "id": 232239123, "nodes": [3298627363, 3298627366, 3298627364, 3298627363], "tags": {"amenity": "fuel", "brand": "Indian Oil", "brand:wikidata": "Q1289348", "check_date": "2024-10-05", "compressed_air": "yes", "name": "Sowbhagya Fuel Station"}}, {"type": "way", "id": 236814769, "nodes": [2447849295, 2447849292, 2447849294, 2447849293, 2447849295], "tags": {"amenity": "fuel", "brand": "Hindustan Petroleum", "brand:wikidata": "Q1619375", "name": "HP", "name:kn": "\u0cb9\u0cbf\u0c82\u0ca6\u0cc1\u0cb8\u0ccd\u0ca4\u0cbe\u0ca8\u0ccd \u0caa\u0cc6\u0c9f\u0ccd\u0cb0\u0ccb\u0cb2\u0cbf\u0caf\u0c82", "official_name": "Hindustan Petroleum"}}, {"type": "way", "id": 243623620, "nodes": [2510065682, 2510065654, 2510065688, 2510065618, 2510065682], "tags": {"addr:city": "Bengaluru", "addr:housenumber": "8", "addr:postcode": "560068", "addr:street": "Kodichikkanahalli Road, Seenappa Layout, Cauvery Nagar, Bommanahalli", "amenity": "fuel", "brand": "Hindustan Petroleum", "brand:wikidata": "Q1619375", "building": "office", "name": "HP", "official_name": "Hindustan Petroleum"}}, {"type": "way", "id": 249661874, "nodes": [2562420274, 2562420275, 2562420276, 2562420278, 2562420274], "tags": {"amenity": "fuel", "brand": "Hindustan Petroleum", "brand:wikidata": "Q1619375", "name": "Hindustan Petroleum", "name:kn": "\u0cb9\u0cbf\u0c82\u0ca6\u0cc1\u0cb8\u0ccd\u0ca4\u0cbe\u0ca8\u0ccd \u0caa\u0cc6\u0c9f\u0ccd\u0cb0\u0ccb\u0cb2\u0cbf\u0caf\u0c82", "official_name": "Hindustan Petroleum", "operator": "Hindustan Petroleum"}}, {"type": "way", "id": 311368523, "nodes": [3170048774, 3170048775, 3170048776, 3170048777, 3329646420, 3170048774], "tags": {"amenity": "fuel", "brand": "Indian Oil", "brand:wikidata": "Q1289348", "compressed_air": "yes", "name": "Indian Oil"}}, {"type": "way", "id": 323104302, "nodes": [3298960998, 316993736, 3298961009, 1485636674, 3298960998], "tags": {"addr:street": "HAL Airport Road", "amenity": "fuel", "brand": "Indian Oil", "brand:wikidata": "Q1289348", "brand:wikipedia": "en:Indian Oil Corporation", "compressed_air": "yes", "name": "Indian Oil", "name:kn": "\u0c87\u0c82\u0ca1\u0cbf\u0caf\u0ca8\u0ccd \u0c86\u0caf\u0cbf\u0cb2\u0ccd"}}, {"type": "way", "id": 327551791, "nodes": [3343549806, 3343549807, 3343549793, 3343549670, 3343549806], "tags": {"addr:city": "Bengaluru", "addr:street": "Kasturba Road", "amenity": "fuel", "brand": "Hindustan Petroleum", "brand:wikidata": "Q1619375", "compressed_air": "yes", "landuse": "commercial", "name": "HP", "name:kn": "\u0cb9\u0cbf\u0c82\u0ca6\u0cc1\u0cb8\u0ccd\u0ca4\u0cbe\u0ca8\u0ccd \u0caa\u0cc6\u0c9f\u0ccd\u0cb0\u0ccb\u0cb2\u0cbf\u0caf\u0c82", "official_name": "Hindustan Petroleum"}}, {"type": "way", "id": 346427859, "nodes": [3529656222, 3529656219, 3529656213, 3529656218, 3529656222], "tags": {"amenity": "fuel"}}, {"type": "way", "id": 346825827, "nodes": [3533032284, 3533032285, 9870845393, 3533031869, 3533031868, 3533032284], "tags": {"addr:street": "Modi Hospital Road", "amenity": "fuel", "brand": "Bharat Petroleum", "brand:wikidata": "Q854826", "name": "Bharat Petroleum", "name:kn": "\u0cad\u0cbe\u0cb0\u0ca4\u0ccd \u0caa\u0cc6\u0c9f\u0ccd\u0cb0\u0ccb\u0cb2\u0cbf\u0caf\u0c82"}}, {"type": "way", "id": 347017466, "nodes": [3534675097, 7476705453, 3534675099, 3534674980, 3534674979, 3534675097], "tags": {"amenity": "fuel", "brand": "Shell", "brand:wikidata": "Q110716465", "brand:wikipedia": "en:Royal Dutch Shell", "compressed_air": "yes", "fuel:diesel": "yes", "fuel:unleaded": "yes", "name": "Shell", "name:kn": "\u0cb6\u0cc6\u0cb2\u0ccd", "opening_hours": "24/7", "wheelchair": "yes"}}, {"type": "way", "id": 347019214, "nodes": [3534695655, 3534695663, 3534695662, 4631318301, 3803141154, 3534695655], "tags": {"addr:city": "Kodihalli, Bangalore", "addr:street": "HAL Airport Road", "amenity": "fuel", "brand": "Hindustan Petroleum", "brand:wikidata": "Q1619375", "check_date": "2024-12-17", "compressed_air": "yes", "name": "HP", "name:kn": "\u0cb9\u0cbf\u0c82\u0ca6\u0cc1\u0cb8\u0ccd\u0ca4\u0cbe\u0ca8\u0ccd \u0caa\u0cc6\u0c9f\u0ccd\u0cb0\u0ccb\u0cb2\u0cbf\u0caf\u0c82", "official_name": "Hindustan Petroleum", "wheelchair": "yes"}}, {"type": "way", "id": 347026579, "nodes": [12625023608, 3534749996, 3534750004, 12625023607, 12625023608], "tags": {"amenity": "fuel", "brand": "Essar", "brand:wikidata": "Q5399372", "name": "Essar"}}, {"type": "way", "id": 347476203, "nodes": [3537757900, 3537757901, 3537757899, 3537757898, 3537757900], "tags": {"addr:street": "Netaji Road", "amenity": "fuel", "brand": "Bharat Petroleum", "brand:wikidata": "Q854826", "building": "yes", "name": "Bharat Petroleum", "name:kn": "\u0cad\u0cbe\u0cb0\u0ca4\u0ccd \u0caa\u0cc6\u0c9f\u0ccd\u0cb0\u0ccb\u0cb2\u0cbf\u0caf\u0c82"}}, {"type": "way", "id": 347520080, "nodes": [3538005158, 3538005157, 3538004751, 3538004755, 3538005158], "tags": {"amenity": "fuel", "brand": "Bharat Petroleum", "brand:wikidata": "Q854826", "name": "Bharat Petroleum", "name:en": "Bharat Petroleum", "name:kn": "\u0cad\u0cbe\u0cb0\u0ca4 \u0caa\u0cc6\u0c9f\u0ccd\u0cb0\u0ccb\u0cb2\u0cbf\u0caf\u0c82"}}, {"type": "way", "id": 348101723, "nodes": [3543199603, 3543199602, 3543199598, 3543199599, 3543199603], "tags": {"addr:city": "Bangalore", "addr:postcode": "560070", "addr:street": "Puttalingaiah Road", "amenity": "fuel", "fuel:diesel": "yes", "fuel:petrol": "yes", "name": "Bharath Petrol Bunk", "name:kn": "\u0cad\u0cbe\u0cb0\u0ca4\u0ccd \u0caa\u0cc6\u0c9f\u0ccd\u0cb0\u0ccb\u0cb2\u0cbf\u0caf\u0c82", "opening_hours": "07:00-21:00"}}, {"type": "way", "id": 348204163, "nodes": [3543743411, 3543743410, 6024722711, 3543743408, 6024722712, 3543743409, 3543743411], "tags": {"amenity": "fuel", "brand": "Bharath Petroleum", "compressed_air": "yes", "name": "Advaith", "name:kn": "\u0c85\u0ca6\u0ccd\u0cb5\u0cc8\u0ca4", "wheelchair": "limited"}}, {"type": "way", "id": 348287689, "nodes": [3544299089, 3544299062, 3544299034, 3544299063, 3544299089], "tags": {"amenity": "fuel", "brand": "Nayara", "brand:wikidata": "Q5399377", "building": "yes", "name": "Mamtha Petroleum"}}, {"type": "way", "id": 348457949, "nodes": [3546011271, 3546011274, 3546011270, 3546011264, 3546011271], "tags": {"addr:street": "Hosur Road", "amenity": "fuel", "brand": "Bharat Petroleum", "brand:wikidata": "Q854826", "brand:wikipedia": "en:Bharat Petroleum", "compressed_air": "yes", "fuel:diesel": "yes", "fuel:engine_oil": "yes", "fuel:petrol": "yes", "name": "Bharat Petroleum", "name:kn": "\u0cad\u0cbe\u0cb0\u0ca4\u0ccd \u0caa\u0cc6\u0c9f\u0ccd\u0cb0\u0ccb\u0cb2\u0cbf\u0caf\u0c82", "operator": "Bharat Petroleum", "self_service": "no"}}, {"type": "way", "id": 348997452, "nodes": [1110178891, 3549860826, 3549860814, 3549860815, 1110178891], "tags": {"amenity": "fuel", "brand": "Shell", "brand:wikidata": "Q110716465", "compressed_air": "yes", "name": "Shell", "name:kn": "\u0cb6\u0cc6\u0cb2\u0ccd", "operator": "Shell"}}, {"type": "way", "id": 363458473, "nodes": [3676237846, 3676237847, 1808871391, 3676237845, 3676237846], "tags": {"amenity": "fuel", "brand": "Indian Oil", "brand:wikidata": "Q1289348", "compressed_air": "yes", "name": "Indian Oil"}}, {"type": "way", "id": 368723168, "nodes": [3389131732, 3725701354, 3725701357, 3725701356, 3389131731, 3389131732], "tags": {"amenity": "fuel", "brand": "Total", "brand:wikidata": "Q154037", "name": "Total"}}, {"type": "way", "id": 370381638, "nodes": [2406875502, 3740872072, 3740872069, 3740872068, 3740872079, 2406875489, 2406875502], "tags": {"amenity": "fuel", "brand": "Indian Oil", "brand:wikidata": "Q1289348", "brand:wikipedia": "en:Indian Oil Corporation", "check_date": "2025-04-06", "compressed_air": "yes", "fuel:diesel": "yes", "fuel:petrol": "yes", "name": "Devaraj Enterprises", "name:kn": "\u0c87\u0c82\u0ca1\u0cbf\u0caf\u0ca8\u0ccd \u0c86\u0caf\u0cbf\u0cb2\u0ccd", "operator": "Indian Oil", "self_service": "no", "source": "survey"}}, {"type": "way", "id": 370388046, "nodes": [3740940829, 3740940827, 3740940828, 3740940833, 3740940829], "tags": {"amenity": "fuel", "brand": "Indian Oil", "brand:wikidata": "Q1289348", "compressed_air": "yes", "fuel:diesel": "yes", "fuel:lpg": "yes", "fuel:petrol": "yes", "name": "Kaveri Petrol"}}, {"type": "way", "id": 371381438, "nodes": [3749540568, 3749540560, 3749540561, 3749540570, 3749540568], "tags": {"amenity": "fuel", "brand": "Indian Oil", "brand:wikidata": "Q1289348", "brand:wikipedia": "en:Indian Oil Corporation", "compressed_air": "yes", "name": "Indian Oil", "name:kn": "\u0c87\u0c82\u0ca1\u0cbf\u0caf\u0ca8\u0ccd \u0c86\u0caf\u0cbf\u0cb2\u0ccd", "opening_hours": "24/7"}}, {"type": "way", "id": 371381439, "nodes": [3749540563, 3749540564, 7436454581, 3749540565, 3749540566, 3692892627, 3692892626, 3749540571, 3749540563], "tags": {"amenity": "fuel", "brand": "Bharat Petroleum", "brand:wikidata": "Q854826", "brand:wikipedia": "en:Bharat Petroleum", "compressed_air": "yes", "name": "Bharat Petroleum", "name:kn": "\u0cad\u0cbe\u0cb0\u0ca4\u0ccd \u0caa\u0cc6\u0c9f\u0ccd\u0cb0\u0ccb\u0cb2\u0cbf\u0caf\u0c82"}}, {"type": "way", "id": 400448361, "nodes": [4030013380, 4030013379, 4030013381, 4030013382, 4030013380], "tags": {"addr:floor": "G", "addr:street": "Sankey Road", "amenity": "fuel", "brand": "Hindustan Petroleum", "brand:wikidata": "Q1619375", "check_date": "2025-08-08", "compressed_air": "yes", "fuel:diesel": "yes", "fuel:petrol": "yes", "level": "0", "name": "HP", "name:kn": "\u0cb9\u0cbf\u0c82\u0ca6\u0cc1\u0cb8\u0ccd\u0ca4\u0cbe\u0ca8\u0ccd \u0caa\u0cc6\u0c9f\u0ccd\u0cb0\u0ccb\u0cb2\u0cbf\u0caf\u0c82", "official_name": "Hindustan Petroleum", "opening_hours": "24/7", "self_service": "no"}}, {"type": "way", "id": 408938058, "nodes": [4108406428, 4108406429, 4108406420, 4108406419, 4108406428], "tags": {"amenity": "fuel", "brand": "Shell", "brand:wikidata": "Q110716465", "compressed_air": "yes", "name": "Shell", "name:kn": "\u0cb6\u0cc6\u0cb2\u0ccd", "operator": "Shell"}}, {"type": "way", "id": 460225726, "nodes": [4558992251, 4558992250, 325156163, 4558992254, 4558992251], "tags": {"addr:city": "Kodihalli, Bangalore", "addr:street": "HAL Airport Road", "amenity": "fuel", "brand": "Bharat Petroleum", "brand:wikidata": "Q854826", "check_date": "2024-12-17", "compressed_air": "yes", "fuel:diesel": "yes", "landuse": "retail", "name": "Bharat Petroleum", "name:kn": "\u0cad\u0cbe\u0cb0\u0ca4\u0ccd \u0caa\u0cc6\u0c9f\u0ccd\u0cb0\u0ccb\u0cb2\u0cbf\u0caf\u0c82", "wheelchair": "yes"}}, {"type": "way", "id": 511710441, "nodes": [5004818187, 5004818188, 5004818189, 5004818190, 5004818187], "tags": {"addr:city": "Bengaluru", "addr:postcode": "560035", "addr:street": "Sarjapura Road", "amenity": "fuel", "brand": "Bharat Petroleum", "brand:wikidata": "Q854826", "brand:wikipedia": "en:Bharat Petroleum", "capacity": "8", "compressed_air": "yes", "description": "Open 24/7, Free air, Good service, Pollution check and engine-oil change facilities available", "fuel:diesel": "yes", "fuel:petrol": "yes", "name": "JSN Petrol Pump", "opening_hours": "24/7", "operator": "Bharat Petroleum", "payment:cash": "yes", "payment:credit_cards": "yes", "self_service": "no"}}, {"type": "way", "id": 610116132, "nodes": [5778453915, 5778453916, 5778453917, 5778453918, 5778453919, 5778453920, 5778453921, 5778453922, 5778453923, 5778453915], "tags": {"amenity": "fuel", "brand": "Indian Oil", "brand:wikidata": "Q1289348", "brand:wikipedia": "en:Indian Oil Corporation", "compressed_air": "yes", "fuel:diesel": "yes", "fuel:petrol": "yes", "name": "Indian Oil", "name:kn": "\u0c87\u0c82\u0ca1\u0cbf\u0caf\u0ca8\u0ccd \u0c86\u0caf\u0cbf\u0cb2\u0ccd", "payment:cash": "yes", "payment:credit_cards": "yes"}}, {"type": "way", "id": 610462169, "nodes": [5781288010, 5781288011, 5781288012, 5781288013, 5781288014, 5781288010], "tags": {"amenity": "fuel", "brand": "Hindustan Petroleum", "brand:wikidata": "Q1619375", "brand:wikipedia": "en:Hindustan Petroleum", "compressed_air": "yes", "fuel:diesel": "yes", "fuel:petrol": "yes", "name": "HP Gas", "official_name": "Hindustan Petroleum", "opening_hours": "24/7"}}, {"type": "way", "id": 613381965, "nodes": [4393149077, 4393149076, 4393149075, 4393149074, 4393149077], "tags": {"amenity": "fuel", "brand": "Indian Oil", "brand:wikidata": "Q1289348", "brand:wikipedia": "en:Indian Oil Corporation", "fuel:diesel": "yes", "fuel:petrol": "yes", "name": "Indian Oil", "name:kn": "\u0c87\u0c82\u0ca1\u0cbf\u0caf\u0ca8\u0ccd \u0c86\u0caf\u0cbf\u0cb2\u0ccd"}}, {"type": "way", "id": 613469815, "nodes": [363192526, 5804526265, 5804526267, 5804526268, 363192526], "tags": {"amenity": "fuel", "brand": "Indian Oil", "brand:wikidata": "Q1289348", "brand:wikipedia": "en:Indian Oil Corporation", "fuel:diesel": "yes", "fuel:petrol": "yes", "name": "Indian Oil", "name:kn": "\u0c87\u0c82\u0ca1\u0cbf\u0caf\u0ca8\u0ccd \u0c86\u0caf\u0cbf\u0cb2\u0ccd"}}, {"type": "way", "id": 631047193, "nodes": [5958980592, 5958980593, 5958980594, 5958980595, 5958980592], "tags": {"amenity": "fuel", "brand": "Indian Oil", "brand:wikidata": "Q1289348", "name": "Indian Oil", "name:kn": "\u0c87\u0c82\u0ca1\u0cbf\u0caf\u0ca8\u0ccd \u0c86\u0caf\u0cbf\u0cb2\u0ccd"}}, {"type": "way", "id": 631197946, "nodes": [5960677852, 5960677853, 5960677854, 5960677855, 5960677852], "tags": {"amenity": "fuel", "brand": "Petronas", "brand:wikidata": "Q221692", "fuel:cng": "yes", "fuel:lpg": "yes", "name": "Petronas"}}, {"type": "way", "id": 631466626, "nodes": [5963407354, 5963407355, 5963407356, 5963407358, 5963407357, 5963407354], "tags": {"amenity": "fuel", "brand": "Shell", "brand:wikidata": "Q110716465", "brand:wikipedia": "en:Royal Dutch Shell", "compressed_air": "yes", "fuel:diesel": "yes", "fuel:petrol": "yes", "name": "Shell Petrol Bunk", "name:kn": "\u0cb6\u0cc6\u0cb2\u0ccd", "opening_hours": "24/7"}}, {"type": "way", "id": 635256290, "nodes": [5992871540, 5992871541, 5992871542, 5992871543, 5992871540], "tags": {"amenity": "fuel", "compressed_air": "yes"}}, {"type": "way", "id": 635317788, "nodes": [3740940829, 5993280660, 5993280661, 3740940827, 3740940829], "tags": {"amenity": "fuel", "brand": "Indian Oil", "brand:wikidata": "Q1289348", "brand:wikipedia": "en:Indian Oil Corporation", "compressed_air": "yes", "fuel:cng": "yes", "name": "Indian Oil", "name:kn": "\u0c87\u0c82\u0ca1\u0cbf\u0caf\u0ca8\u0ccd \u0c86\u0caf\u0cbf\u0cb2\u0ccd"}}, {"type": "way", "id": 638729638, "nodes": [6019408117, 254923103, 6019408119, 6019408120, 6019408117], "tags": {"addr:housenumber": "149/2", "amenity": "fuel", "brand": "Indian Oil", "brand:wikidata": "Q1289348", "brand:wikipedia": "en:Indian Oil Corporation", "compressed_air": "yes", "fuel:diesel": "yes", "fuel:unleaded": "yes", "name": "IOC Hamsa Service Station", "opening_hours": "Mo-Su 06:00-23:00", "operator": "Indian Oil"}}, {"type": "way", "id": 639010024, "nodes": [6021739975, 6021739976, 9920329664, 6021739979, 6021739975], "tags": {"amenity": "fuel", "brand": "Bharath Petroleum", "opening_hours": "Mo-Su 06:30-22:30", "operator": "Bharath Petroleum"}}, {"type": "way", "id": 639010029, "nodes": [6021741305, 6021741306, 6021741307, 6021741308, 6021741305], "tags": {"amenity": "fuel", "brand": "Bharat Petroleum", "brand:wikidata": "Q854826", "name": "Nandini Filling Station", "name:kn": "\u0cad\u0cbe\u0cb0\u0ca4\u0ccd \u0caa\u0cc6\u0c9f\u0ccd\u0cb0\u0ccb\u0cb2\u0cbf\u0caf\u0c82"}}, {"type": "way", "id": 639010032, "nodes": [1061341352, 6021741320, 6021741321, 6021741322, 1061341352], "tags": {"amenity": "fuel", "brand": "Indian Oil", "brand:wikidata": "Q1289348", "compressed_air": "yes", "name": "Indian Oil", "name:kn": "\u0c87\u0c82\u0ca1\u0cbf\u0caf\u0ca8\u0ccd \u0c86\u0caf\u0cbf\u0cb2\u0ccd", "opening_hours": "24/7", "wheelchair": "limited"}}, {"type": "way", "id": 655022860, "nodes": [11478655352, 6137450014, 6137450015, 6137450016, 11478655352], "tags": {"addr:city": "Bengaluru", "addr:housenumber": "415", "addr:postcode": "560102", "addr:street": "27th Main Road", "amenity": "fuel", "brand": "Bharat Petroleum", "brand:wikidata": "Q854826", "brand:wikipedia": "en:Bharat Petroleum", "check_date": "2025-11-26", "compressed_air": "yes", "landuse": "retail", "name": "Samahita Fuelling Station", "name:kn": "\u0cb8\u0cae\u0cbe\u0cb9\u0cbf\u0ca4 \u0cab\u0cc1\u0c8e\u0cb2\u0cbf\u0c82\u0c97\u0ccd \u0cb8\u0ccd\u0c9f\u0cc7\u0cb7\u0ca8\u0ccd", "source": "GEPTIS"}}, {"type": "way", "id": 672649586, "nodes": [6298984117, 6298984118, 6298984119, 6298984120, 6298984117], "tags": {"amenity": "fuel", "brand": "Indian Oil", "brand:wikidata": "Q1289348", "brand:wikipedia": "en:Indian Oil Corporation", "compressed_air": "yes", "fuel:diesel": "yes", "name": "Indian Oil", "name:kn": "\u0c87\u0c82\u0ca1\u0cbf\u0caf\u0ca8\u0ccd \u0c86\u0caf\u0cbf\u0cb2\u0ccd", "self_service": "no"}}, {"type": "way", "id": 688824194, "nodes": [6460998298, 6460998299, 6460998300, 6460998301, 6460998298], "tags": {"amenity": "fuel", "brand": "Shell", "brand:wikidata": "Q110716465", "brand:wikipedia": "en:Royal Dutch Shell", "compressed_air": "yes", "name": "Shell", "name:kn": "\u0cb6\u0cc6\u0cb2\u0ccd"}}, {"type": "way", "id": 688824197, "nodes": [6460998315, 6460998316, 6460998317, 6460998318, 6460998315], "tags": {"amenity": "fuel", "brand": "Hindustan Petroleum", "brand:wikidata": "Q1619375", "brand:wikipedia": "en:Hindustan Petroleum", "name": "Hindustan Petroleum", "name:kn": "\u0cb9\u0cbf\u0c82\u0ca6\u0cc1\u0cb8\u0ccd\u0ca4\u0cbe\u0ca8\u0ccd \u0caa\u0cc6\u0c9f\u0ccd\u0cb0\u0ccb\u0cb2\u0cbf\u0caf\u0c82", "official_name": "Hindustan Petroleum"}}, {"type": "way", "id": 691955486, "nodes": [6495032224, 6495032225, 6495032226, 6495032227, 6495032224], "tags": {"amenity": "fuel", "brand": "Indian Oil", "brand:wikidata": "Q1289348", "check_date": "2025-04-09", "compressed_air": "no", "name": "Propel Indianoil"}}, {"type": "way", "id": 691997512, "nodes": [6495482459, 6495482460, 6495482461, 6495482462, 6495482459], "tags": {"amenity": "fuel", "brand": "Indian Oil", "brand:wikidata": "Q1289348", "compressed_air": "yes", "name": "Indian Oil", "name:kn": "\u0c87\u0c82\u0ca1\u0cbf\u0caf\u0ca8\u0ccd \u0c86\u0caf\u0cbf\u0cb2\u0ccd"}}, {"type": "way", "id": 691997514, "nodes": [493556428, 6495482480, 6495482481, 308471827, 10853141983, 493556428], "tags": {"amenity": "fuel", "brand": "Indian Oil", "brand:wikidata": "Q1289348", "brand:wikipedia": "en:Indian Oil Corporation", "name": "Indian Oil", "name:kn": "\u0c87\u0c82\u0ca1\u0cbf\u0caf\u0ca8\u0ccd \u0c86\u0caf\u0cbf\u0cb2\u0ccd"}}, {"type": "way", "id": 692207409, "nodes": [6497456174, 13074467225, 6497456175, 6497456177, 6497456174], "tags": {"amenity": "fuel", "brand": "Indian Oil", "brand:wikidata": "Q1289348", "compressed_air": "yes", "name": "Indian Oil", "name:kn": "\u0c87\u0c82\u0ca1\u0cbf\u0caf\u0ca8\u0ccd \u0c86\u0caf\u0cbf\u0cb2\u0ccd"}}, {"type": "way", "id": 726125644, "nodes": [6807850490, 6807850491, 6807850492, 6807850493, 6807850494, 6807850495, 6807850490], "tags": {"amenity": "fuel", "name": "Petrol Bunk"}}, {"type": "way", "id": 727261795, "nodes": [6226329971, 6815596338, 6815596337, 7137042128, 6815596335, 6226329971], "tags": {"amenity": "fuel", "brand": "Indian Oil", "brand:wikidata": "Q1289348", "name": "Indian Oil", "name:kn": "\u0c87\u0c82\u0ca1\u0cbf\u0caf\u0ca8\u0ccd \u0c86\u0caf\u0cbf\u0cb2\u0ccd"}}, {"type": "way", "id": 727261796, "nodes": [1464749308, 6815596341, 1464749307, 6226329976, 1464749308], "tags": {"amenity": "fuel", "name": "Reliance", "name:kn": "\u0cb0\u0cbf\u0cb2\u0cbe\u0caf\u0ca8\u0ccd\u0cb8\u0ccd", "operator": "Reliance"}}, {"type": "way", "id": 755391108, "nodes": [7056126647, 7056126648, 7056126649, 7056126650, 7056126647], "tags": {"amenity": "fuel", "brand": "Shell", "brand:wikidata": "Q110716465", "brand:wikipedia": "en:Royal Dutch Shell", "compressed_air": "yes", "name": "Shell", "name:kn": "\u0cb6\u0cc6\u0cb2\u0ccd"}}, {"type": "way", "id": 772835106, "nodes": [7215593410, 445356045, 7215593405, 7215593409, 7215593410], "tags": {"amenity": "fuel", "compressed_air": "yes", "landuse": "retail", "name": "Aegis Autogas", "operator": "Aegis Autogas"}}, {"type": "way", "id": 772934851, "nodes": [7216699942, 7216699941, 7216699940, 7216699939, 7216699938, 7216699937, 10135158366, 7216699936, 7216699935, 7216699942], "tags": {"alt_name": "Jay Hanuman Service Station", "amenity": "fuel", "brand": "Indian Oil", "brand:wikidata": "Q1289348", "building": "roof", "layer": "1", "name": "Indian Oil", "name:kn": "\u0c87\u0c82\u0ca1\u0cbf\u0caf\u0ca8\u0ccd \u0c86\u0caf\u0cbf\u0cb2\u0ccd", "operator": "Indian Oil"}}, {"type": "way", "id": 773825319, "nodes": [7223109316, 7223109315, 7223109314, 7223109313, 7223109316], "tags": {"amenity": "fuel", "brand": "Bharat Petroleum", "brand:wikidata": "Q854826", "name": "Bharat Petroleum", "name:kn": "\u0cad\u0cbe\u0cb0\u0ca4\u0ccd \u0caa\u0cc6\u0c9f\u0ccd\u0cb0\u0ccb\u0cb2\u0cbf\u0caf\u0c82", "operator": "Bharat Petroleum"}}, {"type": "way", "id": 777288192, "nodes": [7252943246, 7252943247, 7252943248, 7252943249, 7252943246], "tags": {"amenity": "fuel", "brand": "Nayara", "brand:wikidata": "Q5399377", "compressed_air": "yes", "landuse": "retail", "name": "Nayara Petrol Pump", "self_service": "no", "wheelchair": "yes"}}, {"type": "way", "id": 777618524, "nodes": [7256985302, 7256985301, 7256985300, 7256985299, 7256985302], "tags": {"amenity": "fuel", "brand": "Essar", "brand:wikidata": "Q5399372", "check_date": "2025-06-14", "compressed_air": "yes", "name": "Essar Uni Gas", "operator": "Essar Uni Gas"}}, {"type": "way", "id": 777690257, "nodes": [7257728191, 7257728190, 7257728189, 7257728191], "tags": {"addr:street": "New BEL Road", "amenity": "fuel", "brand": "Hindustan Petroleum", "brand:wikidata": "Q1619375", "name": "Hindustan Petroleum", "name:kn": "\u0cb9\u0cbf\u0c82\u0ca6\u0cc1\u0cb8\u0ccd\u0ca4\u0cbe\u0ca8\u0ccd \u0caa\u0cc6\u0c9f\u0ccd\u0cb0\u0ccb\u0cb2\u0cbf\u0caf\u0c82", "official_name": "Hindustan Petroleum", "operator": "Hindustan Petroleum"}}, {"type": "way", "id": 779344669, "nodes": [3304756871, 7277381447, 11882716459, 363759857, 363759860, 3304756871], "tags": {"addr:city": "Bengaluru", "amenity": "fuel", "brand": "Hindustan Petroleum", "brand:wikidata": "Q1619375", "brand:wikipedia": "en:Hindustan Petroleum", "compressed_air": "yes", "fuel:diesel": "yes", "fuel:engine_oil": "yes", "fuel:petrol": "yes", "name": "HP", "name:kn": "\u0cb9\u0cbf\u0c82\u0ca6\u0cc1\u0cb8\u0ccd\u0ca4\u0cbe\u0ca8\u0ccd \u0caa\u0cc6\u0c9f\u0ccd\u0cb0\u0ccb\u0cb2\u0cbf\u0caf\u0c82", "official_name": "Hindustan Petroleum", "operator": "Favourite Auto Service", "self_service": "yes"}}, {"type": "way", "id": 781001557, "nodes": [7292436112, 7292436111, 7292436110, 7292436109, 7292436112], "tags": {"amenity": "fuel", "brand": "Indian Oil", "brand:wikidata": "Q1289348", "name": "Indian Oil", "name:kn": "\u0c87\u0c82\u0ca1\u0cbf\u0caf\u0ca8\u0ccd \u0c86\u0caf\u0cbf\u0cb2\u0ccd", "operator": "Indian Oil"}}, {"type": "way", "id": 781192796, "nodes": [7293817161, 7293817160, 7293817159, 7293817158, 7293817161], "tags": {"amenity": "fuel", "brand": "Total", "brand:wikidata": "Q154037", "name": "Total", "operator": "Total"}}, {"type": "way", "id": 781532338, "nodes": [7296694751, 7296694750, 608958334, 7296694749, 7296694748, 7296694747, 7296694746, 7296694751], "tags": {"amenity": "fuel", "brand": "Bharat Petroleum", "brand:wikidata": "Q854826", "name": "Bharat Petroleum", "name:kn": "\u0cad\u0cbe\u0cb0\u0ca4\u0ccd \u0caa\u0cc6\u0c9f\u0ccd\u0cb0\u0ccb\u0cb2\u0cbf\u0caf\u0c82", "operator": "Bharat Petroleum"}}, {"type": "way", "id": 1047549733, "nodes": [9632587542, 9632587541, 9632587540, 9632587539, 9632587542], "tags": {"amenity": "fuel", "brand": "Shell", "brand:wikidata": "Q110716465", "compressed_air": "yes", "name": "Shell", "name:kn": "\u0cb6\u0cc6\u0cb2\u0ccd", "operator": "Shell"}}, {"type": "way", "id": 1051886131, "nodes": [9666477565, 9666477564, 1466699838, 2334240623, 9666477565], "tags": {"amenity": "fuel", "brand": "Bharat Petroleum", "brand:wikidata": "Q854826", "compressed_air": "yes", "name": "Bharat Petroleum", "name:kn": "\u0cad\u0cbe\u0cb0\u0ca4\u0ccd \u0caa\u0cc6\u0c9f\u0ccd\u0cb0\u0ccb\u0cb2\u0cbf\u0caf\u0c82", "operator": "Bharat Petroleum"}}, {"type": "way", "id": 1052004252, "nodes": [9667588501, 9667588500, 9667588499, 9667588498, 9667588501], "tags": {"amenity": "fuel", "brand": "Bharat Petroleum", "brand:wikidata": "Q854826", "name": "Bharat Petroleum", "name:kn": "\u0cad\u0cbe\u0cb0\u0ca4\u0ccd \u0caa\u0cc6\u0c9f\u0ccd\u0cb0\u0ccb\u0cb2\u0cbf\u0caf\u0c82", "operator": "Bharat Petroleum"}}, {"type": "way", "id": 1060103765, "nodes": [9739831277, 9739831276, 9739831275, 9739831274, 9739831277], "tags": {"amenity": "fuel", "brand": "Shell", "brand:wikidata": "Q110716465", "compressed_air": "no", "name": "Shell", "name:kn": "\u0cb6\u0cc6\u0cb2\u0ccd", "operator": "Shell"}}, {"type": "way", "id": 1062359636, "nodes": [9759746807, 9759746806, 9759746805, 9759746804, 10683922567, 9759746807], "tags": {"amenity": "fuel", "brand": "Shell", "brand:wikidata": "Q110716465", "compressed_air": "yes", "name": "Shell", "name:kn": "\u0cb6\u0cc6\u0cb2\u0ccd", "operator": "Shell"}}, {"type": "way", "id": 1065072655, "nodes": [9781094443, 9781094442, 9781094441, 9781094440, 9781094443], "tags": {"amenity": "fuel", "brand": "Nayara", "brand:wikidata": "Q5399377", "name": "Nayara Suryodaya Petrol Pump", "operator": "Nayara"}}, {"type": "way", "id": 1065072656, "nodes": [9781094452, 9781094451, 9781094450, 9781094449, 9781094452], "tags": {"amenity": "fuel", "check_date": "2024-10-19", "name": "Indian Auto Gas"}}, {"type": "way", "id": 1066006344, "nodes": [677286835, 9789436891, 9789436892, 9789436893, 677286835], "tags": {"addr:city": "Bangalore", "addr:street": "Lavelle Road", "amenity": "fuel", "brand": "Shell", "brand:wikidata": "Q110716465", "check_date": "2024-08-19", "fuel:biodiesel": "no", "fuel:biogas": "no", "fuel:cng": "no", "fuel:diesel": "yes", "fuel:e10": "no", "fuel:e85": "no", "fuel:electricity": "no", "fuel:lpg": "no", "landuse": "commercial", "name": "Shell", "name:kn": "\u0cb6\u0cc6\u0cb2\u0ccd", "operator": "Shell"}}, {"type": "way", "id": 1067072819, "nodes": [1473308106, 9797919700, 9797919701, 9797919702, 1473308106], "tags": {"amenity": "fuel", "brand": "Bharat Petroleum", "brand:wikidata": "Q854826", "fuel:diesel": "yes", "fuel:lpg": "yes", "name": "Bharat Petroleum", "name:kn": "\u0cad\u0cbe\u0cb0\u0ca4\u0ccd \u0caa\u0cc6\u0c9f\u0ccd\u0cb0\u0ccb\u0cb2\u0cbf\u0caf\u0c82"}}, {"type": "way", "id": 1068769787, "nodes": [1925224138, 9810747937, 9810747938, 9810747939, 1925224138], "tags": {"amenity": "fuel", "brand": "Bharat Petroleum", "brand:wikidata": "Q854826", "compressed_air": "yes", "name": "Bharat Petroleum", "name:kn": "\u0cad\u0cbe\u0cb0\u0ca4\u0ccd \u0caa\u0cc6\u0c9f\u0ccd\u0cb0\u0ccb\u0cb2\u0cbf\u0caf\u0c82"}}, {"type": "way", "id": 1068769789, "nodes": [9810747948, 9810747949, 9810747950, 9810747951, 9810747948], "tags": {"amenity": "fuel", "brand": "Indian Oil", "brand:wikidata": "Q1289348", "compressed_air": "yes", "name": "Indian Oil", "name:kn": "\u0c87\u0c82\u0ca1\u0cbf\u0caf\u0ca8\u0ccd \u0c86\u0caf\u0cbf\u0cb2\u0ccd"}}, {"type": "way", "id": 1070002220, "nodes": [4349872695, 9820589381, 9820589382, 12655860549, 9820589383, 4349872695], "tags": {"amenity": "fuel", "brand": "Indian Oil", "brand:wikidata": "Q1289348", "brand:wikipedia": "en:Indian Oil Corporation", "check_date": "2025-07-09", "compressed_air": "yes", "fuel:diesel": "yes", "fuel:petrol": "yes", "name": "Indian Oil", "name:kn": "\u0c87\u0c82\u0ca1\u0cbf\u0caf\u0ca8\u0ccd \u0c86\u0caf\u0cbf\u0cb2\u0ccd", "self_service": "no", "source": "survey"}}, {"type": "way", "id": 1073073121, "nodes": [1464743669, 9844348524, 9844348525, 9844348526, 1464743669], "tags": {"amenity": "fuel", "operator": "IBP"}}, {"type": "way", "id": 1073252741, "nodes": [2466528803, 9845753018, 9845753019, 9845753020, 2466528803], "tags": {"amenity": "fuel", "brand": "Indian Oil", "brand:wikidata": "Q1289348", "brand:wikipedia": "en:Indian Oil Corporation", "compressed_air": "yes", "name": "Swathi Petrol / Gas Station", "operator": "Indian Oil"}}, {"type": "way", "id": 1081463161, "nodes": [9912087565, 9912087564, 9912087563, 9912087562, 9912087565], "tags": {"amenity": "fuel", "brand": "Total", "brand:wikidata": "Q154037", "name": "Total", "operator": "Total"}}, {"type": "way", "id": 1096873560, "nodes": [1723840727, 10043935993, 10043935994, 10043935995, 1723840727], "tags": {"amenity": "fuel", "brand": "Shell", "brand:wikidata": "Q110716465", "compressed_air": "yes", "name": "Shell", "name:kn": "\u0cb6\u0cc6\u0cb2\u0ccd"}}, {"type": "way", "id": 1099659590, "nodes": [10066903120, 10066903121, 10066903122, 10066903123, 10066903120], "tags": {"amenity": "fuel", "brand": "Shell", "brand:wikidata": "Q110716465", "name": "Shell", "name:kn": "\u0cb6\u0cc6\u0cb2\u0ccd"}}, {"type": "way", "id": 1099665394, "nodes": [1280987919, 10066952300, 10066952301, 10066952302, 1280987919], "tags": {"addr:street": "19th Main", "amenity": "fuel", "brand": "Indian Oil", "brand:wikidata": "Q1289348", "brand:wikipedia": "en:Indian Oil Corporation", "diesel": "yes", "name": "Indian Oil", "name:kn": "\u0c87\u0c82\u0ca1\u0cbf\u0caf\u0ca8\u0ccd \u0c86\u0caf\u0cbf\u0cb2\u0ccd", "operator": "Indian Oil"}}, {"type": "way", "id": 1106333598, "nodes": [10123822796, 10123822797, 10123822798, 10123822799, 10123822796], "tags": {"amenity": "fuel", "brand": "Indian Oil", "brand:wikidata": "Q1289348", "name": "Indian Oil", "name:kn": "\u0c87\u0c82\u0ca1\u0cbf\u0caf\u0ca8\u0ccd \u0c86\u0caf\u0cbf\u0cb2\u0ccd"}}, {"type": "way", "id": 1120737746, "nodes": [10250489860, 10250489857, 10250489858, 10250489859, 10250489860], "tags": {"amenity": "fuel", "brand": "GAIL", "fuel:cng": "yes", "name": "GAIL", "operator": "GAIL"}}, {"type": "way", "id": 1148302623, "nodes": [10683922581, 12006313229, 10683922580, 12006313228, 661098627, 10683922578, 10683922581], "tags": {"addr:street": "Vyalikaval Main Road", "amenity": "fuel", "brand": "Bharat Petroleum", "brand:wikidata": "Q854826", "check_date": "2024-12-13", "compressed_air": "yes", "landuse": "commercial", "name": "Bharath Petroleum", "name:kn": "\u0cad\u0cbe\u0cb0\u0ca4\u0ccd \u0caa\u0cc6\u0c9f\u0ccd\u0cb0\u0ccb\u0cb2\u0cbf\u0caf\u0c82", "operator": "Bharat Petroleum"}}, {"type": "way", "id": 1153855762, "nodes": [10731130849, 10731130848, 10731130846, 10731130844, 10731130849], "tags": {"amenity": "fuel", "brand": "Bharat Petroleum", "brand:wikidata": "Q854826", "name": "Bharat Petroleum", "name:kn": "\u0cad\u0cbe\u0cb0\u0ca4\u0ccd \u0caa\u0cc6\u0c9f\u0ccd\u0cb0\u0ccb\u0cb2\u0cbf\u0caf\u0c82", "operator": "Bharat Petroleum"}}, {"type": "way", "id": 1153860352, "nodes": [1808847104, 10731191020, 10731191021, 10731191022, 1808847104], "tags": {"amenity": "fuel", "brand": "Indian Oil", "brand:wikidata": "Q1289348", "brand:wikipedia": "en:Indian Oil Corporation", "compressed_air": "yes", "name": "Indian Oil", "name:kn": "\u0c87\u0c82\u0ca1\u0cbf\u0caf\u0ca8\u0ccd \u0c86\u0caf\u0cbf\u0cb2\u0ccd", "opening_hours": "24/7", "operator": "Indian Oil"}}, {"type": "way", "id": 1157172405, "nodes": [10259293971, 10761044603, 10761044604, 10761052205, 10259293971], "tags": {"amenity": "fuel", "brand": "Hindustan Petroleum", "brand:wikidata": "Q1619375", "check_date": "2022-12-09", "compressed_air": "yes", "fuel:diesel": "yes", "fuel:petrol": "yes", "name": "HP", "name:kn": "\u0cb9\u0cbf\u0c82\u0ca6\u0cc1\u0cb8\u0ccd\u0ca4\u0cbe\u0ca8\u0ccd \u0caa\u0cc6\u0c9f\u0ccd\u0cb0\u0ccb\u0cb2\u0cbf\u0caf\u0c82", "official_name": "Hindustan Petroleum", "self_service": "no", "source": "survey"}}, {"type": "way", "id": 1160442879, "nodes": [11303599877, 10792812737, 10792812736, 11303599878, 11303599877], "tags": {"amenity": "fuel", "brand": "Shell", "brand:wikidata": "Q110716465", "name": "Shell", "name:kn": "\u0cb6\u0cc6\u0cb2\u0ccd", "operator": "Shell"}}, {"type": "way", "id": 1161785400, "nodes": [7208904139, 10805316277, 10805316278, 10805316279, 7208904139], "tags": {"amenity": "fuel", "brand": "Total", "brand:wikidata": "Q154037", "compressed_air": "no", "name": "Total Gas", "operator": "Total"}}, {"type": "way", "id": 1163334246, "nodes": [10819136552, 10819136551, 10819136550, 10819136549, 10819136552], "tags": {"amenity": "fuel", "brand": "Nayara", "brand:wikidata": "Q1360409", "name": "Nayara", "operator": "Nayara"}}, {"type": "way", "id": 1167155057, "nodes": [10853093223, 10853093226, 10853093225, 10853093224, 10853093223], "tags": {"amenity": "fuel", "brand": "Total", "brand:wikidata": "Q154037", "name": "Total"}}, {"type": "way", "id": 1186050696, "nodes": [10083900219, 11016534777, 11016534778, 11016534779, 10083900219], "tags": {"amenity": "fuel", "brand": "Shell", "brand:wikidata": "Q110716465", "check_date": "2022-10-08", "fuel:diesel": "yes", "fuel:petrol": "yes", "name": "Shell", "name:kn": "\u0cb6\u0cc6\u0cb2\u0ccd"}}, {"type": "way", "id": 1195571016, "nodes": [11096782361, 11096782360, 11096782359, 11096782358, 11096782361], "tags": {"amenity": "fuel", "brand": "Indian Oil", "brand:wikidata": "Q1289348", "name": "Indian Oil", "name:kn": "\u0c87\u0c82\u0ca1\u0cbf\u0caf\u0ca8\u0ccd \u0c86\u0caf\u0cbf\u0cb2\u0ccd", "operator": "Indian Oil"}}, {"type": "way", "id": 1195571017, "nodes": [11096782367, 11096782366, 11096782365, 11096782364, 11096782367], "tags": {"amenity": "fuel", "brand": "Trigaz", "name": "Trigaz", "operator": "Trigaz"}}, {"type": "way", "id": 1195571025, "nodes": [11096802223, 11096802222, 11096802221, 4623704803, 11096802223], "tags": {"amenity": "fuel", "brand": "Indian Oil", "brand:wikidata": "Q1289348", "name": "Indian Oil", "name:kn": "\u0c87\u0c82\u0ca1\u0cbf\u0caf\u0ca8\u0ccd \u0c86\u0caf\u0cbf\u0cb2\u0ccd", "operator": "Indian Oil"}}, {"type": "way", "id": 1199525588, "nodes": [4725359293, 11125567293, 9285657011, 4725359294, 4725359293], "tags": {"amenity": "fuel", "brand": "Shell", "brand:wikidata": "Q110716465", "brand:wikipedia": "en:Royal Dutch Shell", "compressed_air": "yes", "name": "Shell", "name:kn": "\u0cb6\u0cc6\u0cb2\u0ccd"}}, {"type": "way", "id": 1203406064, "nodes": [3603150567, 11155345163, 11155345164, 11155345165, 3603150567], "tags": {"amenity": "fuel", "toilets:wheelchair": "no", "wheelchair": "yes"}}, {"type": "way", "id": 1206037819, "nodes": [1473975632, 11175932406, 11175932407, 11175932408, 1473975632], "tags": {"amenity": "fuel", "brand": "Shell", "brand:wikidata": "Q110716465", "fuel:diesel": "yes", "landuse": "commercial", "name": "Shell", "name:kn": "\u0cb6\u0cc6\u0cb2\u0ccd", "wheelchair": "limited"}}, {"type": "way", "id": 1208844935, "nodes": [3553129737, 11200377532, 3537744988, 3537744992, 11200377533, 3553129737], "tags": {"amenity": "fuel", "brand": "Hindustan Petroleum", "brand:wikidata": "Q1619375", "name": "HP", "official_name": "Hindustan Petroleum"}}, {"type": "way", "id": 1210592626, "nodes": [11215990977, 11215990976, 11215990975, 11215990974, 11215990977], "tags": {"amenity": "fuel", "brand": "Gail Gas", "fuel:cng": "yes", "self_service": "no"}}, {"type": "way", "id": 1212235820, "nodes": [11231119866, 1463795931, 11231119865, 11231119864, 11231119866], "tags": {"amenity": "fuel", "brand": "JIO BP", "brand:wikidata": "Q7311026", "check_date": "2025-05-16", "fuel:diesel": "yes", "fuel:lpg": "yes", "fuel:petrol": "yes", "name": "Jio-bp", "operator": "Not Working"}}, {"type": "way", "id": 1217250856, "nodes": [11278821972, 11278821971, 11278821970, 11278821969, 11278821972], "tags": {"amenity": "fuel", "brand": "Go Gas", "name": "Go Gas", "operator": "Go Gas"}}, {"type": "way", "id": 1217250869, "nodes": [11278822020, 11278822039, 11278822038, 11278822019, 11278822020], "tags": {"amenity": "fuel", "brand": "Total", "brand:wikidata": "Q154037", "name": "Total Gas", "operator": "Total Gas"}}, {"type": "way", "id": 1219843715, "nodes": [6341373565, 11303017932, 11303017933, 11303017934, 6341373565], "tags": {"amenity": "fuel", "brand": "Essar", "brand:wikidata": "Q5399372", "name": "Essar Fuel"}}, {"type": "way", "id": 1219843728, "nodes": [11073333898, 11303061370, 11303061371, 11303061372, 11073333898], "tags": {"amenity": "fuel", "brand": "Indian Oil", "brand:wikidata": "Q1289348", "name": "Indian Oil", "name:kn": "\u0c87\u0c82\u0ca1\u0cbf\u0caf\u0ca8\u0ccd \u0c86\u0caf\u0cbf\u0cb2\u0ccd"}}, {"type": "way", "id": 1220427731, "nodes": [11303770425, 11308901245, 11308901246, 11308901247, 11303770425], "tags": {"amenity": "fuel", "name": "Gail Gas"}}, {"type": "way", "id": 1220427733, "nodes": [11303671237, 11308901252, 11308901253, 11308901254, 11303671237], "tags": {"amenity": "fuel", "branch": "Hindustan Petroleum", "name": "Adwittya Filling Center"}}, {"type": "way", "id": 1220427740, "nodes": [4456310691, 11308911778, 11308911779, 11308911780, 4456310691], "tags": {"amenity": "fuel", "brand": "Shell", "brand:wikidata": "Q110716465", "name": "Shell", "name:en": "Shell", "name:kn": "\u0cb6\u0cc6\u0cb2\u0ccd"}}, {"type": "way", "id": 1236233074, "nodes": [11478245919, 11478245920, 2389350049, 11478245918, 11478245919]}, {"type": "way", "id": 1239012965, "nodes": [11509998528, 11509998527, 11509998526, 11509998525, 11509998528], "tags": {"amenity": "fuel", "brand": "GAIL", "fuel:cng": "yes", "operator": "GAIL"}}, {"type": "way", "id": 1242263790, "nodes": [11543569687, 11543569686, 11543569685, 11543569684, 11543569687], "tags": {"addr:housenumber": "165", "amenity": "fuel", "source": "GEPTIS"}}, {"type": "way", "id": 1242815457, "nodes": [11549842932, 11549842931, 11549842930, 11549842929, 11549842932], "tags": {"amenity": "fuel", "brand": "Nayara", "brand:wikidata": "Q5399377", "name": "Nayara"}}, {"type": "way", "id": 1245298058, "nodes": [11576910646, 11576910647, 11576910648, 11576910649, 11576910646], "tags": {"amenity": "fuel", "brand": "Indian Oil", "brand:wikidata": "Q1289348", "coco": "yes", "name": "Indian Oil"}}, {"type": "way", "id": 1254315988, "nodes": [661983026, 11659636857, 11659636858, 11659636859, 661983026], "tags": {"addr:street": "Raj Bhavan Road", "amenity": "fuel", "brand": "Hindustan Petroleum", "brand:wikidata": "Q1619375", "compressed_air": "yes", "name": "Bharati Petrol / Gas Station", "name:kn": "\u0cad\u0cbe\u0cb0\u0ca4\u0ccd \u0c97\u0ccd\u0caf\u0cbe\u0cb8\u0ccd \u0cb8\u0ccd\u0c9f\u0cc7\u0cb6\u0ca8\u0ccd", "official_name": "Hindustan Petroleum", "operator": "HP", "self_service": "no"}}, {"type": "way", "id": 1254353736, "nodes": [11659973167, 11659973166, 11659973165, 11659973164, 11659973167], "tags": {"amenity": "fuel", "brand": "Shell", "brand:wikidata": "Q110716465", "compressed_air": "yes", "name": "Shell", "name:kn": "\u0cb6\u0cc6\u0cb2\u0ccd", "operator": "Shell"}}, {"type": "way", "id": 1256457817, "nodes": [11680817146, 4975552999, 11680817145, 11680817144, 11680817146], "tags": {"amenity": "fuel", "brand": "Bharath Petroleum", "compressed_air": "yes", "source": "gps"}}, {"type": "way", "id": 1257194251, "nodes": [10218082460, 11688204052, 12717756093, 12717756092, 10218082460], "tags": {"amenity": "fuel", "brand": "Hindustan Petroleum", "brand:wikidata": "Q1619375", "check_date": "2022-11-25", "compressed_air": "yes", "fuel:diesel": "yes", "fuel:petrol": "yes", "name": "HP", "name:kn": "\u0cb9\u0cbf\u0c82\u0ca6\u0cc1\u0cb8\u0ccd\u0ca4\u0cbe\u0ca8\u0ccd \u0caa\u0cc6\u0c9f\u0ccd\u0cb0\u0ccb\u0cb2\u0cbf\u0caf\u0c82", "official_name": "Hindustan Petroleum", "self_service": "no", "source": "survey"}}, {"type": "way", "id": 1257194263, "nodes": [11248255455, 11688206883, 11688206884, 11688206885, 11248255455], "tags": {"amenity": "fuel", "check_date": "2023-10-08"}}, {"type": "way", "id": 1257194266, "nodes": [1789733012, 11688206899, 11688206900, 11688206901, 1789733012], "tags": {"amenity": "fuel", "brand": "Indian Oil", "brand:wikidata": "Q1289348", "compressed_air": "yes", "name": "Indian Oil", "wheelchair": "yes"}}, {"type": "way", "id": 1263380580, "nodes": [11738157566, 11738157565, 11738157562, 11738157561, 11738157564, 11738157560, 11738157559, 11738157558, 11738157563, 11575753882, 11738157557, 11738157566], "tags": {"amenity": "fuel", "brand": "Bharat Petroleum", "brand:wikidata": "Q854826", "name": "Bharat Petroleum"}}, {"type": "way", "id": 1263805847, "nodes": [11741744712, 11801601967, 1331929297, 11741744711, 11741744710, 11741744712], "tags": {"amenity": "fuel", "brand": "Indian Oil", "brand:wikidata": "Q1289348", "brand:wikipedia": "en:Indian Oil Corporation", "name": "Chinnaswamy Petrol", "operator": "Indian Oil"}}, {"type": "way", "id": 1263805882, "nodes": [4117122379, 11741744910, 11741744909, 11741744908, 11741744907, 4117122379], "tags": {"amenity": "fuel", "brand": "Bharat Petroleum", "brand:wikidata": "Q854826", "name": "Bharath Petroleum", "name:en": "Bharath Petroleum", "name:kn": "\u0cad\u0cbe\u0cb0\u0ca4\u0ccd \u0caa\u0cc6\u0c9f\u0ccd\u0cb0\u0ccb\u0cb2\u0cbf\u0caf\u0c82", "opening_hours": "24/7", "source": "gps"}}, {"type": "way", "id": 1265721147, "nodes": [11757261518, 3006026502, 6292996138, 6292996137, 11757261518], "tags": {"amenity": "fuel", "brand": "Bharat Petroleum", "brand:wikidata": "Q854826", "name": "Bharat Petroleum", "name:kn": "\u0cad\u0cbe\u0cb0\u0ca4\u0ccd \u0caa\u0cc6\u0c9f\u0ccd\u0cb0\u0ccb\u0cb2\u0cbf\u0caf\u0c82", "operator": "JainPax Filling Station"}}, {"type": "way", "id": 1265721171, "nodes": [11757261676, 11757261675, 11757261674, 11757261673, 11757261676], "tags": {"amenity": "fuel", "brand": "Shell"}}, {"type": "way", "id": 1265721190, "nodes": [11757261766, 1463554005, 11757261765, 11757261764, 11757261766], "tags": {"amenity": "fuel", "brand": "Indian Oil", "brand:wikidata": "Q1289348", "brand:wikipedia": "en:Indian Oil Corporation", "name": "Indian Oil", "name:kn": "\u0c87\u0c82\u0ca1\u0ccd\u0caf\u0ca8\u0ccd \u0c86\u0caf\u0cbf\u0cb2\u0ccd"}}, {"type": "way", "id": 1265721214, "nodes": [447167866, 6899554651, 11757261863, 11757261862, 447167866], "tags": {"amenity": "fuel", "brand": "Indian Oil", "brand:wikidata": "Q1289348", "brand:wikipedia": "en:Indian Oil Corporation", "name": "Indian Oil", "name:kn": "\u0c87\u0c82\u0ca1\u0cbf\u0caf\u0ca8\u0ccd \u0c86\u0caf\u0cbf\u0cb2\u0ccd", "operator": "Indian Oil"}}, {"type": "way", "id": 1265721216, "nodes": [11757261870, 11757261869, 7124635755, 11757261868, 11757261870], "tags": {"amenity": "fuel", "brand": "Indian Oil", "brand:wikidata": "Q1289348", "brand:wikipedia": "en:Indian Oil Corporation", "check_date:compressed_air": "2022-11-29", "compressed_air": "yes", "name": "Indian Oil"}}, {"type": "way", "id": 1265794538, "nodes": [9924572429, 11535980318, 11758069397, 9924572430, 9924572429], "tags": {"amenity": "fuel", "brand": "Shell", "brand:wikidata": "Q110716465", "landuse": "commercial", "name": "Shell", "name:kn": "\u0cb6\u0cc6\u0cb2\u0ccd", "wheelchair": "yes"}}, {"type": "way", "id": 1265806929, "nodes": [11758212346, 11758212345, 2677298190, 11758212344, 11758212346], "tags": {"amenity": "fuel", "brand": "Indian Oil", "brand:wikidata": "Q1289348", "brand:wikipedia": "en:Indian Oil Corporation", "fuel:diesel": "no", "name": "Indian Oil Corporation", "name:kn": "\u0c87\u0c82\u0ca1\u0cbf\u0caf\u0ca8\u0ccd \u0c86\u0caf\u0cbf\u0cb2\u0ccd"}}, {"type": "way", "id": 1272152590, "nodes": [11813266500, 11813266499, 11813266498, 11813266497, 11813266496, 11813266500], "tags": {"amenity": "fuel", "wheelchair": "limited"}}, {"type": "way", "id": 1272455589, "nodes": [11816022234, 11816022237, 11816022236, 11816022235, 11816022234], "tags": {"amenity": "fuel"}}, {"type": "way", "id": 1273000979, "nodes": [530582182, 11821491240, 11821491239, 11821491238, 530582182], "tags": {"amenity": "fuel", "brand": "Indian Oil", "brand:wikidata": "Q1289348", "brand:wikipedia": "en:Indian Oil Corporation", "compressed_air": "yes", "name": "Indian Oil", "operator": "Indian Oil"}}, {"type": "way", "id": 1274548649, "nodes": [3243910468, 11834330250, 11834330249, 11834330248, 3243910468], "tags": {"amenity": "fuel", "brand": "Totalgaz", "fuel:cng": "yes", "name": "Totalgaz"}}, {"type": "way", "id": 1274548654, "nodes": [4545909996, 11834330269, 11834330268, 11834330267, 4545909996], "tags": {"amenity": "fuel", "name": "Go Gas", "name:en": "Go Gas"}}, {"type": "way", "id": 1274793360, "nodes": [11836691624, 11836691625, 11836691626, 11836691627, 11836691624], "tags": {"amenity": "fuel"}}, {"type": "way", "id": 1275463639, "nodes": [11842878665, 11842878666, 11842878667, 11842878668, 11842878665], "tags": {"amenity": "fuel"}}, {"type": "way", "id": 1278078092, "nodes": [11862261708, 11865642197, 11865642196, 11865642195, 11862261708], "tags": {"amenity": "fuel", "brand": "Indian Oil", "brand:wikidata": "Q1289348", "check_date": "2024-04-28", "name": "Indian Oil"}}, {"type": "way", "id": 1278163550, "nodes": [1469190373, 11866193763, 11866193764, 11866193765, 1469190373], "tags": {"amenity": "fuel", "brand": "Hindustan Petroleum", "brand:wikidata": "Q1619375", "compressed_air": "yes", "name": "HP Petrol Pump", "name:kn": "\u0cb9\u0cbf\u0c82\u0ca6\u0cc1\u0cb8\u0ccd\u0ca4\u0cbe\u0ca8\u0ccd \u0caa\u0cc6\u0c9f\u0ccd\u0cb0\u0ccb\u0cb2\u0cbf\u0caf\u0c82", "official_name": "Hindustan Petroleum"}}, {"type": "way", "id": 1278546180, "nodes": [10591250906, 11869416744, 11869416743, 11869416742, 10591250906], "tags": {"amenity": "fuel"}}, {"type": "way", "id": 1279046877, "nodes": [11873917145, 11873917144, 11873917143, 11873917142, 11873917145], "tags": {"amenity": "fuel", "brand": "Indian Oil", "brand:wikidata": "Q1289348", "compressed_air": "yes", "fuel:diesel": "yes", "name": "Indian Oil", "name:kn": "\u0c87\u0c82\u0ca1\u0cbf\u0caf\u0ca8\u0ccd \u0c86\u0caf\u0cbf\u0cb2\u0ccd", "operator": "Indian Oil"}}, {"type": "way", "id": 1280602413, "nodes": [11886911669, 11886896768, 11886896767, 11886896766, 11886896765, 1811327742, 11886911669], "tags": {"amenity": "fuel"}}, {"type": "way", "id": 1280618999, "nodes": [3416332897, 1794653238, 3416332893, 3416332895, 3416332897], "tags": {"amenity": "fuel", "brand": "Bharath Petroluem", "fuel:1_25": "no", "fuel:1_50": "no", "fuel:GTL_diesel": "no", "fuel:HGV_diesel": "no", "fuel:biodiesel": "no", "fuel:biogas": "no", "fuel:cng": "no", "fuel:diesel": "yes", "fuel:e10": "no", "fuel:e85": "no", "fuel:electricity": "no", "fuel:lpg": "no", "fuel:octane_100": "no", "fuel:octane_91": "yes", "fuel:octane_95": "no", "fuel:octane_98": "no"}}, {"type": "way", "id": 1281993748, "nodes": [11897176812, 11897176809, 11897176810, 11897176811, 11897176812], "tags": {"amenity": "fuel"}}, {"type": "way", "id": 1284656988, "nodes": [1929724802, 11917970460, 11917970459, 11917970458, 1929724802], "tags": {"amenity": "fuel", "brand": "Bharat Petroleum"}}, {"type": "way", "id": 1284656989, "nodes": [11917970464, 11917970463, 11917970462, 11917970461, 11917970464], "tags": {"amenity": "fuel"}}, {"type": "way", "id": 1284773488, "nodes": [11919046899, 7216699925, 7216699924, 7216699929, 11919046899], "tags": {"amenity": "fuel", "fuel:cng": "yes", "name": "GAIL Gas Station"}}, {"type": "way", "id": 1284773636, "nodes": [11919056028, 11919056027, 11917452856, 11919056026, 11919056028], "tags": {"amenity": "fuel", "brand": "Indian Oil", "brand:wikidata": "Q1289348", "check_date": "2024-05-19", "name": "Indian Oil"}}, {"type": "way", "id": 1286468237, "nodes": [11932168828, 11248318181, 11932168827, 11932168828], "tags": {"amenity": "fuel", "brand": "Nayara", "brand:wikidata": "Q1360409", "check_date": "2023-10-08", "name": "Nayara", "self_service": "no"}}, {"type": "way", "id": 1286468238, "nodes": [11932168831, 11932168830, 7176651726, 11932168829, 11932168831], "tags": {"amenity": "fuel", "compressed_air": "yes", "name": "Hindustan Petroleum", "name:kn": "\u0cb9\u0cbf\u0c82\u0ca6\u0cc1\u0cb8\u0ccd\u0ca4\u0cbe\u0ca8\u0ccd \u0caa\u0cc6\u0c9f\u0ccd\u0cb0\u0ccb\u0cb2\u0cbf\u0caf\u0c82", "operator": "Hindustan Petroleum"}}, {"type": "way", "id": 1286549232, "nodes": [11932833522, 11932833523, 11932833524, 11932833525, 11932833522], "tags": {"amenity": "fuel", "brand": "Indian Oil Petrol Pump", "brand:wikidata": "Q1289348", "name": "Indian Oil Petrol Pump"}}, {"type": "way", "id": 1286715554, "nodes": [11934201568, 11934201567, 9830286758, 11934201566, 11934201568], "tags": {"amenity": "fuel", "brand": "BP", "brand:wikidata": "Q152057", "compressed_air": "yes", "fuel:diesel": "yes", "fuel:octane_91": "yes", "fuel:octane_95": "yes", "name": "BP", "opening_hours": "06:00-22:00", "wheelchair": "yes"}}, {"type": "way", "id": 1290915140, "nodes": [11968887389, 11968887388, 11968887387, 11968887386, 11968887389], "tags": {"amenity": "fuel"}}, {"type": "way", "id": 1291004769, "nodes": [11969539779, 953621359, 11969539778, 11969539777, 11969539779], "tags": {"amenity": "fuel", "brand": "Indian Oil", "brand:wikidata": "Q1289348", "brand:wikipedia": "en:Indian Oil Corporation", "name": "Kalabhyraveshwara Service Station", "operator": "Indian Oil Corporation"}}, {"type": "way", "id": 1292674656, "nodes": [11983514909, 11983514908, 11983514907, 3899674929, 11983514909], "tags": {"amenity": "fuel", "brand": "Bharat Petroleum", "brand:wikidata": "Q854826", "compressed_air": "yes", "name": "Bharat Petroleum", "name:kn": "\u0cad\u0cbe\u0cb0\u0ca4\u0ccd \u0caa\u0cc6\u0c9f\u0ccd\u0cb0\u0ccb\u0cb2\u0cbf\u0caf\u0c82", "toilets:wheelchair": "no", "wheelchair": "limited"}}, {"type": "way", "id": 1294790822, "nodes": [11999392498, 11999392497, 11999392496, 1473014465, 11999392498], "tags": {"amenity": "fuel", "brand": "Hindustan Petroleum", "brand:wikidata": "Q1619375", "compressed_air": "yes", "landuse": "commercial", "name": "Hindustan Petroleum", "name:kn": "\u0cb9\u0cbf\u0c82\u0ca6\u0cc1\u0cb8\u0ccd\u0ca4\u0cbe\u0ca8\u0ccd \u0caa\u0cc6\u0c9f\u0ccd\u0cb0\u0ccb\u0cb2\u0cbf\u0caf\u0c82", "official_name": "Hindustan Petroleum"}}, {"type": "way", "id": 1294790827, "nodes": [11999392516, 11999392515, 11999392514, 1473008152, 11999392516], "tags": {"amenity": "fuel", "brand": "Indian Oil", "brand:wikidata": "Q1289348", "brand:wikipedia": "en:Indian Oil Corporation", "compressed_air": "yes", "name": "Indian Oil", "name:kn": "\u0c87\u0c82\u0ca1\u0cbf\u0caf\u0ca8\u0ccd \u0c86\u0caf\u0cbf\u0cb2\u0ccd"}}, {"type": "way", "id": 1294790841, "nodes": [11999392572, 11999392571, 11999392570, 11999392569, 11999392572], "tags": {"amenity": "fuel", "brand": "Shell", "brand:wikidata": "Q110716465", "landuse": "commercial", "name": "Shell", "name:kn": "\u0cb6\u0cc6\u0cb2\u0ccd"}}, {"type": "way", "id": 1297388118, "nodes": [12020487151, 2340693286, 12020487150, 12020487149, 12020487151], "tags": {"amenity": "fuel", "brand": "Indian Oil", "brand:wikidata": "Q1289348", "brand:wikipedia": "en:Indian Oil Corporation", "compressed_air": "yes", "name": "Indian Oil", "name:kn": "\u0c87\u0c82\u0ca1\u0cbf\u0caf\u0ca8\u0ccd \u0c86\u0caf\u0cbf\u0cb2\u0ccd", "wheelchair": "limited"}}, {"type": "way", "id": 1297586915, "nodes": [12022160094, 12022160092, 12022160091, 12022160093, 12022160094], "tags": {"amenity": "fuel", "brand": "Shell", "brand:wikidata": "Q110716465", "fuel:diesel": "yes", "fuel:octane_91": "yes", "landuse": "retail", "name": "Shell", "name:kn": "\u0cb6\u0cc6\u0cb2\u0ccd"}}, {"type": "way", "id": 1298716883, "nodes": [12030526568, 12030613069, 12030613070, 10218102645, 12030526568], "tags": {"amenity": "fuel", "brand": "Shell", "brand:wikidata": "Q110716465", "check_date": "2022-11-25", "compressed_air": "yes", "fuel:diesel": "yes", "fuel:petrol": "yes", "name": "Shell", "name:kn": "\u0cb6\u0cc6\u0cb2\u0ccd", "self_service": "no", "source": "survey"}}, {"type": "way", "id": 1298832777, "nodes": [11917452857, 12031596364, 12031596363, 12031596362, 11917452857], "tags": {"amenity": "fuel", "check_date": "2024-05-19", "name": "Trugaz"}}, {"type": "way", "id": 1301730651, "nodes": [12057048119, 12057048118, 12057048117, 12057048116, 12057048119], "tags": {"amenity": "fuel"}}, {"type": "way", "id": 1301730653, "nodes": [12057048129, 12057048126, 12057048127, 12057048128, 12057048129], "tags": {"amenity": "fuel", "brand": "Bharat Petroleum", "brand:wikidata": "Q854826", "name": "Sri Nageshwar petrol station", "self_service": "no"}}, {"type": "way", "id": 1302188293, "nodes": [1463596892, 12060592481, 12060592482, 12060592483, 1463596892], "tags": {"amenity": "fuel", "brand": "Indian Oil", "brand:wikidata": "Q1289348", "name": "Devegowda Petrol Bunk", "name:kn": "\u0ca6\u0cc7\u0cb5\u0cc6\u0c97\u0ccc\u0ca1"}}, {"type": "way", "id": 1305606064, "nodes": [12092280388, 12092280387, 12092280386, 12092280385, 12092280388], "tags": {"amenity": "fuel", "compressed_air": "yes"}}, {"type": "way", "id": 1306491451, "nodes": [1472858757, 12100028677, 12100028676, 12100028675, 1472858757], "tags": {"amenity": "fuel", "brand": "Indane Oil", "compressed_air": "yes", "landuse": "commercial", "name": "Varadaraja Petrol / Gas Station", "wheelchair": "yes"}}, {"type": "way", "id": 1307199153, "nodes": [12105813359, 12105813358, 12105813357, 12105813356, 12105813359], "tags": {"amenity": "fuel"}}, {"type": "way", "id": 1308403295, "nodes": [12116561070, 12116561069, 12116561068, 12113993011, 12116561070], "tags": {"amenity": "fuel"}}, {"type": "way", "id": 1308403425, "nodes": [3673243893, 12116530267, 12116530268, 2126287400, 3673243893], "tags": {"alt_name": "Sri Laxmi Petrol / Gas Station", "amenity": "fuel", "brand": "Bharat Petroleum", "brand:wikidata": "Q854826", "check_date": "2025-08-08", "name": "Bharat Petroleum", "name:kn": "\u0cad\u0cbe\u0cb0\u0ca4\u0ccd \u0caa\u0cc6\u0c9f\u0ccd\u0cb0\u0ccb\u0cb2\u0cbf\u0caf\u0c82", "operator": "Bharat Petroleum", "wheelchair": "limited"}}, {"type": "way", "id": 1308403427, "nodes": [12116530269, 12116530262, 2126287399, 12116530268, 12116530267, 12116530269], "tags": {"alt_name": "Mohan Gas Station", "amenity": "fuel", "brand": "Indian Oil", "brand:wikidata": "Q1289348", "brand:wikipedia": "en:Indian Oil Corporation", "check_date": "2025-08-08", "name": "Indian Oil", "operator": "Indian Oil", "wheelchair": "no"}}, {"type": "way", "id": 1308403450, "nodes": [12116561662, 12116561661, 12116561660, 12116561659, 12116561662], "tags": {"amenity": "fuel"}}, {"type": "way", "id": 1309994351, "nodes": [12128921389, 12128921390, 12128921391, 12128921392, 12128921389], "tags": {"amenity": "fuel", "brand": "Shell", "name": "Shell", "name:kn": "\u0cb6\u0cc6\u0cb2\u0ccd", "operator": "Shell"}}, {"type": "way", "id": 1309995712, "nodes": [12128957165, 11248255454, 12128957149, 12128957166, 12128957165], "tags": {"amenity": "fuel", "check_date": "2023-10-08"}}, {"type": "way", "id": 1310773905, "nodes": [12133240844, 12133240843, 12133240842, 12133240841, 12133240840, 1463663059, 12133240844], "tags": {"amenity": "fuel", "brand": "Indian Oil", "brand:wikidata": "Q1289348", "name": "Indian Oil"}}, {"type": "way", "id": 1310872540, "nodes": [456204160, 12134082405, 5229482748, 12134082406, 456204160], "tags": {"amenity": "fuel", "brand": "Indian Oil", "brand:wikidata": "Q1289348", "brand:wikipedia": "en:Indian Oil Corporation", "compressed_air": "yes", "name": "Indian Oil", "name:kn": "\u0c87\u0c82\u0ca1\u0cbf\u0caf\u0ca8\u0ccd \u0c86\u0caf\u0cbf\u0cb2\u0ccd"}}, {"type": "way", "id": 1310874421, "nodes": [12134110020, 12134110019, 12134110018, 12134111013, 12134110020], "tags": {"amenity": "fuel", "brand": "Bharat Petroleum", "brand:wikidata": "Q854826", "compressed_air": "yes", "name": "Bharat Petroleum"}}, {"type": "way", "id": 1311064544, "nodes": [12135993229, 12135993228, 12135993227, 11019492810, 12135993229], "tags": {"amenity": "fuel"}}, {"type": "way", "id": 1311064569, "nodes": [12135993333, 12135993331, 12135993332, 3010263821, 12135993333], "tags": {"amenity": "fuel", "brand": "Bharat Petroleum", "brand:wikidata": "Q854826", "name": "Bharat Petroleum", "name:kn": "\u0cad\u0cbe\u0cb0\u0ca4\u0ccd \u0caa\u0cc6\u0c9f\u0ccd\u0cb0\u0ccb\u0cb2\u0cbf\u0caf\u0c82", "operator": "Bharat Petroleum", "source": "voice, GPS"}}, {"type": "way", "id": 1311549277, "nodes": [12140229731, 12140229728, 12140229729, 12828718760, 12140229730, 12140229731], "tags": {"amenity": "fuel", "brand": "Hindustan Petroleum", "brand:wikidata": "Q1619375", "name": "Hindustan Petroleum", "name:kn": "\u0cb9\u0cbf\u0c82\u0ca6\u0cc1\u0cb8\u0ccd\u0ca4\u0cbe\u0ca8\u0ccd \u0caa\u0cc6\u0c9f\u0ccd\u0cb0\u0ccb\u0cb2\u0cbf\u0caf\u0c82", "official_name": "Hindustan Petroleum", "wheelchair": "limited"}}, {"type": "way", "id": 1311756238, "nodes": [12141963889, 5348913721, 12141963887, 12141963888, 12141963889], "tags": {"amenity": "fuel", "name": "Shell Petrol Pump", "website": "https://www.shell.in/"}}, {"type": "way", "id": 1311756276, "nodes": [12141967842, 11878470073, 12141967841, 12141967840, 12141967842], "tags": {"amenity": "fuel", "brand:wikidata": "Q1289348", "check_date": "2024-05-04", "self_service": "no"}}, {"type": "way", "id": 1312140915, "nodes": [12145344719, 12145344720, 12145344721, 12145344722, 12145344719], "tags": {"amenity": "fuel"}}, {"type": "way", "id": 1314622025, "nodes": [12167969846, 12167969847, 12167969848, 12167969849, 12167969846], "tags": {"amenity": "fuel"}}, {"type": "way", "id": 1314853573, "nodes": [12169987868, 303938171, 12532200080, 12169987866, 12532200081, 12169987867, 12169987868], "tags": {"addr:street": "Rani Sarla Devi Circle", "amenity": "fuel", "brand": "Indian Oil", "brand:wikidata": "Q1289348", "name": "Mahashakthi Enterprises"}}, {"type": "way", "id": 1315564610, "nodes": [12177148921, 12177148922, 12177148923, 12177148924, 12177148921], "tags": {"amenity": "fuel", "brand": "Bharat Petroleum", "brand:wikidata": "Q854826", "name": "Bharat Petroleum", "name:kn": "\u0cad\u0cbe\u0cb0\u0ca4\u0ccd \u0caa\u0cc6\u0c9f\u0ccd\u0cb0\u0ccb\u0cb2\u0cbf\u0caf\u0c82"}}, {"type": "way", "id": 1315658041, "nodes": [3125514993, 12177962373, 12177962372, 12177962363, 12177962371, 3125514993], "tags": {"amenity": "fuel", "brand": "Indian Oil", "brand:wikidata": "Q1289348", "brand:wikipedia": "en:Indian Oil Corporation", "name": "Indian Oil", "name:kn": "\u0c87\u0c82\u0ca1\u0ccd\u0caf\u0ca8\u0ccd \u0c86\u0caf\u0cbf\u0cb2\u0ccd", "source": "GPS"}}, {"type": "way", "id": 1315658042, "nodes": [12177962377, 12177962376, 12177962375, 12177962374, 12177962377], "tags": {"amenity": "fuel", "brand": "Bharat Petroleum", "brand:wikidata": "Q854826", "name": "Bharat Petroleum", "self_service": "no"}}, {"type": "way", "id": 1315659137, "nodes": [12177943697, 12177943696, 12177943695, 12177943694, 12177943693, 12177943697], "tags": {"amenity": "fuel"}}, {"type": "way", "id": 1317621995, "nodes": [12194912509, 12194912506, 12194912507, 12194912508, 12194912509], "tags": {"amenity": "fuel", "brand": "Bharat Petroleum", "brand:wikidata": "Q854826", "check_date": "2025-06-21", "compressed_air": "yes", "fuel:diesel": "yes", "fuel:petrol": "yes", "landuse": "commercial", "name": "Bharat Petroleum", "name:kn": "\u0cad\u0cbe\u0cb0\u0ca4\u0ccd \u0caa\u0cc6\u0c9f\u0ccd\u0cb0\u0ccb\u0cb2\u0cbf\u0caf\u0c82", "operator": "Bharat Petroleum", "self_service": "no", "source": "survey"}}, {"type": "way", "id": 1319396469, "nodes": [3359235126, 12210308003, 12210308004, 12210308005, 3359235126], "tags": {"amenity": "fuel", "brand": "Hindustan Petroleum", "brand:wikidata": "Q1619375", "compressed_air": "yes", "name": "HP Petrol Bunk", "name:kn": "\u0cb9\u0cbf\u0c82\u0ca6\u0cc1\u0cb8\u0ccd\u0ca4\u0cbe\u0ca8\u0ccd \u0caa\u0cc6\u0c9f\u0ccd\u0cb0\u0ccb\u0cb2\u0cbf\u0caf\u0c82", "official_name": "Hindustan Petroleum", "operator": "HP", "wheelchair": "limited"}}, {"type": "way", "id": 1320017879, "nodes": [12215446608, 12215446605, 12215446606, 12215446607, 12215446608], "tags": {"amenity": "fuel"}}, {"type": "way", "id": 1322091224, "nodes": [12234554687, 12234554688, 12234554689, 12234554690, 12234554687], "tags": {"amenity": "fuel", "brand": "Shell", "brand:wikidata": "Q110716465", "name": "Shell", "name:kn": "\u0cb6\u0cc6\u0cb2\u0ccd", "operator": "Shell", "wheelchair": "yes"}}, {"type": "way", "id": 1322091225, "nodes": [12234554691, 12234554692, 12234554693, 12234554694, 12234554691], "tags": {"amenity": "fuel", "brand": "Indian Oil", "brand:wikidata": "Q1289348", "name": "Indian Oil Petrol Pump", "operator": "Indian Oil"}}, {"type": "way", "id": 1322091226, "nodes": [12234554695, 12234554696, 12234554697, 12234554698, 12234554695], "tags": {"amenity": "fuel", "brand": "Hindustan Petroleum", "brand:wikidata": "Q1619375", "name": "HP Petrol Pump", "official_name": "Hindustan Petroleum", "operator": "HPCL"}}, {"type": "way", "id": 1322091227, "nodes": [12234554699, 12234554700, 12234571801, 12234571802, 12234554699], "tags": {"amenity": "fuel", "brand": "Nayara", "brand:wikidata": "Q5399377", "name": "Nayara Essar Petrol Pump", "operator": "Nayara"}}, {"type": "way", "id": 1339066328, "nodes": [12386430531, 12386430530, 12386430529, 12386430528, 12386430531], "tags": {"amenity": "fuel"}}, {"type": "way", "id": 1343349411, "nodes": [11116724237, 12429528322, 12429528323, 12429528324, 11116724237], "tags": {"amenity": "fuel", "brand": "Shell", "brand:wikidata": "Q110716465", "compressed_air": "yes", "name": "Shell", "opening_hours": "Mo-Su 06:00-23:00", "operator": "Shell", "wheelchair": "limited"}}, {"type": "way", "id": 1343404417, "nodes": [1474827885, 12430131944, 12430131943, 11993315944, 12430131942, 1474827885], "tags": {"amenity": "fuel", "brand": "Indian Oil", "name": "Indian Oil", "operator": "Indian Oil"}}, {"type": "way", "id": 1347916271, "nodes": [12468364668, 12468364667, 12468364666, 12468364665, 12468364668], "tags": {"amenity": "fuel"}}, {"type": "way", "id": 1348696401, "nodes": [4130913191, 12475624546, 12475624545, 12475624544, 4130913191], "tags": {"amenity": "fuel", "brand": "Indian Oil", "brand:wikidata": "Q1289348", "compressed_air": "yes", "name": "Indian Oil"}}, {"type": "way", "id": 1349707571, "nodes": [12485916642, 4526176491, 12485916641, 12485916640, 12485916639, 12485916638, 12485916637, 12485916642], "tags": {"addr:street": "Thanisandra Main Road", "amenity": "fuel", "brand": "Bharat Petroleum", "brand:wikidata": "Q854826", "name": "Bharat Petroleum", "name:kn": "\u0cad\u0cbe\u0cb0\u0ca4\u0ccd \u0caa\u0cc6\u0c9f\u0ccd\u0cb0\u0ccb\u0cb2\u0cbf\u0caf\u0c82", "operator": "Bharat Petroleum"}}, {"type": "way", "id": 1351975948, "nodes": [12508477874, 12508477875, 12508477876, 12508477877, 12508477874], "tags": {"amenity": "fuel", "brand": "Indian Oil", "brand:wikidata": "Q1289348", "name": "Indian Oil"}}, {"type": "way", "id": 1352350871, "nodes": [12512424291, 12512424290, 12512424289, 12512424288, 12512424291], "tags": {"amenity": "fuel"}}, {"type": "way", "id": 1352475178, "nodes": [12513657962, 12513657961, 12513657960, 12513657959, 12513657962], "tags": {"amenity": "fuel"}}, {"type": "way", "id": 1353417433, "nodes": [12523150996, 12523150995, 12523150994, 12523150993, 10272681260, 12523150996], "tags": {"amenity": "fuel"}}, {"type": "way", "id": 1353417439, "nodes": [10272681278, 12523178617, 12523178616, 12523178615, 10272681278], "tags": {"amenity": "fuel"}}, {"type": "way", "id": 1353661366, "nodes": [12526337289, 11609505403, 12526337287, 12526337288, 12526337289], "tags": {"amenity": "fuel", "check_date": "2024-02-11"}}, {"type": "way", "id": 1354228613, "nodes": [304272392, 12532117051, 12532117052, 12532117053, 304272392], "tags": {"addr:street": "Bannerghatta Road", "amenity": "fuel", "brand": "Indian Oil", "brand:wikidata": "Q1289348", "brand:wikipedia": "en:Indian Oil Corporation", "name": "Indian Oil Petrol Bunk", "name:kn": "\u0c87\u0c82\u0ca1\u0cbf\u0caf\u0ca8\u0ccd \u0c86\u0caf\u0cbf\u0cb2\u0ccd", "operator": "Indian Oil"}}, {"type": "way", "id": 1363505241, "nodes": [12625023608, 12625023607, 12625023606, 11917222403, 12625023608], "tags": {"amenity": "fuel", "brand": "Shell", "brand:wikidata": "Q110716465", "check_date": "2024-05-19", "name": "Shell", "wheelchair": "yes"}}, {"type": "way", "id": 1363777221, "nodes": [12627848492, 12627848491, 3344229532, 12627848490, 12627848492], "tags": {"amenity": "fuel", "brand": "Hindustan Petroleum", "brand:wikidata": "Q1619375", "check_date": "2024-10-13", "landuse": "commercial", "name": "HP Petrol Pump", "name:kn": "\u0cb9\u0cbf\u0c82\u0ca6\u0cc1\u0cb8\u0ccd\u0ca4\u0cbe\u0ca8\u0ccd \u0caa\u0cc6\u0c9f\u0ccd\u0cb0\u0ccb\u0cb2\u0cbf\u0caf\u0c82", "official_name": "Hindustan Petroleum"}}, {"type": "way", "id": 1364168872, "nodes": [12632041824, 12632041823, 4315994613, 12632041822, 12632041824], "tags": {"addr:city": "Bangalore", "addr:postcode": "560068", "addr:street": "Haralur Road", "amenity": "fuel", "brand": "Indian Oil", "brand:wikidata": "Q1289348", "brand:wikipedia": "en:Indian Oil Corporation", "compressed_air": "yes", "name": "Indian Oil", "name:kn": "\u0c87\u0c82\u0ca1\u0cbf\u0caf\u0ca8\u0ccd \u0c86\u0caf\u0cbf\u0cb2\u0ccd"}}, {"type": "way", "id": 1364481614, "nodes": [12635770922, 12635770921, 12635770920, 2466122566, 12635770919, 12635770918, 12635770922], "tags": {"amenity": "fuel", "brand": "Bharat Petroleum", "brand:wikidata": "Q854826", "compressed_air": "yes", "name": "Matrushree Petrol / Gas Station", "operator": "Bharat Petroleum"}}, {"type": "way", "id": 1364670944, "nodes": [12637898194, 12637898193, 12637898192, 12637898191, 12637898194], "tags": {"amenity": "fuel"}}, {"type": "way", "id": 1364921400, "nodes": [12147837583, 12640036843, 12640036842, 12640036841, 12147837583], "tags": {"amenity": "fuel"}}, {"type": "way", "id": 1366533317, "nodes": [12655819147, 12655819146, 12655819145, 12655819144, 12655819147], "tags": {"addr:floor": "G", "amenity": "fuel", "brand": "Nayara", "brand:wikidata": "Q5399377", "check_date": "2025-06-20", "level": "0", "name": "Nayara", "payment:cash": "yes", "payment:credit_cards": "yes", "payment:debit_cards": "yes"}}, {"type": "way", "id": 1366744185, "nodes": [12657930563, 12657930564, 4839771324, 12657930562, 12657930563], "tags": {"addr:postcode": "560043", "addr:street": "Banaswadi Main Road", "amenity": "fuel", "brand": "Hindustan Petroleum", "brand:wikidata": "Q1619375", "name": "HP Petrol Pump", "name:en": "HP Petrol Pump", "name:kn": "\u0cb9\u0cbf\u0c82\u0ca6\u0cc1\u0cb8\u0ccd\u0ca4\u0cbe\u0ca8\u0ccd \u0caa\u0cc6\u0c9f\u0ccd\u0cb0\u0ccb\u0cb2\u0cbf\u0caf\u0c82", "official_name": "Hindustan Petroleum"}}, {"type": "way", "id": 1370050104, "nodes": [5351138598, 12688134186, 12688134185, 12688134184, 5351138598], "tags": {"amenity": "fuel", "name": "Go Gas"}}, {"type": "way", "id": 1371021625, "nodes": [1474872701, 12697888479, 12697888478, 1474872701], "tags": {"amenity": "fuel", "brand": "Bharat Petroleum", "brand:wikidata": "Q854826", "compressed_air": "yes", "name": "Bharat Petroleum Petrol Pump", "name:kn": "\u0cad\u0cbe\u0cb0\u0ca4\u0ccd \u0caa\u0cc6\u0c9f\u0ccd\u0cb0\u0ccb\u0cb2\u0cbf\u0caf\u0c82"}}, {"type": "way", "id": 1382606115, "nodes": [12800711224, 12800711223, 12800711222, 12800711221, 12800711224], "tags": {"amenity": "fuel"}}, {"type": "way", "id": 1385583281, "nodes": [12828421915, 12828421914, 12828421913, 12828421912, 12828421915], "tags": {"amenity": "fuel"}}, {"type": "way", "id": 1386469070, "nodes": [12836144930, 12836144929, 12836144928, 2911691007, 12836144930], "tags": {"amenity": "fuel", "operator": "BP"}}, {"type": "way", "id": 1387155424, "nodes": [1370777377, 12841376384, 12841376383, 12841376382, 1370777377], "tags": {"amenity": "fuel", "brand": "Bharat Petroleum", "brand:wikidata": "Q854826", "operator": "Bharat Petroleum"}}, {"type": "way", "id": 1393102826, "nodes": [12895444272, 12895444271, 12895444270, 12895444269, 12895444272], "tags": {"amenity": "fuel", "brand": "Nayara", "brand:wikidata": "Q5399377", "name": "Nayara"}}, {"type": "way", "id": 1395880673, "nodes": [12920529209, 1761867746, 12920529208, 12920529207, 12920529209], "tags": {"amenity": "fuel", "name": "IBP Petrol Pump"}}, {"type": "way", "id": 1409545078, "nodes": [12952280499, 11856705117, 12952280498, 12952280497, 12952280496, 12952280499], "tags": {"amenity": "fuel", "brand": "Hindustan Petroleum", "brand:wikidata": "Q1619375", "compressed_air": "yes", "name": "Hindustan Petroleum", "name:kn": "\u0cb9\u0cbf\u0c82\u0ca6\u0cc1\u0cb8\u0ccd\u0ca4\u0cbe\u0ca8\u0ccd \u0caa\u0cc6\u0c9f\u0ccd\u0cb0\u0ccb\u0cb2\u0cbf\u0caf\u0c82", "official_name": "Hindustan Petroleum"}}, {"type": "way", "id": 1410389141, "nodes": [12959707385, 12959707384, 12959707383, 1760695151, 12959707385], "tags": {"amenity": "fuel", "brand": "Bharat Petroleum", "brand:wikidata": "Q854826", "name": "Bharat Petroleum", "operator": "Bharat Petroleum"}}, {"type": "way", "id": 1410389161, "nodes": [12959715872, 12959714467, 10146556486, 442438009, 12959715872], "tags": {"amenity": "fuel", "brand": "GAIL", "name": "GAIL Gas", "operator": "GAIL", "self_service": "no"}}, {"type": "way", "id": 1410389181, "nodes": [12959714539, 12959714538, 12959714537, 6991463866, 12959714539], "tags": {"addr:street": "93, Ramamurthy Nagar Main Road", "amenity": "fuel", "brand": "Shell", "brand:wikidata": "Q110716465", "name": "Shell Petrol Bunk", "name:kn": "\u0cb6\u0cc6\u0cb2\u0ccd", "opening_hours": "24/7"}}, {"type": "way", "id": 1410389398, "nodes": [12959715442, 12959715441, 12959715440, 2635011137, 12959715442], "tags": {"amenity": "fuel", "name": "Bharat Petroleum", "name:kn": "\u0cad\u0cbe\u0cb0\u0ca4\u0ccd \u0caa\u0cc6\u0c9f\u0ccd\u0cb0\u0ccb\u0cb2\u0cbf\u0caf\u0c82"}}, {"type": "way", "id": 1410389508, "nodes": [12959715881, 6991474741, 12959715883, 12959715882, 12959715881], "tags": {"addr:street": "Sy. No. 16 & 17, Ramamurthy Nagar Main Road", "amenity": "fuel", "brand": "Hindustan Petroleum", "brand:wikidata": "Q1619375", "coco": "yes", "name": "HP Petrol Bunk", "name:kn": "\u0cb9\u0cbf\u0c82\u0ca6\u0cc1\u0cb8\u0ccd\u0ca4\u0cbe\u0ca8\u0ccd \u0caa\u0cc6\u0c9f\u0ccd\u0cb0\u0ccb\u0cb2\u0cbf\u0caf\u0c82", "official_name": "Hindustan Petroleum", "opening_hours": "Mo-Su 06:00-22:00"}}, {"type": "way", "id": 1410597951, "nodes": [12961515850, 12961515849, 12961515848, 12638135168, 12961515850], "tags": {"amenity": "fuel"}}, {"type": "way", "id": 1411413005, "nodes": [12969201974, 12969201973, 12969201972, 12969201971, 12969201970, 12969201974], "tags": {"amenity": "fuel"}}, {"type": "way", "id": 1413520211, "nodes": [1285911544, 12990000279, 12990000278, 12990000277, 1285911544], "tags": {"amenity": "fuel"}}, {"type": "way", "id": 1413520212, "nodes": [12990000283, 12990000282, 12990000281, 12990000280, 12990000283], "tags": {"amenity": "fuel"}}, {"type": "way", "id": 1416028304, "nodes": [316480100, 13013033631, 431594757, 13013033630, 316480100], "tags": {"amenity": "fuel", "brand": "Indian Oil", "brand:wikidata": "Q1289348", "brand:wikipedia": "en:Indian Oil Corporation", "compressed_air": "yes", "name": "Indian Oil", "operator": "Indian Oil"}}, {"type": "way", "id": 1419157185, "nodes": [13041261096, 13041261094, 13041261095, 11640704594, 13041261096], "tags": {"amenity": "fuel"}}, {"type": "way", "id": 1419412632, "nodes": [13043171806, 374218299, 13043171808, 13043171807, 13043171806], "tags": {"amenity": "fuel", "check_date": "2025-08-08", "operator": "HP"}}, {"type": "way", "id": 1422508733, "nodes": [13072830045, 304755413, 13072830044, 13072830043, 13072830045], "tags": {"amenity": "fuel", "brand": "Hindustan Petoleum", "fuel": "lpg", "fuel:lpg": "yes", "name": "Advaitha Petrol Bunk", "name:kn": "\u0c85\u0ca7\u0ccd\u0cb5\u0cc8\u0ca4 \u0caa\u0cc6\u0c9f\u0ccd\u0cb0\u0cca\u0cb2\u0ccd \u0cac\u0c82\u0c95\u0ccd", "note": "non functional"}}, {"type": "way", "id": 1424733174, "nodes": [13095825014, 13095825013, 13095825012, 12234554686, 13095825014], "tags": {"amenity": "fuel", "brand": "Hindustan Petroleum", "brand:wikidata": "Q1619375", "man_made": "fuel_pump", "name": "HPCL KSJ enterprises", "official_name": "Hindustan Petroleum", "operator": "Hindustan Petroleum", "self_service": "no"}}, {"type": "way", "id": 1427923024, "nodes": [13127586337, 13127586336, 13127586335, 6831898662, 13127586337], "tags": {"amenity": "fuel", "brand": "Indian Oil", "brand:wikidata": "Q1289348", "name": "Indian Oil"}}, {"type": "way", "id": 1427963451, "nodes": [13127983963, 13127983962, 13127983961, 3004275433, 13127983963], "tags": {"amenity": "fuel", "name": "Total Gaz"}}, {"type": "way", "id": 1434002507, "nodes": [13180138037, 13180138021, 13180138020, 13180138011, 13180138036, 13180138037], "tags": {"amenity": "fuel", "brand": "Indian Oil", "brand:wikidata": "Q1289348", "name": "Indian Oil"}}, {"type": "way", "id": 1442261765, "nodes": [13233884742, 12187048819, 13233884740, 13233884741, 13233884742], "tags": {"amenity": "fuel", "check_date": "2024-09-18", "self_service": "no"}}, {"type": "way", "id": 1443180028, "nodes": [12698738360, 8442476362, 8442476361, 8442476360, 12698738361, 12698738360], "tags": {"amenity": "fuel"}}, {"type": "way", "id": 1443180034, "nodes": [13242861697, 13242861695, 13242861694, 13242861696, 13242861697], "tags": {"amenity": "fuel"}}, {"type": "way", "id": 1443180035, "nodes": [13242861698, 1474854777, 13242861697, 13242861696, 13242861698], "tags": {"amenity": "fuel", "brand": "Hindustan Petroleum", "brand:wikidata": "Q1619375", "brand:wikipedia": "en:Hindustan Petroleum", "name": "HP", "official_name": "Hindustan Petroleum"}}, {"type": "way", "id": 1447184203, "nodes": [13278089308, 13278089309, 13278089310, 13278089311, 13278089312, 12177962379, 13278089313, 13278089314, 13278089308], "tags": {"amenity": "fuel", "brand": "Shell", "brand:wikidata": "Q110716465", "name": "Shell", "self_service": "no"}}, {"type": "relation", "id": 16918697, "members": [{"type": "way", "ref": 1236233074, "role": "outer"}], "tags": {"amenity": "fuel", "brand": "Bharat Petroleum", "brand:wikidata": "Q854826", "compressed_air": "no", "fuel:biodiesel": "no", "fuel:biogas": "no", "fuel:cng": "no", "fuel:diesel": "yes", "fuel:lpg": "no", "fuel:octane_95": "yes", "name": "Reddy Filling Station", "type": "multipolygon"}}]}